<?xml version="1.0" encoding="UTF-8"?>
<gpx version="1.1" creator="Snowdesk route export"
     xmlns="http://www.topografix.com/GPX/1/1"
     xmlns:xsi="http://www.w3.org/2001/XMLSchema-instance"
     xsi:schemaLocation="http://www.topografix.com/GPX/1/1 http://www.topografix.com/GPX/1/1/gpx.xsd">
  <metadata>
    <name>Chamonix - Col de Balme</name>
    <desc>Reconstituted from Snowdesk stored points (route 63498f91-2504-495a-b6a6-7c3c2e43e54e). The uploaded file was parsed and discarded at ingest; this is not it. 1134 points stored; the source count was not recorded for this route. Per-point timestamps are not stored and are absent here.</desc>
    <time>2025-12-14T10:35:20Z</time>
    <bounds minlat="46.021475" minlon="6.95194" maxlat="46.043135" maxlon="6.971357"/>
  </metadata>
  <trk>
    <name>Chamonix - Col de Balme</name>
    <trkseg>
      <trkpt lat="46.021475" lon="6.971277"><ele>2199.6</ele></trkpt>
      <trkpt lat="46.021502" lon="6.971280"><ele>2199.4</ele></trkpt>
      <trkpt lat="46.021522" lon="6.971282"><ele>2199.6</ele></trkpt>
      <trkpt lat="46.021550" lon="6.971287"><ele>2199.8</ele></trkpt>
      <trkpt lat="46.021572" lon="6.971292"><ele>2200.0</ele></trkpt>
      <trkpt lat="46.021595" lon="6.971297"><ele>2200.0</ele></trkpt>
      <trkpt lat="46.021622" lon="6.971300"><ele>2200.4</ele></trkpt>
      <trkpt lat="46.021647" lon="6.971297"><ele>2200.6</ele></trkpt>
      <trkpt lat="46.021672" lon="6.971292"><ele>2201.0</ele></trkpt>
      <trkpt lat="46.021692" lon="6.971292"><ele>2201.0</ele></trkpt>
      <trkpt lat="46.021715" lon="6.971292"><ele>2201.4</ele></trkpt>
      <trkpt lat="46.021735" lon="6.971295"><ele>2201.8</ele></trkpt>
      <trkpt lat="46.021757" lon="6.971295"><ele>2201.8</ele></trkpt>
      <trkpt lat="46.021777" lon="6.971295"><ele>2202.0</ele></trkpt>
      <trkpt lat="46.021797" lon="6.971295"><ele>2202.2</ele></trkpt>
      <trkpt lat="46.021817" lon="6.971297"><ele>2202.8</ele></trkpt>
      <trkpt lat="46.021837" lon="6.971297"><ele>2202.8</ele></trkpt>
      <trkpt lat="46.021857" lon="6.971302"><ele>2203.0</ele></trkpt>
      <trkpt lat="46.021882" lon="6.971307"><ele>2203.2</ele></trkpt>
      <trkpt lat="46.021907" lon="6.971312"><ele>2203.6</ele></trkpt>
      <trkpt lat="46.021927" lon="6.971312"><ele>2203.4</ele></trkpt>
      <trkpt lat="46.021952" lon="6.971317"><ele>2203.6</ele></trkpt>
      <trkpt lat="46.021977" lon="6.971315"><ele>2203.8</ele></trkpt>
      <trkpt lat="46.022000" lon="6.971317"><ele>2203.6</ele></trkpt>
      <trkpt lat="46.022027" lon="6.971317"><ele>2203.4</ele></trkpt>
      <trkpt lat="46.022057" lon="6.971322"><ele>2203.4</ele></trkpt>
      <trkpt lat="46.022075" lon="6.971322"><ele>2203.4</ele></trkpt>
      <trkpt lat="46.022097" lon="6.971327"><ele>2203.6</ele></trkpt>
      <trkpt lat="46.022122" lon="6.971330"><ele>2203.0</ele></trkpt>
      <trkpt lat="46.022150" lon="6.971327"><ele>2203.0</ele></trkpt>
      <trkpt lat="46.022173" lon="6.971327"><ele>2203.0</ele></trkpt>
      <trkpt lat="46.022200" lon="6.971330"><ele>2203.0</ele></trkpt>
      <trkpt lat="46.022217" lon="6.971327"><ele>2202.8</ele></trkpt>
      <trkpt lat="46.022242" lon="6.971322"><ele>2202.4</ele></trkpt>
      <trkpt lat="46.022262" lon="6.971325"><ele>2202.4</ele></trkpt>
      <trkpt lat="46.022282" lon="6.971327"><ele>2202.4</ele></trkpt>
      <trkpt lat="46.022310" lon="6.971330"><ele>2202.2</ele></trkpt>
      <trkpt lat="46.022328" lon="6.971332"><ele>2202.4</ele></trkpt>
      <trkpt lat="46.022347" lon="6.971335"><ele>2202.4</ele></trkpt>
      <trkpt lat="46.022367" lon="6.971337"><ele>2202.2</ele></trkpt>
      <trkpt lat="46.022385" lon="6.971337"><ele>2202.2</ele></trkpt>
      <trkpt lat="46.022405" lon="6.971338"><ele>2202.0</ele></trkpt>
      <trkpt lat="46.022432" lon="6.971342"><ele>2202.0</ele></trkpt>
      <trkpt lat="46.022457" lon="6.971342"><ele>2201.6</ele></trkpt>
      <trkpt lat="46.022480" lon="6.971342"><ele>2201.4</ele></trkpt>
      <trkpt lat="46.022505" lon="6.971342"><ele>2201.2</ele></trkpt>
      <trkpt lat="46.022522" lon="6.971342"><ele>2201.2</ele></trkpt>
      <trkpt lat="46.022550" lon="6.971342"><ele>2200.6</ele></trkpt>
      <trkpt lat="46.022572" lon="6.971338"><ele>2200.6</ele></trkpt>
      <trkpt lat="46.022597" lon="6.971337"><ele>2200.4</ele></trkpt>
      <trkpt lat="46.022615" lon="6.971335"><ele>2200.4</ele></trkpt>
      <trkpt lat="46.022632" lon="6.971332"><ele>2200.4</ele></trkpt>
      <trkpt lat="46.022652" lon="6.971327"><ele>2200.4</ele></trkpt>
      <trkpt lat="46.022675" lon="6.971327"><ele>2200.2</ele></trkpt>
      <trkpt lat="46.022695" lon="6.971327"><ele>2200.2</ele></trkpt>
      <trkpt lat="46.022712" lon="6.971327"><ele>2199.8</ele></trkpt>
      <trkpt lat="46.022732" lon="6.971330"><ele>2199.8</ele></trkpt>
      <trkpt lat="46.022752" lon="6.971332"><ele>2199.8</ele></trkpt>
      <trkpt lat="46.022775" lon="6.971330"><ele>2199.8</ele></trkpt>
      <trkpt lat="46.022792" lon="6.971327"><ele>2199.6</ele></trkpt>
      <trkpt lat="46.022812" lon="6.971325"><ele>2199.4</ele></trkpt>
      <trkpt lat="46.022832" lon="6.971327"><ele>2199.2</ele></trkpt>
      <trkpt lat="46.022855" lon="6.971327"><ele>2199.4</ele></trkpt>
      <trkpt lat="46.022872" lon="6.971330"><ele>2199.2</ele></trkpt>
      <trkpt lat="46.022895" lon="6.971337"><ele>2199.2</ele></trkpt>
      <trkpt lat="46.022915" lon="6.971337"><ele>2199.2</ele></trkpt>
      <trkpt lat="46.022937" lon="6.971335"><ele>2199.8</ele></trkpt>
      <trkpt lat="46.022962" lon="6.971347"><ele>2200.0</ele></trkpt>
      <trkpt lat="46.022980" lon="6.971352"><ele>2199.8</ele></trkpt>
      <trkpt lat="46.023002" lon="6.971355"><ele>2200.2</ele></trkpt>
      <trkpt lat="46.023022" lon="6.971357"><ele>2200.2</ele></trkpt>
      <trkpt lat="46.023045" lon="6.971357"><ele>2200.0</ele></trkpt>
      <trkpt lat="46.023067" lon="6.971357"><ele>2200.4</ele></trkpt>
      <trkpt lat="46.023092" lon="6.971357"><ele>2200.6</ele></trkpt>
      <trkpt lat="46.023112" lon="6.971357"><ele>2200.6</ele></trkpt>
      <trkpt lat="46.023132" lon="6.971357"><ele>2200.6</ele></trkpt>
      <trkpt lat="46.023152" lon="6.971355"><ele>2200.8</ele></trkpt>
      <trkpt lat="46.023170" lon="6.971352"><ele>2200.8</ele></trkpt>
      <trkpt lat="46.023187" lon="6.971350"><ele>2200.6</ele></trkpt>
      <trkpt lat="46.023210" lon="6.971347"><ele>2200.6</ele></trkpt>
      <trkpt lat="46.023232" lon="6.971347"><ele>2200.6</ele></trkpt>
      <trkpt lat="46.023255" lon="6.971347"><ele>2200.6</ele></trkpt>
      <trkpt lat="46.023277" lon="6.971342"><ele>2200.8</ele></trkpt>
      <trkpt lat="46.023300" lon="6.971338"><ele>2200.6</ele></trkpt>
      <trkpt lat="46.023322" lon="6.971335"><ele>2200.6</ele></trkpt>
      <trkpt lat="46.023347" lon="6.971327"><ele>2200.6</ele></trkpt>
      <trkpt lat="46.023370" lon="6.971322"><ele>2200.6</ele></trkpt>
      <trkpt lat="46.023387" lon="6.971322"><ele>2200.4</ele></trkpt>
      <trkpt lat="46.023412" lon="6.971315"><ele>2200.2</ele></trkpt>
      <trkpt lat="46.023435" lon="6.971302"><ele>2200.2</ele></trkpt>
      <trkpt lat="46.023457" lon="6.971295"><ele>2200.6</ele></trkpt>
      <trkpt lat="46.023477" lon="6.971282"><ele>2200.4</ele></trkpt>
      <trkpt lat="46.023497" lon="6.971267"><ele>2200.4</ele></trkpt>
      <trkpt lat="46.023512" lon="6.971255"><ele>2200.4</ele></trkpt>
      <trkpt lat="46.023532" lon="6.971242"><ele>2200.6</ele></trkpt>
      <trkpt lat="46.023552" lon="6.971227"><ele>2200.4</ele></trkpt>
      <trkpt lat="46.023575" lon="6.971212"><ele>2200.6</ele></trkpt>
      <trkpt lat="46.023597" lon="6.971197"><ele>2200.8</ele></trkpt>
      <trkpt lat="46.023617" lon="6.971182"><ele>2200.8</ele></trkpt>
      <trkpt lat="46.023637" lon="6.971172"><ele>2200.8</ele></trkpt>
      <trkpt lat="46.023662" lon="6.971160"><ele>2200.8</ele></trkpt>
      <trkpt lat="46.023680" lon="6.971148"><ele>2201.0</ele></trkpt>
      <trkpt lat="46.023697" lon="6.971135"><ele>2201.0</ele></trkpt>
      <trkpt lat="46.023717" lon="6.971125"><ele>2201.2</ele></trkpt>
      <trkpt lat="46.023735" lon="6.971107"><ele>2201.2</ele></trkpt>
      <trkpt lat="46.023752" lon="6.971092"><ele>2201.0</ele></trkpt>
      <trkpt lat="46.023775" lon="6.971077"><ele>2201.2</ele></trkpt>
      <trkpt lat="46.023797" lon="6.971062"><ele>2201.6</ele></trkpt>
      <trkpt lat="46.023817" lon="6.971045"><ele>2201.6</ele></trkpt>
      <trkpt lat="46.023833" lon="6.971030"><ele>2201.8</ele></trkpt>
      <trkpt lat="46.023852" lon="6.971020"><ele>2201.8</ele></trkpt>
      <trkpt lat="46.023875" lon="6.971002"><ele>2201.6</ele></trkpt>
      <trkpt lat="46.023892" lon="6.970987"><ele>2201.8</ele></trkpt>
      <trkpt lat="46.023907" lon="6.970972"><ele>2201.6</ele></trkpt>
      <trkpt lat="46.023927" lon="6.970957"><ele>2201.8</ele></trkpt>
      <trkpt lat="46.023947" lon="6.970940"><ele>2201.4</ele></trkpt>
      <trkpt lat="46.023972" lon="6.970920"><ele>2201.6</ele></trkpt>
      <trkpt lat="46.023988" lon="6.970905"><ele>2201.8</ele></trkpt>
      <trkpt lat="46.024007" lon="6.970897"><ele>2201.8</ele></trkpt>
      <trkpt lat="46.024030" lon="6.970887"><ele>2201.8</ele></trkpt>
      <trkpt lat="46.024055" lon="6.970877"><ele>2201.8</ele></trkpt>
      <trkpt lat="46.024077" lon="6.970862"><ele>2201.8</ele></trkpt>
      <trkpt lat="46.024097" lon="6.970850"><ele>2202.0</ele></trkpt>
      <trkpt lat="46.024117" lon="6.970842"><ele>2202.2</ele></trkpt>
      <trkpt lat="46.024140" lon="6.970835"><ele>2202.6</ele></trkpt>
      <trkpt lat="46.024162" lon="6.970825"><ele>2202.8</ele></trkpt>
      <trkpt lat="46.024182" lon="6.970825"><ele>2203.0</ele></trkpt>
      <trkpt lat="46.024200" lon="6.970817"><ele>2202.6</ele></trkpt>
      <trkpt lat="46.024217" lon="6.970810"><ele>2202.8</ele></trkpt>
      <trkpt lat="46.024240" lon="6.970798"><ele>2202.8</ele></trkpt>
      <trkpt lat="46.024262" lon="6.970787"><ele>2202.8</ele></trkpt>
      <trkpt lat="46.024290" lon="6.970782"><ele>2202.8</ele></trkpt>
      <trkpt lat="46.024312" lon="6.970772"><ele>2202.8</ele></trkpt>
      <trkpt lat="46.024332" lon="6.970762"><ele>2202.8</ele></trkpt>
      <trkpt lat="46.024347" lon="6.970747"><ele>2202.8</ele></trkpt>
      <trkpt lat="46.024367" lon="6.970735"><ele>2202.4</ele></trkpt>
      <trkpt lat="46.024385" lon="6.970720"><ele>2202.4</ele></trkpt>
      <trkpt lat="46.024407" lon="6.970702"><ele>2202.6</ele></trkpt>
      <trkpt lat="46.024427" lon="6.970687"><ele>2202.4</ele></trkpt>
      <trkpt lat="46.024447" lon="6.970682"><ele>2202.6</ele></trkpt>
      <trkpt lat="46.024472" lon="6.970667"><ele>2202.6</ele></trkpt>
      <trkpt lat="46.024487" lon="6.970657"><ele>2203.0</ele></trkpt>
      <trkpt lat="46.024507" lon="6.970647"><ele>2203.2</ele></trkpt>
      <trkpt lat="46.024530" lon="6.970632"><ele>2203.2</ele></trkpt>
      <trkpt lat="46.024547" lon="6.970627"><ele>2202.8</ele></trkpt>
      <trkpt lat="46.024570" lon="6.970615"><ele>2202.8</ele></trkpt>
      <trkpt lat="46.024587" lon="6.970605"><ele>2202.6</ele></trkpt>
      <trkpt lat="46.024612" lon="6.970592"><ele>2202.8</ele></trkpt>
      <trkpt lat="46.024632" lon="6.970585"><ele>2202.6</ele></trkpt>
      <trkpt lat="46.024657" lon="6.970572"><ele>2203.0</ele></trkpt>
      <trkpt lat="46.024672" lon="6.970560"><ele>2202.8</ele></trkpt>
      <trkpt lat="46.024692" lon="6.970547"><ele>2202.4</ele></trkpt>
      <trkpt lat="46.024712" lon="6.970535"><ele>2202.4</ele></trkpt>
      <trkpt lat="46.024735" lon="6.970522"><ele>2202.6</ele></trkpt>
      <trkpt lat="46.024755" lon="6.970512"><ele>2202.6</ele></trkpt>
      <trkpt lat="46.024777" lon="6.970507"><ele>2202.6</ele></trkpt>
      <trkpt lat="46.024802" lon="6.970497"><ele>2202.4</ele></trkpt>
      <trkpt lat="46.024822" lon="6.970487"><ele>2202.6</ele></trkpt>
      <trkpt lat="46.024842" lon="6.970477"><ele>2202.6</ele></trkpt>
      <trkpt lat="46.024862" lon="6.970467"><ele>2202.6</ele></trkpt>
      <trkpt lat="46.024877" lon="6.970457"><ele>2202.6</ele></trkpt>
      <trkpt lat="46.024897" lon="6.970447"><ele>2202.8</ele></trkpt>
      <trkpt lat="46.024917" lon="6.970437"><ele>2202.8</ele></trkpt>
      <trkpt lat="46.024937" lon="6.970432"><ele>2203.0</ele></trkpt>
      <trkpt lat="46.024957" lon="6.970422"><ele>2203.0</ele></trkpt>
      <trkpt lat="46.024977" lon="6.970415"><ele>2203.6</ele></trkpt>
      <trkpt lat="46.025000" lon="6.970402"><ele>2203.6</ele></trkpt>
      <trkpt lat="46.025027" lon="6.970392"><ele>2203.6</ele></trkpt>
      <trkpt lat="46.025047" lon="6.970385"><ele>2203.8</ele></trkpt>
      <trkpt lat="46.025072" lon="6.970377"><ele>2203.8</ele></trkpt>
      <trkpt lat="46.025092" lon="6.970370"><ele>2204.0</ele></trkpt>
      <trkpt lat="46.025115" lon="6.970360"><ele>2203.8</ele></trkpt>
      <trkpt lat="46.025137" lon="6.970347"><ele>2203.8</ele></trkpt>
      <trkpt lat="46.025155" lon="6.970337"><ele>2203.8</ele></trkpt>
      <trkpt lat="46.025172" lon="6.970327"><ele>2204.0</ele></trkpt>
      <trkpt lat="46.025190" lon="6.970322"><ele>2204.0</ele></trkpt>
      <trkpt lat="46.025215" lon="6.970307"><ele>2203.6</ele></trkpt>
      <trkpt lat="46.025237" lon="6.970297"><ele>2203.6</ele></trkpt>
      <trkpt lat="46.025262" lon="6.970292"><ele>2203.6</ele></trkpt>
      <trkpt lat="46.025287" lon="6.970282"><ele>2203.6</ele></trkpt>
      <trkpt lat="46.025305" lon="6.970275"><ele>2203.6</ele></trkpt>
      <trkpt lat="46.025332" lon="6.970272"><ele>2203.6</ele></trkpt>
      <trkpt lat="46.025352" lon="6.970262"><ele>2204.0</ele></trkpt>
      <trkpt lat="46.025377" lon="6.970255"><ele>2203.6</ele></trkpt>
      <trkpt lat="46.025400" lon="6.970242"><ele>2203.6</ele></trkpt>
      <trkpt lat="46.025417" lon="6.970232"><ele>2203.6</ele></trkpt>
      <trkpt lat="46.025442" lon="6.970222"><ele>2204.2</ele></trkpt>
      <trkpt lat="46.025462" lon="6.970215"><ele>2204.0</ele></trkpt>
      <trkpt lat="46.025485" lon="6.970210"><ele>2204.0</ele></trkpt>
      <trkpt lat="46.025505" lon="6.970207"><ele>2204.2</ele></trkpt>
      <trkpt lat="46.025527" lon="6.970197"><ele>2204.6</ele></trkpt>
      <trkpt lat="46.025552" lon="6.970192"><ele>2204.4</ele></trkpt>
      <trkpt lat="46.025572" lon="6.970187"><ele>2204.4</ele></trkpt>
      <trkpt lat="46.025592" lon="6.970182"><ele>2204.8</ele></trkpt>
      <trkpt lat="46.025617" lon="6.970180"><ele>2204.4</ele></trkpt>
      <trkpt lat="46.025640" lon="6.970177"><ele>2204.8</ele></trkpt>
      <trkpt lat="46.025660" lon="6.970172"><ele>2205.0</ele></trkpt>
      <trkpt lat="46.025682" lon="6.970170"><ele>2204.6</ele></trkpt>
      <trkpt lat="46.025707" lon="6.970170"><ele>2204.8</ele></trkpt>
      <trkpt lat="46.025730" lon="6.970167"><ele>2204.6</ele></trkpt>
      <trkpt lat="46.025752" lon="6.970163"><ele>2205.4</ele></trkpt>
      <trkpt lat="46.025772" lon="6.970167"><ele>2205.4</ele></trkpt>
      <trkpt lat="46.025795" lon="6.970167"><ele>2205.8</ele></trkpt>
      <trkpt lat="46.025815" lon="6.970163"><ele>2205.8</ele></trkpt>
      <trkpt lat="46.025835" lon="6.970167"><ele>2205.4</ele></trkpt>
      <trkpt lat="46.025860" lon="6.970167"><ele>2205.2</ele></trkpt>
      <trkpt lat="46.025882" lon="6.970167"><ele>2205.2</ele></trkpt>
      <trkpt lat="46.025905" lon="6.970167"><ele>2205.6</ele></trkpt>
      <trkpt lat="46.025927" lon="6.970167"><ele>2205.6</ele></trkpt>
      <trkpt lat="46.025952" lon="6.970167"><ele>2205.6</ele></trkpt>
      <trkpt lat="46.025977" lon="6.970170"><ele>2205.8</ele></trkpt>
      <trkpt lat="46.025997" lon="6.970170"><ele>2205.6</ele></trkpt>
      <trkpt lat="46.026022" lon="6.970170"><ele>2205.8</ele></trkpt>
      <trkpt lat="46.026047" lon="6.970167"><ele>2205.6</ele></trkpt>
      <trkpt lat="46.026067" lon="6.970167"><ele>2206.0</ele></trkpt>
      <trkpt lat="46.026087" lon="6.970167"><ele>2206.2</ele></trkpt>
      <trkpt lat="46.026105" lon="6.970170"><ele>2206.2</ele></trkpt>
      <trkpt lat="46.026125" lon="6.970177"><ele>2206.4</ele></trkpt>
      <trkpt lat="46.026142" lon="6.970192"><ele>2206.4</ele></trkpt>
      <trkpt lat="46.026162" lon="6.970202"><ele>2206.6</ele></trkpt>
      <trkpt lat="46.026182" lon="6.970217"><ele>2206.8</ele></trkpt>
      <trkpt lat="46.026202" lon="6.970227"><ele>2207.0</ele></trkpt>
      <trkpt lat="46.026217" lon="6.970240"><ele>2207.4</ele></trkpt>
      <trkpt lat="46.026242" lon="6.970252"><ele>2207.2</ele></trkpt>
      <trkpt lat="46.026257" lon="6.970265"><ele>2207.4</ele></trkpt>
      <trkpt lat="46.026282" lon="6.970277"><ele>2207.6</ele></trkpt>
      <trkpt lat="46.026297" lon="6.970287"><ele>2207.6</ele></trkpt>
      <trkpt lat="46.026322" lon="6.970302"><ele>2207.4</ele></trkpt>
      <trkpt lat="46.026342" lon="6.970312"><ele>2207.8</ele></trkpt>
      <trkpt lat="46.026362" lon="6.970322"><ele>2207.6</ele></trkpt>
      <trkpt lat="46.026382" lon="6.970330"><ele>2208.0</ele></trkpt>
      <trkpt lat="46.026402" lon="6.970345"><ele>2207.6</ele></trkpt>
      <trkpt lat="46.026427" lon="6.970362"><ele>2207.0</ele></trkpt>
      <trkpt lat="46.026452" lon="6.970370"><ele>2207.0</ele></trkpt>
      <trkpt lat="46.026472" lon="6.970377"><ele>2207.2</ele></trkpt>
      <trkpt lat="46.026497" lon="6.970390"><ele>2207.2</ele></trkpt>
      <trkpt lat="46.026517" lon="6.970390"><ele>2207.0</ele></trkpt>
      <trkpt lat="46.026535" lon="6.970397"><ele>2207.2</ele></trkpt>
      <trkpt lat="46.026552" lon="6.970407"><ele>2206.8</ele></trkpt>
      <trkpt lat="46.026570" lon="6.970410"><ele>2207.6</ele></trkpt>
      <trkpt lat="46.026597" lon="6.970407"><ele>2207.8</ele></trkpt>
      <trkpt lat="46.026622" lon="6.970407"><ele>2208.0</ele></trkpt>
      <trkpt lat="46.026645" lon="6.970415"><ele>2207.8</ele></trkpt>
      <trkpt lat="46.026665" lon="6.970430"><ele>2208.0</ele></trkpt>
      <trkpt lat="46.026685" lon="6.970447"><ele>2207.6</ele></trkpt>
      <trkpt lat="46.026700" lon="6.970462"><ele>2207.6</ele></trkpt>
      <trkpt lat="46.026712" lon="6.970495"><ele>2207.6</ele></trkpt>
      <trkpt lat="46.026722" lon="6.970517"><ele>2206.8</ele></trkpt>
      <trkpt lat="46.026737" lon="6.970542"><ele>2206.8</ele></trkpt>
      <trkpt lat="46.026757" lon="6.970567"><ele>2206.4</ele></trkpt>
      <trkpt lat="46.026775" lon="6.970587"><ele>2206.2</ele></trkpt>
      <trkpt lat="46.026792" lon="6.970600"><ele>2206.0</ele></trkpt>
      <trkpt lat="46.026817" lon="6.970602"><ele>2205.8</ele></trkpt>
      <trkpt lat="46.026847" lon="6.970597"><ele>2205.2</ele></trkpt>
      <trkpt lat="46.026872" lon="6.970592"><ele>2205.0</ele></trkpt>
      <trkpt lat="46.026887" lon="6.970582"><ele>2204.8</ele></trkpt>
      <trkpt lat="46.026912" lon="6.970567"><ele>2204.8</ele></trkpt>
      <trkpt lat="46.026935" lon="6.970560"><ele>2205.2</ele></trkpt>
      <trkpt lat="46.026957" lon="6.970547"><ele>2205.6</ele></trkpt>
      <trkpt lat="46.026980" lon="6.970532"><ele>2205.6</ele></trkpt>
      <trkpt lat="46.027000" lon="6.970522"><ele>2205.8</ele></trkpt>
      <trkpt lat="46.027020" lon="6.970512"><ele>2206.0</ele></trkpt>
      <trkpt lat="46.027037" lon="6.970500"><ele>2206.6</ele></trkpt>
      <trkpt lat="46.027062" lon="6.970492"><ele>2206.8</ele></trkpt>
      <trkpt lat="46.027080" lon="6.970487"><ele>2207.0</ele></trkpt>
      <trkpt lat="46.027098" lon="6.970482"><ele>2207.8</ele></trkpt>
      <trkpt lat="46.027122" lon="6.970477"><ele>2207.8</ele></trkpt>
      <trkpt lat="46.027145" lon="6.970477"><ele>2208.4</ele></trkpt>
      <trkpt lat="46.027167" lon="6.970475"><ele>2208.4</ele></trkpt>
      <trkpt lat="46.027192" lon="6.970472"><ele>2209.0</ele></trkpt>
      <trkpt lat="46.027215" lon="6.970467"><ele>2209.0</ele></trkpt>
      <trkpt lat="46.027235" lon="6.970460"><ele>2209.2</ele></trkpt>
      <trkpt lat="46.027253" lon="6.970448"><ele>2209.2</ele></trkpt>
      <trkpt lat="46.027272" lon="6.970437"><ele>2209.2</ele></trkpt>
      <trkpt lat="46.027290" lon="6.970422"><ele>2209.0</ele></trkpt>
      <trkpt lat="46.027305" lon="6.970410"><ele>2210.6</ele></trkpt>
      <trkpt lat="46.027323" lon="6.970390"><ele>2210.2</ele></trkpt>
      <trkpt lat="46.027342" lon="6.970367"><ele>2210.0</ele></trkpt>
      <trkpt lat="46.027352" lon="6.970342"><ele>2209.8</ele></trkpt>
      <trkpt lat="46.027362" lon="6.970312"><ele>2209.0</ele></trkpt>
      <trkpt lat="46.027372" lon="6.970280"><ele>2208.6</ele></trkpt>
      <trkpt lat="46.027380" lon="6.970252"><ele>2208.2</ele></trkpt>
      <trkpt lat="46.027387" lon="6.970222"><ele>2207.8</ele></trkpt>
      <trkpt lat="46.027397" lon="6.970187"><ele>2207.4</ele></trkpt>
      <trkpt lat="46.027402" lon="6.970152"><ele>2206.8</ele></trkpt>
      <trkpt lat="46.027407" lon="6.970117"><ele>2206.4</ele></trkpt>
      <trkpt lat="46.027412" lon="6.970075"><ele>2205.4</ele></trkpt>
      <trkpt lat="46.027427" lon="6.970032"><ele>2205.0</ele></trkpt>
      <trkpt lat="46.027452" lon="6.969985"><ele>2204.2</ele></trkpt>
      <trkpt lat="46.027478" lon="6.969937"><ele>2203.2</ele></trkpt>
      <trkpt lat="46.027517" lon="6.969890"><ele>2202.0</ele></trkpt>
      <trkpt lat="46.027552" lon="6.969842"><ele>2201.0</ele></trkpt>
      <trkpt lat="46.027582" lon="6.969800"><ele>2199.8</ele></trkpt>
      <trkpt lat="46.027610" lon="6.969762"><ele>2198.8</ele></trkpt>
      <trkpt lat="46.027627" lon="6.969740"><ele>2198.2</ele></trkpt>
      <trkpt lat="46.027637" lon="6.969718"><ele>2197.8</ele></trkpt>
      <trkpt lat="46.027647" lon="6.969692"><ele>2197.8</ele></trkpt>
      <trkpt lat="46.027657" lon="6.969662"><ele>2197.8</ele></trkpt>
      <trkpt lat="46.027670" lon="6.969637"><ele>2197.6</ele></trkpt>
      <trkpt lat="46.027682" lon="6.969610"><ele>2197.6</ele></trkpt>
      <trkpt lat="46.027697" lon="6.969587"><ele>2197.2</ele></trkpt>
      <trkpt lat="46.027707" lon="6.969565"><ele>2197.8</ele></trkpt>
      <trkpt lat="46.027725" lon="6.969555"><ele>2197.4</ele></trkpt>
      <trkpt lat="46.027747" lon="6.969540"><ele>2197.8</ele></trkpt>
      <trkpt lat="46.027767" lon="6.969525"><ele>2197.8</ele></trkpt>
      <trkpt lat="46.027787" lon="6.969517"><ele>2197.8</ele></trkpt>
      <trkpt lat="46.027812" lon="6.969512"><ele>2198.2</ele></trkpt>
      <trkpt lat="46.027832" lon="6.969512"><ele>2198.2</ele></trkpt>
      <trkpt lat="46.027852" lon="6.969512"><ele>2198.6</ele></trkpt>
      <trkpt lat="46.027877" lon="6.969510"><ele>2198.8</ele></trkpt>
      <trkpt lat="46.027900" lon="6.969507"><ele>2199.2</ele></trkpt>
      <trkpt lat="46.027920" lon="6.969507"><ele>2199.4</ele></trkpt>
      <trkpt lat="46.027942" lon="6.969507"><ele>2199.4</ele></trkpt>
      <trkpt lat="46.027960" lon="6.969507"><ele>2199.8</ele></trkpt>
      <trkpt lat="46.027982" lon="6.969510"><ele>2199.8</ele></trkpt>
      <trkpt lat="46.028007" lon="6.969512"><ele>2200.0</ele></trkpt>
      <trkpt lat="46.028027" lon="6.969515"><ele>2200.6</ele></trkpt>
      <trkpt lat="46.028047" lon="6.969517"><ele>2200.8</ele></trkpt>
      <trkpt lat="46.028065" lon="6.969522"><ele>2201.4</ele></trkpt>
      <trkpt lat="46.028087" lon="6.969527"><ele>2201.6</ele></trkpt>
      <trkpt lat="46.028112" lon="6.969532"><ele>2202.0</ele></trkpt>
      <trkpt lat="46.028132" lon="6.969535"><ele>2202.0</ele></trkpt>
      <trkpt lat="46.028157" lon="6.969537"><ele>2202.4</ele></trkpt>
      <trkpt lat="46.028175" lon="6.969540"><ele>2202.8</ele></trkpt>
      <trkpt lat="46.028192" lon="6.969545"><ele>2202.8</ele></trkpt>
      <trkpt lat="46.028212" lon="6.969547"><ele>2203.2</ele></trkpt>
      <trkpt lat="46.028232" lon="6.969545"><ele>2203.6</ele></trkpt>
      <trkpt lat="46.028255" lon="6.969547"><ele>2203.6</ele></trkpt>
      <trkpt lat="46.028277" lon="6.969545"><ele>2204.4</ele></trkpt>
      <trkpt lat="46.028297" lon="6.969545"><ele>2205.0</ele></trkpt>
      <trkpt lat="46.028315" lon="6.969542"><ele>2205.2</ele></trkpt>
      <trkpt lat="46.028335" lon="6.969542"><ele>2205.8</ele></trkpt>
      <trkpt lat="46.028357" lon="6.969542"><ele>2205.8</ele></trkpt>
      <trkpt lat="46.028377" lon="6.969542"><ele>2206.2</ele></trkpt>
      <trkpt lat="46.028402" lon="6.969542"><ele>2206.4</ele></trkpt>
      <trkpt lat="46.028422" lon="6.969545"><ele>2206.8</ele></trkpt>
      <trkpt lat="46.028442" lon="6.969547"><ele>2207.4</ele></trkpt>
      <trkpt lat="46.028462" lon="6.969552"><ele>2207.6</ele></trkpt>
      <trkpt lat="46.028482" lon="6.969555"><ele>2207.6</ele></trkpt>
      <trkpt lat="46.028502" lon="6.969555"><ele>2208.4</ele></trkpt>
      <trkpt lat="46.028525" lon="6.969560"><ele>2208.6</ele></trkpt>
      <trkpt lat="46.028547" lon="6.969562"><ele>2209.0</ele></trkpt>
      <trkpt lat="46.028565" lon="6.969567"><ele>2209.4</ele></trkpt>
      <trkpt lat="46.028585" lon="6.969570"><ele>2209.8</ele></trkpt>
      <trkpt lat="46.028607" lon="6.969575"><ele>2210.4</ele></trkpt>
      <trkpt lat="46.028627" lon="6.969582"><ele>2210.8</ele></trkpt>
      <trkpt lat="46.028647" lon="6.969587"><ele>2211.0</ele></trkpt>
      <trkpt lat="46.028667" lon="6.969595"><ele>2211.2</ele></trkpt>
      <trkpt lat="46.028687" lon="6.969607"><ele>2211.8</ele></trkpt>
      <trkpt lat="46.028707" lon="6.969612"><ele>2212.2</ele></trkpt>
      <trkpt lat="46.028727" lon="6.969620"><ele>2212.4</ele></trkpt>
      <trkpt lat="46.028747" lon="6.969627"><ele>2213.2</ele></trkpt>
      <trkpt lat="46.028765" lon="6.969637"><ele>2213.4</ele></trkpt>
      <trkpt lat="46.028785" lon="6.969650"><ele>2214.8</ele></trkpt>
      <trkpt lat="46.028802" lon="6.969657"><ele>2214.8</ele></trkpt>
      <trkpt lat="46.028822" lon="6.969667"><ele>2215.0</ele></trkpt>
      <trkpt lat="46.028840" lon="6.969677"><ele>2215.2</ele></trkpt>
      <trkpt lat="46.028857" lon="6.969692"><ele>2215.6</ele></trkpt>
      <trkpt lat="46.028872" lon="6.969707"><ele>2216.2</ele></trkpt>
      <trkpt lat="46.028890" lon="6.969717"><ele>2216.6</ele></trkpt>
      <trkpt lat="46.028907" lon="6.969727"><ele>2216.8</ele></trkpt>
      <trkpt lat="46.028925" lon="6.969740"><ele>2217.4</ele></trkpt>
      <trkpt lat="46.028942" lon="6.969752"><ele>2217.4</ele></trkpt>
      <trkpt lat="46.028967" lon="6.969765"><ele>2218.6</ele></trkpt>
      <trkpt lat="46.028997" lon="6.969782"><ele>2218.6</ele></trkpt>
      <trkpt lat="46.029022" lon="6.969800"><ele>2219.4</ele></trkpt>
      <trkpt lat="46.029037" lon="6.969812"><ele>2219.8</ele></trkpt>
      <trkpt lat="46.029055" lon="6.969835"><ele>2219.8</ele></trkpt>
      <trkpt lat="46.029075" lon="6.969852"><ele>2219.6</ele></trkpt>
      <trkpt lat="46.029092" lon="6.969867"><ele>2220.0</ele></trkpt>
      <trkpt lat="46.029112" lon="6.969877"><ele>2220.2</ele></trkpt>
      <trkpt lat="46.029132" lon="6.969890"><ele>2220.6</ele></trkpt>
      <trkpt lat="46.029152" lon="6.969897"><ele>2221.0</ele></trkpt>
      <trkpt lat="46.029172" lon="6.969912"><ele>2221.4</ele></trkpt>
      <trkpt lat="46.029192" lon="6.969927"><ele>2221.6</ele></trkpt>
      <trkpt lat="46.029210" lon="6.969942"><ele>2221.8</ele></trkpt>
      <trkpt lat="46.029227" lon="6.969955"><ele>2222.2</ele></trkpt>
      <trkpt lat="46.029245" lon="6.969972"><ele>2222.0</ele></trkpt>
      <trkpt lat="46.029267" lon="6.969987"><ele>2222.2</ele></trkpt>
      <trkpt lat="46.029287" lon="6.970000"><ele>2222.4</ele></trkpt>
      <trkpt lat="46.029305" lon="6.970017"><ele>2222.8</ele></trkpt>
      <trkpt lat="46.029325" lon="6.970032"><ele>2223.0</ele></trkpt>
      <trkpt lat="46.029342" lon="6.970047"><ele>2223.4</ele></trkpt>
      <trkpt lat="46.029362" lon="6.970067"><ele>2223.4</ele></trkpt>
      <trkpt lat="46.029377" lon="6.970090"><ele>2223.6</ele></trkpt>
      <trkpt lat="46.029392" lon="6.970105"><ele>2223.2</ele></trkpt>
      <trkpt lat="46.029410" lon="6.970125"><ele>2223.6</ele></trkpt>
      <trkpt lat="46.029427" lon="6.970127"><ele>2223.6</ele></trkpt>
      <trkpt lat="46.029447" lon="6.970127"><ele>2224.4</ele></trkpt>
      <trkpt lat="46.029467" lon="6.970127"><ele>2225.6</ele></trkpt>
      <trkpt lat="46.029487" lon="6.970122"><ele>2226.0</ele></trkpt>
      <trkpt lat="46.029507" lon="6.970120"><ele>2226.4</ele></trkpt>
      <trkpt lat="46.029527" lon="6.970112"><ele>2227.2</ele></trkpt>
      <trkpt lat="46.029547" lon="6.970102"><ele>2227.6</ele></trkpt>
      <trkpt lat="46.029567" lon="6.970092"><ele>2228.2</ele></trkpt>
      <trkpt lat="46.029582" lon="6.970087"><ele>2228.6</ele></trkpt>
      <trkpt lat="46.029625" lon="6.970065"><ele>2237.0</ele></trkpt>
      <trkpt lat="46.029787" lon="6.969987"><ele>2237.4</ele></trkpt>
      <trkpt lat="46.029792" lon="6.969973"><ele>2240.2</ele></trkpt>
      <trkpt lat="46.029792" lon="6.969932"><ele>2240.8</ele></trkpt>
      <trkpt lat="46.029792" lon="6.969905"><ele>2240.8</ele></trkpt>
      <trkpt lat="46.029790" lon="6.969867"><ele>2241.0</ele></trkpt>
      <trkpt lat="46.029785" lon="6.969840"><ele>2241.4</ele></trkpt>
      <trkpt lat="46.029780" lon="6.969813"><ele>2244.6</ele></trkpt>
      <trkpt lat="46.029777" lon="6.969762"><ele>2244.6</ele></trkpt>
      <trkpt lat="46.029780" lon="6.969737"><ele>2244.6</ele></trkpt>
      <trkpt lat="46.029790" lon="6.969702"><ele>2245.2</ele></trkpt>
      <trkpt lat="46.029807" lon="6.969677"><ele>2250.6</ele></trkpt>
      <trkpt lat="46.029828" lon="6.969650"><ele>2250.4</ele></trkpt>
      <trkpt lat="46.029855" lon="6.969617"><ele>2250.6</ele></trkpt>
      <trkpt lat="46.029880" lon="6.969582"><ele>2250.8</ele></trkpt>
      <trkpt lat="46.029902" lon="6.969555"><ele>2251.0</ele></trkpt>
      <trkpt lat="46.029915" lon="6.969537"><ele>2251.0</ele></trkpt>
      <trkpt lat="46.029927" lon="6.969515"><ele>2251.4</ele></trkpt>
      <trkpt lat="46.029927" lon="6.969487"><ele>2252.2</ele></trkpt>
      <trkpt lat="46.029932" lon="6.969480"><ele>2254.2</ele></trkpt>
      <trkpt lat="46.029940" lon="6.969452"><ele>2254.2</ele></trkpt>
      <trkpt lat="46.029942" lon="6.969417"><ele>2254.4</ele></trkpt>
      <trkpt lat="46.029930" lon="6.969387"><ele>2254.8</ele></trkpt>
      <trkpt lat="46.029917" lon="6.969362"><ele>2255.2</ele></trkpt>
      <trkpt lat="46.029905" lon="6.969345"><ele>2256.2</ele></trkpt>
      <trkpt lat="46.029890" lon="6.969322"><ele>2256.6</ele></trkpt>
      <trkpt lat="46.029875" lon="6.969302"><ele>2257.4</ele></trkpt>
      <trkpt lat="46.029862" lon="6.969287"><ele>2257.6</ele></trkpt>
      <trkpt lat="46.029847" lon="6.969265"><ele>2258.0</ele></trkpt>
      <trkpt lat="46.029832" lon="6.969245"><ele>2260.4</ele></trkpt>
      <trkpt lat="46.029812" lon="6.969212"><ele>2260.4</ele></trkpt>
      <trkpt lat="46.029797" lon="6.969192"><ele>2260.6</ele></trkpt>
      <trkpt lat="46.029785" lon="6.969172"><ele>2260.8</ele></trkpt>
      <trkpt lat="46.029767" lon="6.969147"><ele>2260.8</ele></trkpt>
      <trkpt lat="46.029755" lon="6.969130"><ele>2261.4</ele></trkpt>
      <trkpt lat="46.029743" lon="6.969107"><ele>2262.0</ele></trkpt>
      <trkpt lat="46.029732" lon="6.969087"><ele>2262.4</ele></trkpt>
      <trkpt lat="46.029725" lon="6.969077"><ele>2265.0</ele></trkpt>
      <trkpt lat="46.029712" lon="6.969057"><ele>2265.2</ele></trkpt>
      <trkpt lat="46.029697" lon="6.969030"><ele>2265.2</ele></trkpt>
      <trkpt lat="46.029682" lon="6.969002"><ele>2265.4</ele></trkpt>
      <trkpt lat="46.029667" lon="6.968980"><ele>2265.6</ele></trkpt>
      <trkpt lat="46.029647" lon="6.968947"><ele>2266.4</ele></trkpt>
      <trkpt lat="46.029637" lon="6.968930"><ele>2266.4</ele></trkpt>
      <trkpt lat="46.029617" lon="6.968907"><ele>2266.8</ele></trkpt>
      <trkpt lat="46.029602" lon="6.968885"><ele>2266.8</ele></trkpt>
      <trkpt lat="46.029590" lon="6.968860"><ele>2267.4</ele></trkpt>
      <trkpt lat="46.029575" lon="6.968837"><ele>2268.0</ele></trkpt>
      <trkpt lat="46.029562" lon="6.968817"><ele>2268.4</ele></trkpt>
      <trkpt lat="46.029552" lon="6.968790"><ele>2268.8</ele></trkpt>
      <trkpt lat="46.029547" lon="6.968765"><ele>2269.0</ele></trkpt>
      <trkpt lat="46.029542" lon="6.968740"><ele>2269.4</ele></trkpt>
      <trkpt lat="46.029547" lon="6.968712"><ele>2270.2</ele></trkpt>
      <trkpt lat="46.029562" lon="6.968707"><ele>2271.4</ele></trkpt>
      <trkpt lat="46.029577" lon="6.968705"><ele>2271.8</ele></trkpt>
      <trkpt lat="46.029607" lon="6.968705"><ele>2272.0</ele></trkpt>
      <trkpt lat="46.029640" lon="6.968702"><ele>2272.4</ele></trkpt>
      <trkpt lat="46.029660" lon="6.968700"><ele>2272.6</ele></trkpt>
      <trkpt lat="46.029680" lon="6.968692"><ele>2273.6</ele></trkpt>
      <trkpt lat="46.029702" lon="6.968685"><ele>2273.6</ele></trkpt>
      <trkpt lat="46.029722" lon="6.968675"><ele>2274.2</ele></trkpt>
      <trkpt lat="46.029742" lon="6.968665"><ele>2275.0</ele></trkpt>
      <trkpt lat="46.029762" lon="6.968652"><ele>2275.4</ele></trkpt>
      <trkpt lat="46.029780" lon="6.968642"><ele>2275.8</ele></trkpt>
      <trkpt lat="46.029800" lon="6.968630"><ele>2276.6</ele></trkpt>
      <trkpt lat="46.029817" lon="6.968622"><ele>2276.6</ele></trkpt>
      <trkpt lat="46.029837" lon="6.968610"><ele>2277.2</ele></trkpt>
      <trkpt lat="46.029855" lon="6.968597"><ele>2278.0</ele></trkpt>
      <trkpt lat="46.029875" lon="6.968592"><ele>2278.6</ele></trkpt>
      <trkpt lat="46.029895" lon="6.968580"><ele>2279.0</ele></trkpt>
      <trkpt lat="46.029917" lon="6.968565"><ele>2279.2</ele></trkpt>
      <trkpt lat="46.029932" lon="6.968557"><ele>2280.6</ele></trkpt>
      <trkpt lat="46.029947" lon="6.968547"><ele>2281.0</ele></trkpt>
      <trkpt lat="46.029965" lon="6.968535"><ele>2281.0</ele></trkpt>
      <trkpt lat="46.029977" lon="6.968507"><ele>2281.0</ele></trkpt>
      <trkpt lat="46.029987" lon="6.968482"><ele>2281.4</ele></trkpt>
      <trkpt lat="46.030007" lon="6.968462"><ele>2281.6</ele></trkpt>
      <trkpt lat="46.030027" lon="6.968437"><ele>2281.6</ele></trkpt>
      <trkpt lat="46.030045" lon="6.968427"><ele>2281.6</ele></trkpt>
      <trkpt lat="46.030062" lon="6.968412"><ele>2282.2</ele></trkpt>
      <trkpt lat="46.030082" lon="6.968397"><ele>2282.2</ele></trkpt>
      <trkpt lat="46.030100" lon="6.968382"><ele>2282.4</ele></trkpt>
      <trkpt lat="46.030117" lon="6.968365"><ele>2282.2</ele></trkpt>
      <trkpt lat="46.030137" lon="6.968350"><ele>2282.2</ele></trkpt>
      <trkpt lat="46.030162" lon="6.968330"><ele>2282.4</ele></trkpt>
      <trkpt lat="46.030177" lon="6.968317"><ele>2283.2</ele></trkpt>
      <trkpt lat="46.030197" lon="6.968302"><ele>2283.4</ele></trkpt>
      <trkpt lat="46.030217" lon="6.968287"><ele>2283.8</ele></trkpt>
      <trkpt lat="46.030237" lon="6.968280"><ele>2284.4</ele></trkpt>
      <trkpt lat="46.030252" lon="6.968265"><ele>2285.4</ele></trkpt>
      <trkpt lat="46.030270" lon="6.968257"><ele>2285.8</ele></trkpt>
      <trkpt lat="46.030292" lon="6.968252"><ele>2286.2</ele></trkpt>
      <trkpt lat="46.030312" lon="6.968247"><ele>2286.4</ele></trkpt>
      <trkpt lat="46.030330" lon="6.968240"><ele>2287.2</ele></trkpt>
      <trkpt lat="46.030347" lon="6.968240"><ele>2287.4</ele></trkpt>
      <trkpt lat="46.030367" lon="6.968237"><ele>2287.8</ele></trkpt>
      <trkpt lat="46.030387" lon="6.968232"><ele>2288.0</ele></trkpt>
      <trkpt lat="46.030407" lon="6.968222"><ele>2288.6</ele></trkpt>
      <trkpt lat="46.030430" lon="6.968212"><ele>2288.8</ele></trkpt>
      <trkpt lat="46.030452" lon="6.968202"><ele>2289.6</ele></trkpt>
      <trkpt lat="46.030472" lon="6.968193"><ele>2290.2</ele></trkpt>
      <trkpt lat="46.030492" lon="6.968182"><ele>2290.8</ele></trkpt>
      <trkpt lat="46.030507" lon="6.968172"><ele>2290.8</ele></trkpt>
      <trkpt lat="46.030530" lon="6.968160"><ele>2291.4</ele></trkpt>
      <trkpt lat="46.030552" lon="6.968145"><ele>2291.8</ele></trkpt>
      <trkpt lat="46.030572" lon="6.968132"><ele>2292.4</ele></trkpt>
      <trkpt lat="46.030592" lon="6.968120"><ele>2293.2</ele></trkpt>
      <trkpt lat="46.030610" lon="6.968112"><ele>2293.6</ele></trkpt>
      <trkpt lat="46.030635" lon="6.968095"><ele>2294.6</ele></trkpt>
      <trkpt lat="46.030662" lon="6.968082"><ele>2294.8</ele></trkpt>
      <trkpt lat="46.030682" lon="6.968067"><ele>2295.2</ele></trkpt>
      <trkpt lat="46.030702" lon="6.968052"><ele>2295.6</ele></trkpt>
      <trkpt lat="46.030722" lon="6.968037"><ele>2296.0</ele></trkpt>
      <trkpt lat="46.030742" lon="6.968025"><ele>2296.6</ele></trkpt>
      <trkpt lat="46.030762" lon="6.968017"><ele>2297.0</ele></trkpt>
      <trkpt lat="46.030780" lon="6.968012"><ele>2297.4</ele></trkpt>
      <trkpt lat="46.030797" lon="6.968003"><ele>2298.4</ele></trkpt>
      <trkpt lat="46.030813" lon="6.967995"><ele>2298.8</ele></trkpt>
      <trkpt lat="46.030832" lon="6.967982"><ele>2299.0</ele></trkpt>
      <trkpt lat="46.030852" lon="6.967967"><ele>2300.2</ele></trkpt>
      <trkpt lat="46.030872" lon="6.967952"><ele>2300.6</ele></trkpt>
      <trkpt lat="46.030887" lon="6.967932"><ele>2301.4</ele></trkpt>
      <trkpt lat="46.030900" lon="6.967912"><ele>2302.6</ele></trkpt>
      <trkpt lat="46.030917" lon="6.967895"><ele>2303.0</ele></trkpt>
      <trkpt lat="46.030930" lon="6.967880"><ele>2303.6</ele></trkpt>
      <trkpt lat="46.030947" lon="6.967867"><ele>2304.0</ele></trkpt>
      <trkpt lat="46.030962" lon="6.967852"><ele>2304.6</ele></trkpt>
      <trkpt lat="46.030980" lon="6.967830"><ele>2305.2</ele></trkpt>
      <trkpt lat="46.030992" lon="6.967807"><ele>2305.6</ele></trkpt>
      <trkpt lat="46.031000" lon="6.967782"><ele>2305.8</ele></trkpt>
      <trkpt lat="46.031012" lon="6.967760"><ele>2306.4</ele></trkpt>
      <trkpt lat="46.031022" lon="6.967742"><ele>2306.6</ele></trkpt>
      <trkpt lat="46.031038" lon="6.967720"><ele>2307.4</ele></trkpt>
      <trkpt lat="46.031057" lon="6.967707"><ele>2307.6</ele></trkpt>
      <trkpt lat="46.031077" lon="6.967697"><ele>2307.8</ele></trkpt>
      <trkpt lat="46.031100" lon="6.967685"><ele>2308.8</ele></trkpt>
      <trkpt lat="46.031117" lon="6.967677"><ele>2309.0</ele></trkpt>
      <trkpt lat="46.031135" lon="6.967667"><ele>2309.4</ele></trkpt>
      <trkpt lat="46.031152" lon="6.967657"><ele>2310.4</ele></trkpt>
      <trkpt lat="46.031170" lon="6.967653"><ele>2310.6</ele></trkpt>
      <trkpt lat="46.031192" lon="6.967650"><ele>2311.2</ele></trkpt>
      <trkpt lat="46.031212" lon="6.967645"><ele>2311.4</ele></trkpt>
      <trkpt lat="46.031230" lon="6.967635"><ele>2312.0</ele></trkpt>
      <trkpt lat="46.031242" lon="6.967617"><ele>2312.8</ele></trkpt>
      <trkpt lat="46.031257" lon="6.967585"><ele>2313.2</ele></trkpt>
      <trkpt lat="46.031267" lon="6.967552"><ele>2313.4</ele></trkpt>
      <trkpt lat="46.031275" lon="6.967525"><ele>2313.4</ele></trkpt>
      <trkpt lat="46.031277" lon="6.967492"><ele>2313.8</ele></trkpt>
      <trkpt lat="46.031272" lon="6.967462"><ele>2314.4</ele></trkpt>
      <trkpt lat="46.031267" lon="6.967432"><ele>2315.2</ele></trkpt>
      <trkpt lat="46.031262" lon="6.967398"><ele>2315.2</ele></trkpt>
      <trkpt lat="46.031257" lon="6.967367"><ele>2315.0</ele></trkpt>
      <trkpt lat="46.031255" lon="6.967335"><ele>2315.0</ele></trkpt>
      <trkpt lat="46.031250" lon="6.967310"><ele>2314.8</ele></trkpt>
      <trkpt lat="46.031257" lon="6.967282"><ele>2314.8</ele></trkpt>
      <trkpt lat="46.031267" lon="6.967252"><ele>2314.8</ele></trkpt>
      <trkpt lat="46.031275" lon="6.967222"><ele>2315.0</ele></trkpt>
      <trkpt lat="46.031282" lon="6.967197"><ele>2315.0</ele></trkpt>
      <trkpt lat="46.031292" lon="6.967175"><ele>2316.0</ele></trkpt>
      <trkpt lat="46.031302" lon="6.967155"><ele>2316.0</ele></trkpt>
      <trkpt lat="46.031315" lon="6.967132"><ele>2316.6</ele></trkpt>
      <trkpt lat="46.031327" lon="6.967110"><ele>2317.4</ele></trkpt>
      <trkpt lat="46.031337" lon="6.967090"><ele>2318.0</ele></trkpt>
      <trkpt lat="46.031322" lon="6.967070"><ele>2318.4</ele></trkpt>
      <trkpt lat="46.031302" lon="6.967047"><ele>2318.6</ele></trkpt>
      <trkpt lat="46.031282" lon="6.967032"><ele>2319.0</ele></trkpt>
      <trkpt lat="46.031262" lon="6.967015"><ele>2319.6</ele></trkpt>
      <trkpt lat="46.031240" lon="6.967002"><ele>2319.8</ele></trkpt>
      <trkpt lat="46.031222" lon="6.966992"><ele>2320.2</ele></trkpt>
      <trkpt lat="46.031237" lon="6.966982"><ele>2321.4</ele></trkpt>
      <trkpt lat="46.031255" lon="6.966957"><ele>2321.8</ele></trkpt>
      <trkpt lat="46.031247" lon="6.966927"><ele>2322.0</ele></trkpt>
      <trkpt lat="46.031247" lon="6.966912"><ele>2325.6</ele></trkpt>
      <trkpt lat="46.031255" lon="6.966887"><ele>2326.0</ele></trkpt>
      <trkpt lat="46.031257" lon="6.966855"><ele>2326.6</ele></trkpt>
      <trkpt lat="46.031252" lon="6.966817"><ele>2327.0</ele></trkpt>
      <trkpt lat="46.031245" lon="6.966792"><ele>2327.4</ele></trkpt>
      <trkpt lat="46.031225" lon="6.966760"><ele>2327.6</ele></trkpt>
      <trkpt lat="46.031207" lon="6.966725"><ele>2328.0</ele></trkpt>
      <trkpt lat="46.031197" lon="6.966705"><ele>2328.2</ele></trkpt>
      <trkpt lat="46.031187" lon="6.966672"><ele>2329.0</ele></trkpt>
      <trkpt lat="46.031182" lon="6.966642"><ele>2328.6</ele></trkpt>
      <trkpt lat="46.031177" lon="6.966602"><ele>2327.6</ele></trkpt>
      <trkpt lat="46.031192" lon="6.966573"><ele>2327.6</ele></trkpt>
      <trkpt lat="46.031212" lon="6.966562"><ele>2327.6</ele></trkpt>
      <trkpt lat="46.031232" lon="6.966555"><ele>2327.4</ele></trkpt>
      <trkpt lat="46.031212" lon="6.966557"><ele>2327.6</ele></trkpt>
      <trkpt lat="46.031192" lon="6.966557"><ele>2327.6</ele></trkpt>
      <trkpt lat="46.031172" lon="6.966540"><ele>2327.6</ele></trkpt>
      <trkpt lat="46.031150" lon="6.966512"><ele>2327.6</ele></trkpt>
      <trkpt lat="46.031130" lon="6.966487"><ele>2327.4</ele></trkpt>
      <trkpt lat="46.031115" lon="6.966462"><ele>2327.4</ele></trkpt>
      <trkpt lat="46.031102" lon="6.966437"><ele>2326.4</ele></trkpt>
      <trkpt lat="46.031092" lon="6.966412"><ele>2326.2</ele></trkpt>
      <trkpt lat="46.031077" lon="6.966392"><ele>2326.2</ele></trkpt>
      <trkpt lat="46.031070" lon="6.966367"><ele>2326.0</ele></trkpt>
      <trkpt lat="46.031087" lon="6.966362"><ele>2325.8</ele></trkpt>
      <trkpt lat="46.031097" lon="6.966387"><ele>2325.8</ele></trkpt>
      <trkpt lat="46.031092" lon="6.966412"><ele>2325.8</ele></trkpt>
      <trkpt lat="46.031072" lon="6.966430"><ele>2325.6</ele></trkpt>
      <trkpt lat="46.031067" lon="6.966395"><ele>2325.0</ele></trkpt>
      <trkpt lat="46.031057" lon="6.966370"><ele>2325.0</ele></trkpt>
      <trkpt lat="46.031047" lon="6.966342"><ele>2324.8</ele></trkpt>
      <trkpt lat="46.031032" lon="6.966317"><ele>2324.6</ele></trkpt>
      <trkpt lat="46.031012" lon="6.966285"><ele>2324.4</ele></trkpt>
      <trkpt lat="46.031002" lon="6.966265"><ele>2323.8</ele></trkpt>
      <trkpt lat="46.030987" lon="6.966250"><ele>2323.6</ele></trkpt>
      <trkpt lat="46.030970" lon="6.966227"><ele>2323.2</ele></trkpt>
      <trkpt lat="46.030952" lon="6.966200"><ele>2322.8</ele></trkpt>
      <trkpt lat="46.030937" lon="6.966180"><ele>2322.6</ele></trkpt>
      <trkpt lat="46.030915" lon="6.966167"><ele>2322.2</ele></trkpt>
      <trkpt lat="46.030892" lon="6.966152"><ele>2321.4</ele></trkpt>
      <trkpt lat="46.030872" lon="6.966152"><ele>2321.2</ele></trkpt>
      <trkpt lat="46.030852" lon="6.966142"><ele>2320.8</ele></trkpt>
      <trkpt lat="46.030835" lon="6.966145"><ele>2320.0</ele></trkpt>
      <trkpt lat="46.030857" lon="6.966152"><ele>2321.6</ele></trkpt>
      <trkpt lat="46.030877" lon="6.966157"><ele>2321.6</ele></trkpt>
      <trkpt lat="46.030900" lon="6.966167"><ele>2321.8</ele></trkpt>
      <trkpt lat="46.030920" lon="6.966172"><ele>2322.2</ele></trkpt>
      <trkpt lat="46.030937" lon="6.966182"><ele>2322.8</ele></trkpt>
      <trkpt lat="46.030957" lon="6.966195"><ele>2322.8</ele></trkpt>
      <trkpt lat="46.030985" lon="6.966197"><ele>2323.2</ele></trkpt>
      <trkpt lat="46.031002" lon="6.966210"><ele>2323.4</ele></trkpt>
      <trkpt lat="46.031022" lon="6.966220"><ele>2323.8</ele></trkpt>
      <trkpt lat="46.031042" lon="6.966223"><ele>2325.0</ele></trkpt>
      <trkpt lat="46.031062" lon="6.966242"><ele>2325.2</ele></trkpt>
      <trkpt lat="46.031092" lon="6.966265"><ele>2325.2</ele></trkpt>
      <trkpt lat="46.031108" lon="6.966285"><ele>2325.4</ele></trkpt>
      <trkpt lat="46.031127" lon="6.966302"><ele>2325.4</ele></trkpt>
      <trkpt lat="46.031142" lon="6.966322"><ele>2325.6</ele></trkpt>
      <trkpt lat="46.031157" lon="6.966337"><ele>2325.8</ele></trkpt>
      <trkpt lat="46.031170" lon="6.966365"><ele>2326.2</ele></trkpt>
      <trkpt lat="46.031180" lon="6.966400"><ele>2326.8</ele></trkpt>
      <trkpt lat="46.031187" lon="6.966425"><ele>2326.8</ele></trkpt>
      <trkpt lat="46.031197" lon="6.966452"><ele>2327.0</ele></trkpt>
      <trkpt lat="46.031205" lon="6.966475"><ele>2327.2</ele></trkpt>
      <trkpt lat="46.031215" lon="6.966512"><ele>2327.2</ele></trkpt>
      <trkpt lat="46.031217" lon="6.966537"><ele>2327.6</ele></trkpt>
      <trkpt lat="46.031220" lon="6.966572"><ele>2327.4</ele></trkpt>
      <trkpt lat="46.031220" lon="6.966602"><ele>2327.8</ele></trkpt>
      <trkpt lat="46.031227" lon="6.966627"><ele>2328.0</ele></trkpt>
      <trkpt lat="46.031237" lon="6.966655"><ele>2327.6</ele></trkpt>
      <trkpt lat="46.031247" lon="6.966685"><ele>2327.6</ele></trkpt>
      <trkpt lat="46.031257" lon="6.966707"><ele>2327.6</ele></trkpt>
      <trkpt lat="46.031272" lon="6.966727"><ele>2327.2</ele></trkpt>
      <trkpt lat="46.031277" lon="6.966752"><ele>2326.8</ele></trkpt>
      <trkpt lat="46.031287" lon="6.966777"><ele>2326.0</ele></trkpt>
      <trkpt lat="46.031302" lon="6.966807"><ele>2325.8</ele></trkpt>
      <trkpt lat="46.031322" lon="6.966807"><ele>2325.4</ele></trkpt>
      <trkpt lat="46.031310" lon="6.966827"><ele>2325.2</ele></trkpt>
      <trkpt lat="46.031322" lon="6.966862"><ele>2324.4</ele></trkpt>
      <trkpt lat="46.031337" lon="6.966892"><ele>2323.4</ele></trkpt>
      <trkpt lat="46.031350" lon="6.966927"><ele>2322.6</ele></trkpt>
      <trkpt lat="46.031362" lon="6.966952"><ele>2321.6</ele></trkpt>
      <trkpt lat="46.031375" lon="6.966970"><ele>2320.6</ele></trkpt>
      <trkpt lat="46.031380" lon="6.966957"><ele>2319.6</ele></trkpt>
      <trkpt lat="46.031357" lon="6.966953"><ele>2324.6</ele></trkpt>
      <trkpt lat="46.031347" lon="6.966932"><ele>2324.6</ele></trkpt>
      <trkpt lat="46.031332" lon="6.966902"><ele>2324.6</ele></trkpt>
      <trkpt lat="46.031320" lon="6.966872"><ele>2325.0</ele></trkpt>
      <trkpt lat="46.031310" lon="6.966847"><ele>2325.2</ele></trkpt>
      <trkpt lat="46.031312" lon="6.966810"><ele>2326.0</ele></trkpt>
      <trkpt lat="46.031297" lon="6.966792"><ele>2326.0</ele></trkpt>
      <trkpt lat="46.031275" lon="6.966772"><ele>2326.0</ele></trkpt>
      <trkpt lat="46.031252" lon="6.966747"><ele>2326.0</ele></trkpt>
      <trkpt lat="46.031237" lon="6.966730"><ele>2326.2</ele></trkpt>
      <trkpt lat="46.031220" lon="6.966712"><ele>2326.2</ele></trkpt>
      <trkpt lat="46.031205" lon="6.966690"><ele>2326.6</ele></trkpt>
      <trkpt lat="46.031190" lon="6.966662"><ele>2326.6</ele></trkpt>
      <trkpt lat="46.031182" lon="6.966635"><ele>2326.8</ele></trkpt>
      <trkpt lat="46.031175" lon="6.966610"><ele>2327.6</ele></trkpt>
      <trkpt lat="46.031182" lon="6.966582"><ele>2327.4</ele></trkpt>
      <trkpt lat="46.031187" lon="6.966542"><ele>2327.4</ele></trkpt>
      <trkpt lat="46.031182" lon="6.966492"><ele>2327.2</ele></trkpt>
      <trkpt lat="46.031177" lon="6.966462"><ele>2326.8</ele></trkpt>
      <trkpt lat="46.031177" lon="6.966427"><ele>2326.6</ele></trkpt>
      <trkpt lat="46.031182" lon="6.966392"><ele>2326.4</ele></trkpt>
      <trkpt lat="46.031190" lon="6.966352"><ele>2326.0</ele></trkpt>
      <trkpt lat="46.031197" lon="6.966312"><ele>2326.0</ele></trkpt>
      <trkpt lat="46.031202" lon="6.966272"><ele>2325.8</ele></trkpt>
      <trkpt lat="46.031192" lon="6.966247"><ele>2325.8</ele></trkpt>
      <trkpt lat="46.031182" lon="6.966223"><ele>2325.4</ele></trkpt>
      <trkpt lat="46.031177" lon="6.966200"><ele>2324.4</ele></trkpt>
      <trkpt lat="46.031177" lon="6.966162"><ele>2324.2</ele></trkpt>
      <trkpt lat="46.031182" lon="6.966125"><ele>2323.8</ele></trkpt>
      <trkpt lat="46.031190" lon="6.966087"><ele>2323.4</ele></trkpt>
      <trkpt lat="46.031187" lon="6.966040"><ele>2322.8</ele></trkpt>
      <trkpt lat="46.031182" lon="6.966002"><ele>2322.4</ele></trkpt>
      <trkpt lat="46.031180" lon="6.965952"><ele>2322.4</ele></trkpt>
      <trkpt lat="46.031190" lon="6.965917"><ele>2321.6</ele></trkpt>
      <trkpt lat="46.031182" lon="6.965892"><ele>2320.6</ele></trkpt>
      <trkpt lat="46.031182" lon="6.965865"><ele>2320.6</ele></trkpt>
      <trkpt lat="46.031180" lon="6.965812"><ele>2320.2</ele></trkpt>
      <trkpt lat="46.031177" lon="6.965757"><ele>2319.6</ele></trkpt>
      <trkpt lat="46.031177" lon="6.965732"><ele>2319.6</ele></trkpt>
      <trkpt lat="46.031172" lon="6.965702"><ele>2319.0</ele></trkpt>
      <trkpt lat="46.031165" lon="6.965667"><ele>2318.8</ele></trkpt>
      <trkpt lat="46.031152" lon="6.965632"><ele>2318.2</ele></trkpt>
      <trkpt lat="46.031142" lon="6.965597"><ele>2317.8</ele></trkpt>
      <trkpt lat="46.031135" lon="6.965557"><ele>2317.2</ele></trkpt>
      <trkpt lat="46.031125" lon="6.965510"><ele>2316.6</ele></trkpt>
      <trkpt lat="46.031125" lon="6.965447"><ele>2315.2</ele></trkpt>
      <trkpt lat="46.031142" lon="6.965415"><ele>2315.2</ele></trkpt>
      <trkpt lat="46.031152" lon="6.965405"><ele>2314.2</ele></trkpt>
      <trkpt lat="46.031155" lon="6.965372"><ele>2313.6</ele></trkpt>
      <trkpt lat="46.031147" lon="6.965340"><ele>2312.8</ele></trkpt>
      <trkpt lat="46.031127" lon="6.965295"><ele>2312.8</ele></trkpt>
      <trkpt lat="46.031102" lon="6.965235"><ele>2312.2</ele></trkpt>
      <trkpt lat="46.031087" lon="6.965160"><ele>2311.6</ele></trkpt>
      <trkpt lat="46.031097" lon="6.965092"><ele>2310.8</ele></trkpt>
      <trkpt lat="46.031120" lon="6.965055"><ele>2309.4</ele></trkpt>
      <trkpt lat="46.031137" lon="6.965040"><ele>2308.6</ele></trkpt>
      <trkpt lat="46.031152" lon="6.965032"><ele>2308.6</ele></trkpt>
      <trkpt lat="46.031157" lon="6.964992"><ele>2307.4</ele></trkpt>
      <trkpt lat="46.031167" lon="6.964967"><ele>2307.2</ele></trkpt>
      <trkpt lat="46.031177" lon="6.964935"><ele>2307.2</ele></trkpt>
      <trkpt lat="46.031182" lon="6.964895"><ele>2306.8</ele></trkpt>
      <trkpt lat="46.031177" lon="6.964852"><ele>2306.6</ele></trkpt>
      <trkpt lat="46.031162" lon="6.964832"><ele>2306.6</ele></trkpt>
      <trkpt lat="46.031137" lon="6.964825"><ele>2305.8</ele></trkpt>
      <trkpt lat="46.031132" lon="6.964802"><ele>2305.2</ele></trkpt>
      <trkpt lat="46.031145" lon="6.964762"><ele>2305.0</ele></trkpt>
      <trkpt lat="46.031157" lon="6.964732"><ele>2304.6</ele></trkpt>
      <trkpt lat="46.031157" lon="6.964697"><ele>2304.2</ele></trkpt>
      <trkpt lat="46.031152" lon="6.964667"><ele>2303.6</ele></trkpt>
      <trkpt lat="46.031157" lon="6.964632"><ele>2303.6</ele></trkpt>
      <trkpt lat="46.031165" lon="6.964577"><ele>2303.6</ele></trkpt>
      <trkpt lat="46.031187" lon="6.964547"><ele>2303.0</ele></trkpt>
      <trkpt lat="46.031197" lon="6.964535"><ele>2300.6</ele></trkpt>
      <trkpt lat="46.031197" lon="6.964502"><ele>2299.0</ele></trkpt>
      <trkpt lat="46.031182" lon="6.964457"><ele>2298.8</ele></trkpt>
      <trkpt lat="46.031165" lon="6.964420"><ele>2298.6</ele></trkpt>
      <trkpt lat="46.031142" lon="6.964372"><ele>2298.0</ele></trkpt>
      <trkpt lat="46.031117" lon="6.964320"><ele>2297.8</ele></trkpt>
      <trkpt lat="46.031092" lon="6.964267"><ele>2297.2</ele></trkpt>
      <trkpt lat="46.031065" lon="6.964212"><ele>2296.4</ele></trkpt>
      <trkpt lat="46.031037" lon="6.964158"><ele>2296.4</ele></trkpt>
      <trkpt lat="46.031007" lon="6.964122"><ele>2295.2</ele></trkpt>
      <trkpt lat="46.030985" lon="6.964100"><ele>2294.8</ele></trkpt>
      <trkpt lat="46.030967" lon="6.964072"><ele>2294.4</ele></trkpt>
      <trkpt lat="46.030947" lon="6.964032"><ele>2294.4</ele></trkpt>
      <trkpt lat="46.030927" lon="6.964005"><ele>2294.2</ele></trkpt>
      <trkpt lat="46.030910" lon="6.963975"><ele>2293.0</ele></trkpt>
      <trkpt lat="46.030902" lon="6.963957"><ele>2292.2</ele></trkpt>
      <trkpt lat="46.030927" lon="6.963937"><ele>2291.2</ele></trkpt>
      <trkpt lat="46.030950" lon="6.963930"><ele>2290.6</ele></trkpt>
      <trkpt lat="46.030972" lon="6.963922"><ele>2290.4</ele></trkpt>
      <trkpt lat="46.030997" lon="6.963917"><ele>2290.2</ele></trkpt>
      <trkpt lat="46.031022" lon="6.963903"><ele>2289.6</ele></trkpt>
      <trkpt lat="46.031055" lon="6.963865"><ele>2288.8</ele></trkpt>
      <trkpt lat="46.031057" lon="6.963807"><ele>2285.6</ele></trkpt>
      <trkpt lat="46.031032" lon="6.963757"><ele>2285.6</ele></trkpt>
      <trkpt lat="46.031005" lon="6.963717"><ele>2284.2</ele></trkpt>
      <trkpt lat="46.030972" lon="6.963672"><ele>2283.8</ele></trkpt>
      <trkpt lat="46.030947" lon="6.963607"><ele>2282.8</ele></trkpt>
      <trkpt lat="46.030950" lon="6.963532"><ele>2282.0</ele></trkpt>
      <trkpt lat="46.030972" lon="6.963497"><ele>2280.6</ele></trkpt>
      <trkpt lat="46.030977" lon="6.963487"><ele>2278.2</ele></trkpt>
      <trkpt lat="46.030982" lon="6.963480"><ele>2278.2</ele></trkpt>
      <trkpt lat="46.030962" lon="6.963457"><ele>2277.6</ele></trkpt>
      <trkpt lat="46.030972" lon="6.963437"><ele>2276.6</ele></trkpt>
      <trkpt lat="46.030987" lon="6.963412"><ele>2275.6</ele></trkpt>
      <trkpt lat="46.030982" lon="6.963372"><ele>2274.6</ele></trkpt>
      <trkpt lat="46.030967" lon="6.963337"><ele>2273.6</ele></trkpt>
      <trkpt lat="46.030950" lon="6.963307"><ele>2273.6</ele></trkpt>
      <trkpt lat="46.030925" lon="6.963262"><ele>2273.4</ele></trkpt>
      <trkpt lat="46.030892" lon="6.963222"><ele>2272.4</ele></trkpt>
      <trkpt lat="46.030855" lon="6.963182"><ele>2271.2</ele></trkpt>
      <trkpt lat="46.030812" lon="6.963132"><ele>2270.0</ele></trkpt>
      <trkpt lat="46.030772" lon="6.963077"><ele>2269.4</ele></trkpt>
      <trkpt lat="46.030732" lon="6.963020"><ele>2268.6</ele></trkpt>
      <trkpt lat="46.030702" lon="6.962970"><ele>2267.8</ele></trkpt>
      <trkpt lat="46.030682" lon="6.962932"><ele>2267.4</ele></trkpt>
      <trkpt lat="46.030672" lon="6.962905"><ele>2267.2</ele></trkpt>
      <trkpt lat="46.030675" lon="6.962882"><ele>2266.6</ele></trkpt>
      <trkpt lat="46.030702" lon="6.962852"><ele>2265.2</ele></trkpt>
      <trkpt lat="46.030715" lon="6.962840"><ele>2264.8</ele></trkpt>
      <trkpt lat="46.030737" lon="6.962817"><ele>2264.2</ele></trkpt>
      <trkpt lat="46.030760" lon="6.962802"><ele>2263.6</ele></trkpt>
      <trkpt lat="46.030795" lon="6.962785"><ele>2263.0</ele></trkpt>
      <trkpt lat="46.030835" lon="6.962770"><ele>2262.6</ele></trkpt>
      <trkpt lat="46.030875" lon="6.962757"><ele>2262.4</ele></trkpt>
      <trkpt lat="46.030912" lon="6.962742"><ele>2262.2</ele></trkpt>
      <trkpt lat="46.030952" lon="6.962737"><ele>2262.2</ele></trkpt>
      <trkpt lat="46.030990" lon="6.962732"><ele>2261.8</ele></trkpt>
      <trkpt lat="46.031022" lon="6.962735"><ele>2261.4</ele></trkpt>
      <trkpt lat="46.031052" lon="6.962737"><ele>2261.2</ele></trkpt>
      <trkpt lat="46.031082" lon="6.962737"><ele>2261.2</ele></trkpt>
      <trkpt lat="46.031108" lon="6.962725"><ele>2260.8</ele></trkpt>
      <trkpt lat="46.031125" lon="6.962680"><ele>2260.2</ele></trkpt>
      <trkpt lat="46.031120" lon="6.962633"><ele>2259.8</ele></trkpt>
      <trkpt lat="46.031097" lon="6.962610"><ele>2259.0</ele></trkpt>
      <trkpt lat="46.031072" lon="6.962587"><ele>2258.4</ele></trkpt>
      <trkpt lat="46.031050" lon="6.962572"><ele>2258.0</ele></trkpt>
      <trkpt lat="46.031030" lon="6.962555"><ele>2258.0</ele></trkpt>
      <trkpt lat="46.031017" lon="6.962537"><ele>2257.8</ele></trkpt>
      <trkpt lat="46.031027" lon="6.962490"><ele>2257.2</ele></trkpt>
      <trkpt lat="46.031032" lon="6.962447"><ele>2256.6</ele></trkpt>
      <trkpt lat="46.031022" lon="6.962395"><ele>2256.2</ele></trkpt>
      <trkpt lat="46.030995" lon="6.962350"><ele>2255.6</ele></trkpt>
      <trkpt lat="46.030960" lon="6.962322"><ele>2254.2</ele></trkpt>
      <trkpt lat="46.030930" lon="6.962302"><ele>2252.0</ele></trkpt>
      <trkpt lat="46.030912" lon="6.962290"><ele>2252.0</ele></trkpt>
      <trkpt lat="46.030905" lon="6.962283"><ele>2252.0</ele></trkpt>
      <trkpt lat="46.030937" lon="6.962247"><ele>2252.0</ele></trkpt>
      <trkpt lat="46.030985" lon="6.962212"><ele>2250.4</ele></trkpt>
      <trkpt lat="46.031057" lon="6.962157"><ele>2248.4</ele></trkpt>
      <trkpt lat="46.031157" lon="6.962067"><ele>2245.2</ele></trkpt>
      <trkpt lat="46.031277" lon="6.961952"><ele>2241.6</ele></trkpt>
      <trkpt lat="46.031437" lon="6.961787"><ele>2238.2</ele></trkpt>
      <trkpt lat="46.031542" lon="6.961677"><ele>2235.4</ele></trkpt>
      <trkpt lat="46.031652" lon="6.961592"><ele>2234.2</ele></trkpt>
      <trkpt lat="46.031762" lon="6.961530"><ele>2233.2</ele></trkpt>
      <trkpt lat="46.031850" lon="6.961447"><ele>2232.2</ele></trkpt>
      <trkpt lat="46.031902" lon="6.961362"><ele>2231.6</ele></trkpt>
      <trkpt lat="46.031950" lon="6.961295"><ele>2231.6</ele></trkpt>
      <trkpt lat="46.031995" lon="6.961262"><ele>2232.4</ele></trkpt>
      <trkpt lat="46.032027" lon="6.961265"><ele>2232.6</ele></trkpt>
      <trkpt lat="46.032047" lon="6.961277"><ele>2232.6</ele></trkpt>
      <trkpt lat="46.032065" lon="6.961282"><ele>2232.6</ele></trkpt>
      <trkpt lat="46.032082" lon="6.961282"><ele>2232.0</ele></trkpt>
      <trkpt lat="46.032102" lon="6.961262"><ele>2231.6</ele></trkpt>
      <trkpt lat="46.032112" lon="6.961232"><ele>2230.6</ele></trkpt>
      <trkpt lat="46.032115" lon="6.961212"><ele>2229.6</ele></trkpt>
      <trkpt lat="46.032127" lon="6.961197"><ele>2228.6</ele></trkpt>
      <trkpt lat="46.032122" lon="6.961152"><ele>2227.6</ele></trkpt>
      <trkpt lat="46.032107" lon="6.961102"><ele>2226.6</ele></trkpt>
      <trkpt lat="46.032112" lon="6.961057"><ele>2226.2</ele></trkpt>
      <trkpt lat="46.032132" lon="6.960997"><ele>2226.0</ele></trkpt>
      <trkpt lat="46.032172" lon="6.960952"><ele>2225.0</ele></trkpt>
      <trkpt lat="46.032212" lon="6.960932"><ele>2222.8</ele></trkpt>
      <trkpt lat="46.032248" lon="6.960925"><ele>2220.4</ele></trkpt>
      <trkpt lat="46.032282" lon="6.960912"><ele>2218.4</ele></trkpt>
      <trkpt lat="46.032317" lon="6.960892"><ele>2216.4</ele></trkpt>
      <trkpt lat="46.032352" lon="6.960847"><ele>2214.8</ele></trkpt>
      <trkpt lat="46.032375" lon="6.960790"><ele>2213.0</ele></trkpt>
      <trkpt lat="46.032387" lon="6.960725"><ele>2210.4</ele></trkpt>
      <trkpt lat="46.032397" lon="6.960662"><ele>2208.0</ele></trkpt>
      <trkpt lat="46.032407" lon="6.960585"><ele>2206.4</ele></trkpt>
      <trkpt lat="46.032427" lon="6.960497"><ele>2204.4</ele></trkpt>
      <trkpt lat="46.032470" lon="6.960425"><ele>2202.4</ele></trkpt>
      <trkpt lat="46.032517" lon="6.960397"><ele>2199.4</ele></trkpt>
      <trkpt lat="46.032572" lon="6.960402"><ele>2197.0</ele></trkpt>
      <trkpt lat="46.032632" lon="6.960397"><ele>2194.8</ele></trkpt>
      <trkpt lat="46.032675" lon="6.960337"><ele>2192.8</ele></trkpt>
      <trkpt lat="46.032680" lon="6.960262"><ele>2186.4</ele></trkpt>
      <trkpt lat="46.032672" lon="6.960185"><ele>2186.2</ele></trkpt>
      <trkpt lat="46.032670" lon="6.960087"><ele>2185.6</ele></trkpt>
      <trkpt lat="46.032710" lon="6.960022"><ele>2183.4</ele></trkpt>
      <trkpt lat="46.032760" lon="6.960002"><ele>2180.6</ele></trkpt>
      <trkpt lat="46.032822" lon="6.960000"><ele>2177.6</ele></trkpt>
      <trkpt lat="46.032882" lon="6.959927"><ele>2175.6</ele></trkpt>
      <trkpt lat="46.032922" lon="6.959802"><ele>2171.6</ele></trkpt>
      <trkpt lat="46.032932" lon="6.959657"><ele>2166.6</ele></trkpt>
      <trkpt lat="46.032927" lon="6.959522"><ele>2162.0</ele></trkpt>
      <trkpt lat="46.032925" lon="6.959400"><ele>2158.0</ele></trkpt>
      <trkpt lat="46.032927" lon="6.959275"><ele>2155.0</ele></trkpt>
      <trkpt lat="46.032940" lon="6.959152"><ele>2153.8</ele></trkpt>
      <trkpt lat="46.032962" lon="6.959032"><ele>2152.2</ele></trkpt>
      <trkpt lat="46.032980" lon="6.958940"><ele>2150.8</ele></trkpt>
      <trkpt lat="46.032995" lon="6.958877"><ele>2148.2</ele></trkpt>
      <trkpt lat="46.033007" lon="6.958853"><ele>2146.2</ele></trkpt>
      <trkpt lat="46.033012" lon="6.958847"><ele>2144.8</ele></trkpt>
      <trkpt lat="46.033020" lon="6.958830"><ele>2144.8</ele></trkpt>
      <trkpt lat="46.033017" lon="6.958792"><ele>2144.4</ele></trkpt>
      <trkpt lat="46.033012" lon="6.958740"><ele>2142.8</ele></trkpt>
      <trkpt lat="46.033007" lon="6.958705"><ele>2142.4</ele></trkpt>
      <trkpt lat="46.033002" lon="6.958660"><ele>2142.0</ele></trkpt>
      <trkpt lat="46.033002" lon="6.958615"><ele>2141.4</ele></trkpt>
      <trkpt lat="46.033002" lon="6.958562"><ele>2139.8</ele></trkpt>
      <trkpt lat="46.033027" lon="6.958502"><ele>2139.8</ele></trkpt>
      <trkpt lat="46.033067" lon="6.958462"><ele>2138.6</ele></trkpt>
      <trkpt lat="46.033095" lon="6.958382"><ele>2136.4</ele></trkpt>
      <trkpt lat="46.033102" lon="6.958297"><ele>2133.4</ele></trkpt>
      <trkpt lat="46.033100" lon="6.958210"><ele>2130.4</ele></trkpt>
      <trkpt lat="46.033127" lon="6.958127"><ele>2129.0</ele></trkpt>
      <trkpt lat="46.033172" lon="6.958097"><ele>2127.2</ele></trkpt>
      <trkpt lat="46.033207" lon="6.958067"><ele>2125.0</ele></trkpt>
      <trkpt lat="46.033233" lon="6.958050"><ele>2123.0</ele></trkpt>
      <trkpt lat="46.033247" lon="6.958032"><ele>2121.4</ele></trkpt>
      <trkpt lat="46.033255" lon="6.958012"><ele>2120.2</ele></trkpt>
      <trkpt lat="46.033267" lon="6.958002"><ele>2119.4</ele></trkpt>
      <trkpt lat="46.033282" lon="6.958017"><ele>2119.0</ele></trkpt>
      <trkpt lat="46.033307" lon="6.958047"><ele>2119.0</ele></trkpt>
      <trkpt lat="46.033335" lon="6.958080"><ele>2118.4</ele></trkpt>
      <trkpt lat="46.033385" lon="6.958090"><ele>2117.2</ele></trkpt>
      <trkpt lat="46.033420" lon="6.958040"><ele>2115.6</ele></trkpt>
      <trkpt lat="46.033457" lon="6.957977"><ele>2112.4</ele></trkpt>
      <trkpt lat="46.033542" lon="6.958000"><ele>2107.0</ele></trkpt>
      <trkpt lat="46.033557" lon="6.958032"><ele>2104.8</ele></trkpt>
      <trkpt lat="46.033567" lon="6.958057"><ele>2104.2</ele></trkpt>
      <trkpt lat="46.033572" lon="6.958072"><ele>2103.8</ele></trkpt>
      <trkpt lat="46.033577" lon="6.958072"><ele>2111.8</ele></trkpt>
      <trkpt lat="46.033665" lon="6.958092"><ele>2110.2</ele></trkpt>
      <trkpt lat="46.033717" lon="6.958052"><ele>2108.2</ele></trkpt>
      <trkpt lat="46.033757" lon="6.957992"><ele>2104.4</ele></trkpt>
      <trkpt lat="46.033815" lon="6.957950"><ele>2102.0</ele></trkpt>
      <trkpt lat="46.033847" lon="6.957970"><ele>2100.2</ele></trkpt>
      <trkpt lat="46.033857" lon="6.957990"><ele>2097.8</ele></trkpt>
      <trkpt lat="46.033857" lon="6.958007"><ele>2097.0</ele></trkpt>
      <trkpt lat="46.033857" lon="6.958017"><ele>2097.0</ele></trkpt>
      <trkpt lat="46.033890" lon="6.958042"><ele>2100.4</ele></trkpt>
      <trkpt lat="46.033932" lon="6.958027"><ele>2100.0</ele></trkpt>
      <trkpt lat="46.033972" lon="6.957977"><ele>2098.6</ele></trkpt>
      <trkpt lat="46.034007" lon="6.957907"><ele>2096.6</ele></trkpt>
      <trkpt lat="46.034035" lon="6.957847"><ele>2095.4</ele></trkpt>
      <trkpt lat="46.034055" lon="6.957795"><ele>2095.2</ele></trkpt>
      <trkpt lat="46.034067" lon="6.957740"><ele>2095.2</ele></trkpt>
      <trkpt lat="46.034072" lon="6.957677"><ele>2094.8</ele></trkpt>
      <trkpt lat="46.034075" lon="6.957613"><ele>2094.8</ele></trkpt>
      <trkpt lat="46.034070" lon="6.957547"><ele>2094.6</ele></trkpt>
      <trkpt lat="46.034062" lon="6.957477"><ele>2093.6</ele></trkpt>
      <trkpt lat="46.034052" lon="6.957410"><ele>2093.2</ele></trkpt>
      <trkpt lat="46.034042" lon="6.957337"><ele>2092.6</ele></trkpt>
      <trkpt lat="46.034032" lon="6.957263"><ele>2092.2</ele></trkpt>
      <trkpt lat="46.034025" lon="6.957192"><ele>2091.8</ele></trkpt>
      <trkpt lat="46.034017" lon="6.957130"><ele>2091.2</ele></trkpt>
      <trkpt lat="46.034007" lon="6.957072"><ele>2090.8</ele></trkpt>
      <trkpt lat="46.033997" lon="6.957017"><ele>2090.4</ele></trkpt>
      <trkpt lat="46.033987" lon="6.956967"><ele>2090.0</ele></trkpt>
      <trkpt lat="46.033975" lon="6.956917"><ele>2089.4</ele></trkpt>
      <trkpt lat="46.033967" lon="6.956867"><ele>2088.8</ele></trkpt>
      <trkpt lat="46.033960" lon="6.956812"><ele>2088.4</ele></trkpt>
      <trkpt lat="46.033955" lon="6.956762"><ele>2087.8</ele></trkpt>
      <trkpt lat="46.033950" lon="6.956707"><ele>2087.2</ele></trkpt>
      <trkpt lat="46.033947" lon="6.956655"><ele>2087.0</ele></trkpt>
      <trkpt lat="46.033942" lon="6.956605"><ele>2086.0</ele></trkpt>
      <trkpt lat="46.033940" lon="6.956550"><ele>2085.2</ele></trkpt>
      <trkpt lat="46.033940" lon="6.956492"><ele>2084.8</ele></trkpt>
      <trkpt lat="46.033960" lon="6.956427"><ele>2083.8</ele></trkpt>
      <trkpt lat="46.034005" lon="6.956390"><ele>2081.0</ele></trkpt>
      <trkpt lat="46.034057" lon="6.956387"><ele>2081.0</ele></trkpt>
      <trkpt lat="46.034110" lon="6.956337"><ele>2079.4</ele></trkpt>
      <trkpt lat="46.034135" lon="6.956252"><ele>2077.2</ele></trkpt>
      <trkpt lat="46.034135" lon="6.956165"><ele>2074.0</ele></trkpt>
      <trkpt lat="46.034145" lon="6.956067"><ele>2072.4</ele></trkpt>
      <trkpt lat="46.034195" lon="6.956020"><ele>2071.2</ele></trkpt>
      <trkpt lat="46.034247" lon="6.956020"><ele>2068.8</ele></trkpt>
      <trkpt lat="46.034295" lon="6.955972"><ele>2067.6</ele></trkpt>
      <trkpt lat="46.034307" lon="6.955902"><ele>2066.0</ele></trkpt>
      <trkpt lat="46.034312" lon="6.955835"><ele>2063.0</ele></trkpt>
      <trkpt lat="46.034310" lon="6.955772"><ele>2061.0</ele></trkpt>
      <trkpt lat="46.034305" lon="6.955710"><ele>2059.0</ele></trkpt>
      <trkpt lat="46.034302" lon="6.955640"><ele>2058.2</ele></trkpt>
      <trkpt lat="46.034332" lon="6.955572"><ele>2057.4</ele></trkpt>
      <trkpt lat="46.034382" lon="6.955565"><ele>2054.8</ele></trkpt>
      <trkpt lat="46.034440" lon="6.955542"><ele>2051.6</ele></trkpt>
      <trkpt lat="46.034477" lon="6.955453"><ele>2049.0</ele></trkpt>
      <trkpt lat="46.034487" lon="6.955352"><ele>2044.4</ele></trkpt>
      <trkpt lat="46.034482" lon="6.955252"><ele>2041.6</ele></trkpt>
      <trkpt lat="46.034512" lon="6.955157"><ele>2039.0</ele></trkpt>
      <trkpt lat="46.034552" lon="6.955110"><ele>2036.2</ele></trkpt>
      <trkpt lat="46.034630" lon="6.955087"><ele>2033.4</ele></trkpt>
      <trkpt lat="46.034695" lon="6.955022"><ele>2032.0</ele></trkpt>
      <trkpt lat="46.034720" lon="6.954907"><ele>2028.0</ele></trkpt>
      <trkpt lat="46.034727" lon="6.954687"><ele>2022.0</ele></trkpt>
      <trkpt lat="46.034767" lon="6.954597"><ele>2020.8</ele></trkpt>
      <trkpt lat="46.034812" lon="6.954562"><ele>2018.2</ele></trkpt>
      <trkpt lat="46.034890" lon="6.954575"><ele>2015.6</ele></trkpt>
      <trkpt lat="46.034977" lon="6.954567"><ele>2010.8</ele></trkpt>
      <trkpt lat="46.035017" lon="6.954455"><ele>2010.8</ele></trkpt>
      <trkpt lat="46.035025" lon="6.954332"><ele>2006.6</ele></trkpt>
      <trkpt lat="46.035047" lon="6.954195"><ele>2003.8</ele></trkpt>
      <trkpt lat="46.035102" lon="6.954122"><ele>2000.8</ele></trkpt>
      <trkpt lat="46.035182" lon="6.954085"><ele>1997.8</ele></trkpt>
      <trkpt lat="46.035230" lon="6.953987"><ele>1996.4</ele></trkpt>
      <trkpt lat="46.035232" lon="6.953875"><ele>1992.6</ele></trkpt>
      <trkpt lat="46.035225" lon="6.953757"><ele>1989.2</ele></trkpt>
      <trkpt lat="46.035255" lon="6.953652"><ele>1987.4</ele></trkpt>
      <trkpt lat="46.035305" lon="6.953612"><ele>1984.4</ele></trkpt>
      <trkpt lat="46.035375" lon="6.953627"><ele>1980.4</ele></trkpt>
      <trkpt lat="46.035437" lon="6.953595"><ele>1980.2</ele></trkpt>
      <trkpt lat="46.035470" lon="6.953565"><ele>1977.6</ele></trkpt>
      <trkpt lat="46.035482" lon="6.953557"><ele>1974.2</ele></trkpt>
      <trkpt lat="46.035482" lon="6.953555"><ele>1973.8</ele></trkpt>
      <trkpt lat="46.035487" lon="6.953510"><ele>1973.6</ele></trkpt>
      <trkpt lat="46.035487" lon="6.953465"><ele>1972.8</ele></trkpt>
      <trkpt lat="46.035555" lon="6.953352"><ele>1971.2</ele></trkpt>
      <trkpt lat="46.035607" lon="6.953345"><ele>1968.8</ele></trkpt>
      <trkpt lat="46.035677" lon="6.953327"><ele>1966.2</ele></trkpt>
      <trkpt lat="46.035805" lon="6.953207"><ele>1963.8</ele></trkpt>
      <trkpt lat="46.035877" lon="6.953220"><ele>1962.2</ele></trkpt>
      <trkpt lat="46.035930" lon="6.953262"><ele>1961.2</ele></trkpt>
      <trkpt lat="46.035997" lon="6.953280"><ele>1960.2</ele></trkpt>
      <trkpt lat="46.036052" lon="6.953228"><ele>1959.4</ele></trkpt>
      <trkpt lat="46.036097" lon="6.953137"><ele>1956.6</ele></trkpt>
      <trkpt lat="46.036162" lon="6.953077"><ele>1954.0</ele></trkpt>
      <trkpt lat="46.036315" lon="6.953125"><ele>1948.8</ele></trkpt>
      <trkpt lat="46.036375" lon="6.953197"><ele>1946.8</ele></trkpt>
      <trkpt lat="46.036452" lon="6.953212"><ele>1946.4</ele></trkpt>
      <trkpt lat="46.036607" lon="6.953172"><ele>1942.6</ele></trkpt>
      <trkpt lat="46.036680" lon="6.953232"><ele>1940.4</ele></trkpt>
      <trkpt lat="46.036760" lon="6.953282"><ele>1938.0</ele></trkpt>
      <trkpt lat="46.036895" lon="6.953425"><ele>1934.2</ele></trkpt>
      <trkpt lat="46.036957" lon="6.953502"><ele>1933.0</ele></trkpt>
      <trkpt lat="46.037037" lon="6.953532"><ele>1931.6</ele></trkpt>
      <trkpt lat="46.037195" lon="6.953677"><ele>1924.6</ele></trkpt>
      <trkpt lat="46.037275" lon="6.953735"><ele>1923.2</ele></trkpt>
      <trkpt lat="46.037357" lon="6.953727"><ele>1922.6</ele></trkpt>
      <trkpt lat="46.037512" lon="6.953802"><ele>1917.0</ele></trkpt>
      <trkpt lat="46.037552" lon="6.953885"><ele>1912.8</ele></trkpt>
      <trkpt lat="46.037607" lon="6.953950"><ele>1912.8</ele></trkpt>
      <trkpt lat="46.037737" lon="6.953955"><ele>1909.2</ele></trkpt>
      <trkpt lat="46.037795" lon="6.954007"><ele>1906.6</ele></trkpt>
      <trkpt lat="46.037822" lon="6.954082"><ele>1904.0</ele></trkpt>
      <trkpt lat="46.037847" lon="6.954167"><ele>1901.2</ele></trkpt>
      <trkpt lat="46.037855" lon="6.954162"><ele>1900.4</ele></trkpt>
      <trkpt lat="46.037887" lon="6.954167"><ele>1899.8</ele></trkpt>
      <trkpt lat="46.037902" lon="6.954172"><ele>1899.2</ele></trkpt>
      <trkpt lat="46.037927" lon="6.954162"><ele>1897.6</ele></trkpt>
      <trkpt lat="46.037942" lon="6.954167"><ele>1897.6</ele></trkpt>
      <trkpt lat="46.037965" lon="6.954180"><ele>1897.4</ele></trkpt>
      <trkpt lat="46.038047" lon="6.954142"><ele>1895.0</ele></trkpt>
      <trkpt lat="46.038075" lon="6.954077"><ele>1892.6</ele></trkpt>
      <trkpt lat="46.038115" lon="6.954022"><ele>1890.4</ele></trkpt>
      <trkpt lat="46.038167" lon="6.954032"><ele>1888.0</ele></trkpt>
      <trkpt lat="46.038207" lon="6.954087"><ele>1884.4</ele></trkpt>
      <trkpt lat="46.038267" lon="6.954095"><ele>1882.2</ele></trkpt>
      <trkpt lat="46.038320" lon="6.954032"><ele>1879.8</ele></trkpt>
      <trkpt lat="46.038395" lon="6.953992"><ele>1876.2</ele></trkpt>
      <trkpt lat="46.038482" lon="6.954015"><ele>1872.4</ele></trkpt>
      <trkpt lat="46.038565" lon="6.954062"><ele>1868.2</ele></trkpt>
      <trkpt lat="46.038622" lon="6.954147"><ele>1864.6</ele></trkpt>
      <trkpt lat="46.038692" lon="6.954177"><ele>1860.4</ele></trkpt>
      <trkpt lat="46.038760" lon="6.954177"><ele>1860.4</ele></trkpt>
      <trkpt lat="46.038927" lon="6.954167"><ele>1852.6</ele></trkpt>
      <trkpt lat="46.038982" lon="6.954265"><ele>1849.8</ele></trkpt>
      <trkpt lat="46.039017" lon="6.954362"><ele>1847.0</ele></trkpt>
      <trkpt lat="46.039070" lon="6.954422"><ele>1845.4</ele></trkpt>
      <trkpt lat="46.039142" lon="6.954382"><ele>1843.0</ele></trkpt>
      <trkpt lat="46.039220" lon="6.954370"><ele>1840.6</ele></trkpt>
      <trkpt lat="46.039297" lon="6.954392"><ele>1838.2</ele></trkpt>
      <trkpt lat="46.039347" lon="6.954437"><ele>1834.4</ele></trkpt>
      <trkpt lat="46.039390" lon="6.954477"><ele>1831.8</ele></trkpt>
      <trkpt lat="46.039430" lon="6.954517"><ele>1830.0</ele></trkpt>
      <trkpt lat="46.039490" lon="6.954540"><ele>1829.0</ele></trkpt>
      <trkpt lat="46.039540" lon="6.954582"><ele>1827.0</ele></trkpt>
      <trkpt lat="46.039572" lon="6.954592"><ele>1824.2</ele></trkpt>
      <trkpt lat="46.039602" lon="6.954590"><ele>1822.6</ele></trkpt>
      <trkpt lat="46.039642" lon="6.954602"><ele>1821.6</ele></trkpt>
      <trkpt lat="46.039692" lon="6.954587"><ele>1821.0</ele></trkpt>
      <trkpt lat="46.039762" lon="6.954590"><ele>1819.4</ele></trkpt>
      <trkpt lat="46.039830" lon="6.954625"><ele>1817.6</ele></trkpt>
      <trkpt lat="46.039882" lon="6.954670"><ele>1815.0</ele></trkpt>
      <trkpt lat="46.039917" lon="6.954697"><ele>1813.4</ele></trkpt>
      <trkpt lat="46.039932" lon="6.954705"><ele>1811.8</ele></trkpt>
      <trkpt lat="46.039942" lon="6.954697"><ele>1811.2</ele></trkpt>
      <trkpt lat="46.039962" lon="6.954682"><ele>1810.4</ele></trkpt>
      <trkpt lat="46.039987" lon="6.954655"><ele>1809.8</ele></trkpt>
      <trkpt lat="46.039997" lon="6.954620"><ele>1809.6</ele></trkpt>
      <trkpt lat="46.039987" lon="6.954575"><ele>1809.0</ele></trkpt>
      <trkpt lat="46.039962" lon="6.954540"><ele>1808.0</ele></trkpt>
      <trkpt lat="46.039937" lon="6.954507"><ele>1807.8</ele></trkpt>
      <trkpt lat="46.039910" lon="6.954468"><ele>1807.0</ele></trkpt>
      <trkpt lat="46.039882" lon="6.954417"><ele>1806.4</ele></trkpt>
      <trkpt lat="46.039872" lon="6.954337"><ele>1805.8</ele></trkpt>
      <trkpt lat="46.039892" lon="6.954267"><ele>1804.0</ele></trkpt>
      <trkpt lat="46.039890" lon="6.954185"><ele>1802.0</ele></trkpt>
      <trkpt lat="46.039842" lon="6.954117"><ele>1800.6</ele></trkpt>
      <trkpt lat="46.039810" lon="6.954030"><ele>1798.6</ele></trkpt>
      <trkpt lat="46.039817" lon="6.953935"><ele>1794.8</ele></trkpt>
      <trkpt lat="46.039812" lon="6.953842"><ele>1794.8</ele></trkpt>
      <trkpt lat="46.039772" lon="6.953767"><ele>1794.0</ele></trkpt>
      <trkpt lat="46.039722" lon="6.953692"><ele>1791.6</ele></trkpt>
      <trkpt lat="46.039710" lon="6.953617"><ele>1790.0</ele></trkpt>
      <trkpt lat="46.039712" lon="6.953552"><ele>1789.6</ele></trkpt>
      <trkpt lat="46.039697" lon="6.953483"><ele>1789.2</ele></trkpt>
      <trkpt lat="46.039677" lon="6.953407"><ele>1788.2</ele></trkpt>
      <trkpt lat="46.039677" lon="6.953320"><ele>1787.0</ele></trkpt>
      <trkpt lat="46.039695" lon="6.953267"><ele>1785.4</ele></trkpt>
      <trkpt lat="46.039735" lon="6.953265"><ele>1783.6</ele></trkpt>
      <trkpt lat="46.039780" lon="6.953247"><ele>1782.4</ele></trkpt>
      <trkpt lat="46.039825" lon="6.953167"><ele>1780.6</ele></trkpt>
      <trkpt lat="46.039897" lon="6.953102"><ele>1777.6</ele></trkpt>
      <trkpt lat="46.039967" lon="6.953107"><ele>1774.2</ele></trkpt>
      <trkpt lat="46.040042" lon="6.953137"><ele>1771.6</ele></trkpt>
      <trkpt lat="46.040112" lon="6.953167"><ele>1771.2</ele></trkpt>
      <trkpt lat="46.040180" lon="6.953162"><ele>1770.2</ele></trkpt>
      <trkpt lat="46.040250" lon="6.953202"><ele>1768.2</ele></trkpt>
      <trkpt lat="46.040295" lon="6.953277"><ele>1767.2</ele></trkpt>
      <trkpt lat="46.040332" lon="6.953357"><ele>1765.8</ele></trkpt>
      <trkpt lat="46.040387" lon="6.953387"><ele>1765.0</ele></trkpt>
      <trkpt lat="46.040430" lon="6.953432"><ele>1763.8</ele></trkpt>
      <trkpt lat="46.040477" lon="6.953447"><ele>1761.8</ele></trkpt>
      <trkpt lat="46.040525" lon="6.953422"><ele>1760.2</ele></trkpt>
      <trkpt lat="46.040570" lon="6.953427"><ele>1757.4</ele></trkpt>
      <trkpt lat="46.040617" lon="6.953417"><ele>1754.8</ele></trkpt>
      <trkpt lat="46.040660" lon="6.953355"><ele>1752.6</ele></trkpt>
      <trkpt lat="46.040722" lon="6.953347"><ele>1749.8</ele></trkpt>
      <trkpt lat="46.040790" lon="6.953355"><ele>1746.4</ele></trkpt>
      <trkpt lat="46.040842" lon="6.953272"><ele>1739.4</ele></trkpt>
      <trkpt lat="46.040905" lon="6.953202"><ele>1739.4</ele></trkpt>
      <trkpt lat="46.040965" lon="6.953165"><ele>1736.4</ele></trkpt>
      <trkpt lat="46.041007" lon="6.953097"><ele>1734.6</ele></trkpt>
      <trkpt lat="46.041057" lon="6.953037"><ele>1733.0</ele></trkpt>
      <trkpt lat="46.041112" lon="6.952975"><ele>1731.4</ele></trkpt>
      <trkpt lat="46.041127" lon="6.952885"><ele>1729.6</ele></trkpt>
      <trkpt lat="46.041172" lon="6.952810"><ele>1727.2</ele></trkpt>
      <trkpt lat="46.041217" lon="6.952772"><ele>1725.6</ele></trkpt>
      <trkpt lat="46.041257" lon="6.952720"><ele>1723.6</ele></trkpt>
      <trkpt lat="46.041267" lon="6.952632"><ele>1721.0</ele></trkpt>
      <trkpt lat="46.041285" lon="6.952552"><ele>1718.8</ele></trkpt>
      <trkpt lat="46.041325" lon="6.952472"><ele>1715.8</ele></trkpt>
      <trkpt lat="46.041317" lon="6.952387"><ele>1713.8</ele></trkpt>
      <trkpt lat="46.041292" lon="6.952322"><ele>1710.6</ele></trkpt>
      <trkpt lat="46.041272" lon="6.952272"><ele>1708.6</ele></trkpt>
      <trkpt lat="46.041265" lon="6.952237"><ele>1707.8</ele></trkpt>
      <trkpt lat="46.041265" lon="6.952195"><ele>1707.4</ele></trkpt>
      <trkpt lat="46.041277" lon="6.952132"><ele>1706.8</ele></trkpt>
      <trkpt lat="46.041312" lon="6.952090"><ele>1705.8</ele></trkpt>
      <trkpt lat="46.041332" lon="6.952053"><ele>1703.4</ele></trkpt>
      <trkpt lat="46.041357" lon="6.952022"><ele>1701.4</ele></trkpt>
      <trkpt lat="46.041385" lon="6.951992"><ele>1699.6</ele></trkpt>
      <trkpt lat="46.041422" lon="6.951972"><ele>1697.6</ele></trkpt>
      <trkpt lat="46.041465" lon="6.951955"><ele>1696.0</ele></trkpt>
      <trkpt lat="46.041510" lon="6.951942"><ele>1694.0</ele></trkpt>
      <trkpt lat="46.041563" lon="6.951940"><ele>1692.4</ele></trkpt>
      <trkpt lat="46.041632" lon="6.951942"><ele>1691.0</ele></trkpt>
      <trkpt lat="46.041712" lon="6.951945"><ele>1689.2</ele></trkpt>
      <trkpt lat="46.041787" lon="6.951967"><ele>1687.6</ele></trkpt>
      <trkpt lat="46.041862" lon="6.952002"><ele>1686.2</ele></trkpt>
      <trkpt lat="46.041937" lon="6.952057"><ele>1686.2</ele></trkpt>
      <trkpt lat="46.042015" lon="6.952117"><ele>1685.2</ele></trkpt>
      <trkpt lat="46.042092" lon="6.952157"><ele>1684.2</ele></trkpt>
      <trkpt lat="46.042180" lon="6.952145"><ele>1681.6</ele></trkpt>
      <trkpt lat="46.042267" lon="6.952117"><ele>1679.6</ele></trkpt>
      <trkpt lat="46.042355" lon="6.952117"><ele>1678.6</ele></trkpt>
      <trkpt lat="46.042440" lon="6.952090"><ele>1678.4</ele></trkpt>
      <trkpt lat="46.042525" lon="6.952057"><ele>1677.6</ele></trkpt>
      <trkpt lat="46.042617" lon="6.952032"><ele>1676.2</ele></trkpt>
      <trkpt lat="46.042717" lon="6.952027"><ele>1674.6</ele></trkpt>
      <trkpt lat="46.042802" lon="6.952085"><ele>1672.4</ele></trkpt>
      <trkpt lat="46.042867" lon="6.952177"><ele>1670.2</ele></trkpt>
      <trkpt lat="46.042952" lon="6.952227"><ele>1669.2</ele></trkpt>
      <trkpt lat="46.043032" lon="6.952232"><ele>1667.2</ele></trkpt>
      <trkpt lat="46.043097" lon="6.952265"><ele>1665.4</ele></trkpt>
      <trkpt lat="46.043127" lon="6.952322"><ele>1664.8</ele></trkpt>
      <trkpt lat="46.043135" lon="6.952382"><ele>1664.6</ele></trkpt>
    </trkseg>
  </trk>
</gpx>
