<?xml version="1.0" encoding="UTF-8"?>
<gpx version="1.1" creator="Snowdesk route export"
     xmlns="http://www.topografix.com/GPX/1/1"
     xmlns:xsi="http://www.w3.org/2001/XMLSchema-instance"
     xsi:schemaLocation="http://www.topografix.com/GPX/1/1 http://www.topografix.com/GPX/1/1/gpx.xsd">
  <metadata>
    <name>Hidden Valley</name>
    <desc>Reconstituted from Snowdesk stored points (route 2542d24c-3f81-498f-97b9-4b5f826bbf9a). The uploaded file was parsed and discarded at ingest; this is not it. 524 points stored; the source count was not recorded for this route. Per-point timestamps are not stored and are absent here.</desc>
    <time>2026-03-11T09:58:08Z</time>
    <bounds minlat="46.102402" minlon="7.275755" maxlat="46.149242" maxlon="7.282987"/>
  </metadata>
  <trk>
    <name>Hidden Valley</name>
    <trkseg>
      <trkpt lat="46.103002" lon="7.278757"><ele>2738.2</ele></trkpt>
      <trkpt lat="46.102987" lon="7.278775"><ele>2737.6</ele></trkpt>
      <trkpt lat="46.102922" lon="7.278767"><ele>2737.8</ele></trkpt>
      <trkpt lat="46.102837" lon="7.278702"><ele>2738.0</ele></trkpt>
      <trkpt lat="46.102787" lon="7.278652"><ele>2738.2</ele></trkpt>
      <trkpt lat="46.102750" lon="7.278502"><ele>2736.0</ele></trkpt>
      <trkpt lat="46.102730" lon="7.278487"><ele>2735.6</ele></trkpt>
      <trkpt lat="46.102562" lon="7.278490"><ele>2735.2</ele></trkpt>
      <trkpt lat="46.102460" lon="7.278530"><ele>2734.4</ele></trkpt>
      <trkpt lat="46.102402" lon="7.278502"><ele>2733.4</ele></trkpt>
      <trkpt lat="46.102402" lon="7.278437"><ele>2731.4</ele></trkpt>
      <trkpt lat="46.102490" lon="7.278282"><ele>2723.2</ele></trkpt>
      <trkpt lat="46.102502" lon="7.278197"><ele>2721.8</ele></trkpt>
      <trkpt lat="46.102662" lon="7.278075"><ele>2717.0</ele></trkpt>
      <trkpt lat="46.102705" lon="7.278012"><ele>2712.6</ele></trkpt>
      <trkpt lat="46.102757" lon="7.277852"><ele>2707.4</ele></trkpt>
      <trkpt lat="46.102822" lon="7.277775"><ele>2703.0</ele></trkpt>
      <trkpt lat="46.102872" lon="7.277752"><ele>2701.0</ele></trkpt>
      <trkpt lat="46.103060" lon="7.277717"><ele>2695.6</ele></trkpt>
      <trkpt lat="46.103120" lon="7.277682"><ele>2692.4</ele></trkpt>
      <trkpt lat="46.103125" lon="7.277640"><ele>2691.6</ele></trkpt>
      <trkpt lat="46.103080" lon="7.277585"><ele>2690.2</ele></trkpt>
      <trkpt lat="46.103075" lon="7.277530"><ele>2689.4</ele></trkpt>
      <trkpt lat="46.103087" lon="7.277492"><ele>2688.6</ele></trkpt>
      <trkpt lat="46.103147" lon="7.277482"><ele>2686.0</ele></trkpt>
      <trkpt lat="46.103237" lon="7.277437"><ele>2680.4</ele></trkpt>
      <trkpt lat="46.103202" lon="7.277292"><ele>2676.2</ele></trkpt>
      <trkpt lat="46.103237" lon="7.277268"><ele>2675.0</ele></trkpt>
      <trkpt lat="46.103300" lon="7.277255"><ele>2672.4</ele></trkpt>
      <trkpt lat="46.103382" lon="7.277182"><ele>2667.6</ele></trkpt>
      <trkpt lat="46.103482" lon="7.277142"><ele>2661.4</ele></trkpt>
      <trkpt lat="46.103717" lon="7.277107"><ele>2651.6</ele></trkpt>
      <trkpt lat="46.104232" lon="7.277117"><ele>2640.8</ele></trkpt>
      <trkpt lat="46.104385" lon="7.277087"><ele>2637.0</ele></trkpt>
      <trkpt lat="46.104470" lon="7.277047"><ele>2635.4</ele></trkpt>
      <trkpt lat="46.104562" lon="7.277040"><ele>2634.6</ele></trkpt>
      <trkpt lat="46.105082" lon="7.277107"><ele>2626.2</ele></trkpt>
      <trkpt lat="46.105125" lon="7.277127"><ele>2626.0</ele></trkpt>
      <trkpt lat="46.105202" lon="7.277225"><ele>2625.0</ele></trkpt>
      <trkpt lat="46.105235" lon="7.277207"><ele>2624.6</ele></trkpt>
      <trkpt lat="46.105255" lon="7.277140"><ele>2624.2</ele></trkpt>
      <trkpt lat="46.105307" lon="7.277112"><ele>2623.6</ele></trkpt>
      <trkpt lat="46.105360" lon="7.277145"><ele>2623.0</ele></trkpt>
      <trkpt lat="46.105397" lon="7.277192"><ele>2622.0</ele></trkpt>
      <trkpt lat="46.105460" lon="7.277215"><ele>2620.4</ele></trkpt>
      <trkpt lat="46.105975" lon="7.277162"><ele>2606.8</ele></trkpt>
      <trkpt lat="46.105947" lon="7.277207"><ele>2607.4</ele></trkpt>
      <trkpt lat="46.105952" lon="7.277182"><ele>2608.0</ele></trkpt>
      <trkpt lat="46.105977" lon="7.277172"><ele>2613.4</ele></trkpt>
      <trkpt lat="46.106100" lon="7.277272"><ele>2618.0</ele></trkpt>
      <trkpt lat="46.106200" lon="7.277327"><ele>2620.8</ele></trkpt>
      <trkpt lat="46.106462" lon="7.277267"><ele>2624.4</ele></trkpt>
      <trkpt lat="46.106550" lon="7.277260"><ele>2626.0</ele></trkpt>
      <trkpt lat="46.106588" lon="7.277272"><ele>2626.8</ele></trkpt>
      <trkpt lat="46.106882" lon="7.277527"><ele>2629.0</ele></trkpt>
      <trkpt lat="46.106997" lon="7.277565"><ele>2627.6</ele></trkpt>
      <trkpt lat="46.107272" lon="7.277427"><ele>2630.6</ele></trkpt>
      <trkpt lat="46.107422" lon="7.277435"><ele>2632.2</ele></trkpt>
      <trkpt lat="46.107560" lon="7.277367"><ele>2634.6</ele></trkpt>
      <trkpt lat="46.107687" lon="7.277412"><ele>2637.4</ele></trkpt>
      <trkpt lat="46.107992" lon="7.277395"><ele>2642.4</ele></trkpt>
      <trkpt lat="46.108207" lon="7.277425"><ele>2644.8</ele></trkpt>
      <trkpt lat="46.108487" lon="7.277415"><ele>2646.0</ele></trkpt>
      <trkpt lat="46.108552" lon="7.277407"><ele>2646.4</ele></trkpt>
      <trkpt lat="46.108732" lon="7.277295"><ele>2644.8</ele></trkpt>
      <trkpt lat="46.108802" lon="7.277302"><ele>2644.6</ele></trkpt>
      <trkpt lat="46.108877" lon="7.277335"><ele>2645.6</ele></trkpt>
      <trkpt lat="46.109047" lon="7.277417"><ele>2646.2</ele></trkpt>
      <trkpt lat="46.109097" lon="7.277470"><ele>2645.8</ele></trkpt>
      <trkpt lat="46.109287" lon="7.277512"><ele>2645.0</ele></trkpt>
      <trkpt lat="46.109542" lon="7.277515"><ele>2644.8</ele></trkpt>
      <trkpt lat="46.109632" lon="7.277500"><ele>2645.0</ele></trkpt>
      <trkpt lat="46.109737" lon="7.277455"><ele>2645.0</ele></trkpt>
      <trkpt lat="46.109877" lon="7.277420"><ele>2645.0</ele></trkpt>
      <trkpt lat="46.109982" lon="7.277425"><ele>2644.0</ele></trkpt>
      <trkpt lat="46.110022" lon="7.277412"><ele>2642.6</ele></trkpt>
      <trkpt lat="46.110132" lon="7.277300"><ele>2642.6</ele></trkpt>
      <trkpt lat="46.110242" lon="7.277137"><ele>2643.8</ele></trkpt>
      <trkpt lat="46.110257" lon="7.277082"><ele>2644.4</ele></trkpt>
      <trkpt lat="46.110277" lon="7.277078"><ele>2644.6</ele></trkpt>
      <trkpt lat="46.110312" lon="7.277115"><ele>2646.8</ele></trkpt>
      <trkpt lat="46.110320" lon="7.277202"><ele>2648.6</ele></trkpt>
      <trkpt lat="46.110277" lon="7.277472"><ele>2657.6</ele></trkpt>
      <trkpt lat="46.110340" lon="7.277527"><ele>2658.4</ele></trkpt>
      <trkpt lat="46.110497" lon="7.277567"><ele>2663.8</ele></trkpt>
      <trkpt lat="46.110617" lon="7.277675"><ele>2670.2</ele></trkpt>
      <trkpt lat="46.110722" lon="7.277737"><ele>2672.2</ele></trkpt>
      <trkpt lat="46.110942" lon="7.277780"><ele>2677.6</ele></trkpt>
      <trkpt lat="46.110982" lon="7.277755"><ele>2678.0</ele></trkpt>
      <trkpt lat="46.111075" lon="7.277805"><ele>2687.4</ele></trkpt>
      <trkpt lat="46.111252" lon="7.277845"><ele>2694.6</ele></trkpt>
      <trkpt lat="46.111352" lon="7.277805"><ele>2696.4</ele></trkpt>
      <trkpt lat="46.111385" lon="7.277820"><ele>2700.2</ele></trkpt>
      <trkpt lat="46.111490" lon="7.277942"><ele>2702.2</ele></trkpt>
      <trkpt lat="46.111532" lon="7.277950"><ele>2703.0</ele></trkpt>
      <trkpt lat="46.111677" lon="7.278177"><ele>2720.8</ele></trkpt>
      <trkpt lat="46.111872" lon="7.278347"><ele>2724.8</ele></trkpt>
      <trkpt lat="46.111890" lon="7.278345"><ele>2725.2</ele></trkpt>
      <trkpt lat="46.111917" lon="7.278302"><ele>2725.8</ele></trkpt>
      <trkpt lat="46.112042" lon="7.278407"><ele>2725.0</ele></trkpt>
      <trkpt lat="46.112110" lon="7.278417"><ele>2726.0</ele></trkpt>
      <trkpt lat="46.112200" lon="7.278402"><ele>2726.2</ele></trkpt>
      <trkpt lat="46.112343" lon="7.278262"><ele>2724.2</ele></trkpt>
      <trkpt lat="46.112675" lon="7.278052"><ele>2719.2</ele></trkpt>
      <trkpt lat="46.112752" lon="7.278015"><ele>2719.4</ele></trkpt>
      <trkpt lat="46.112832" lon="7.278012"><ele>2718.6</ele></trkpt>
      <trkpt lat="46.112922" lon="7.278057"><ele>2717.8</ele></trkpt>
      <trkpt lat="46.113190" lon="7.278257"><ele>2713.4</ele></trkpt>
      <trkpt lat="46.113482" lon="7.278607"><ele>2709.4</ele></trkpt>
      <trkpt lat="46.113605" lon="7.278680"><ele>2708.6</ele></trkpt>
      <trkpt lat="46.113772" lon="7.278735"><ele>2706.8</ele></trkpt>
      <trkpt lat="46.113802" lon="7.278735"><ele>2704.0</ele></trkpt>
      <trkpt lat="46.113840" lon="7.278690"><ele>2703.6</ele></trkpt>
      <trkpt lat="46.113902" lon="7.278580"><ele>2703.2</ele></trkpt>
      <trkpt lat="46.113922" lon="7.278292"><ele>2702.8</ele></trkpt>
      <trkpt lat="46.113987" lon="7.277967"><ele>2703.2</ele></trkpt>
      <trkpt lat="46.114055" lon="7.277812"><ele>2704.8</ele></trkpt>
      <trkpt lat="46.114042" lon="7.277727"><ele>2706.4</ele></trkpt>
      <trkpt lat="46.114047" lon="7.277677"><ele>2706.4</ele></trkpt>
      <trkpt lat="46.114067" lon="7.277647"><ele>2706.4</ele></trkpt>
      <trkpt lat="46.114110" lon="7.277627"><ele>2706.4</ele></trkpt>
      <trkpt lat="46.114265" lon="7.277637"><ele>2705.6</ele></trkpt>
      <trkpt lat="46.114460" lon="7.277537"><ele>2700.8</ele></trkpt>
      <trkpt lat="46.114547" lon="7.277510"><ele>2696.8</ele></trkpt>
      <trkpt lat="46.114787" lon="7.277512"><ele>2699.4</ele></trkpt>
      <trkpt lat="46.114810" lon="7.277520"><ele>2699.6</ele></trkpt>
      <trkpt lat="46.114880" lon="7.277612"><ele>2710.4</ele></trkpt>
      <trkpt lat="46.114932" lon="7.277705"><ele>2711.6</ele></trkpt>
      <trkpt lat="46.114930" lon="7.277742"><ele>2713.0</ele></trkpt>
      <trkpt lat="46.114987" lon="7.277772"><ele>2712.8</ele></trkpt>
      <trkpt lat="46.115140" lon="7.277785"><ele>2711.8</ele></trkpt>
      <trkpt lat="46.115522" lon="7.277782"><ele>2705.6</ele></trkpt>
      <trkpt lat="46.115607" lon="7.277807"><ele>2703.0</ele></trkpt>
      <trkpt lat="46.115655" lon="7.277787"><ele>2702.2</ele></trkpt>
      <trkpt lat="46.115685" lon="7.277750"><ele>2701.8</ele></trkpt>
      <trkpt lat="46.115715" lon="7.277770"><ele>2702.0</ele></trkpt>
      <trkpt lat="46.115717" lon="7.277825"><ele>2702.0</ele></trkpt>
      <trkpt lat="46.115672" lon="7.277975"><ele>2701.6</ele></trkpt>
      <trkpt lat="46.115742" lon="7.278070"><ele>2699.8</ele></trkpt>
      <trkpt lat="46.115748" lon="7.278202"><ele>2697.6</ele></trkpt>
      <trkpt lat="46.115837" lon="7.278282"><ele>2694.0</ele></trkpt>
      <trkpt lat="46.115845" lon="7.278357"><ele>2691.8</ele></trkpt>
      <trkpt lat="46.115822" lon="7.278417"><ele>2690.2</ele></trkpt>
      <trkpt lat="46.115832" lon="7.278477"><ele>2688.2</ele></trkpt>
      <trkpt lat="46.115897" lon="7.278600"><ele>2680.8</ele></trkpt>
      <trkpt lat="46.115887" lon="7.278707"><ele>2674.0</ele></trkpt>
      <trkpt lat="46.115902" lon="7.278767"><ele>2672.2</ele></trkpt>
      <trkpt lat="46.115942" lon="7.278830"><ele>2668.4</ele></trkpt>
      <trkpt lat="46.116042" lon="7.278902"><ele>2659.4</ele></trkpt>
      <trkpt lat="46.116062" lon="7.278982"><ele>2657.8</ele></trkpt>
      <trkpt lat="46.116032" lon="7.279147"><ele>2655.0</ele></trkpt>
      <trkpt lat="46.116057" lon="7.279312"><ele>2651.6</ele></trkpt>
      <trkpt lat="46.116050" lon="7.279380"><ele>2650.2</ele></trkpt>
      <trkpt lat="46.116107" lon="7.279477"><ele>2647.2</ele></trkpt>
      <trkpt lat="46.116115" lon="7.279535"><ele>2645.6</ele></trkpt>
      <trkpt lat="46.116190" lon="7.279632"><ele>2643.6</ele></trkpt>
      <trkpt lat="46.116222" lon="7.279742"><ele>2640.8</ele></trkpt>
      <trkpt lat="46.116272" lon="7.279787"><ele>2639.4</ele></trkpt>
      <trkpt lat="46.116337" lon="7.279950"><ele>2636.6</ele></trkpt>
      <trkpt lat="46.116447" lon="7.280097"><ele>2633.4</ele></trkpt>
      <trkpt lat="46.116517" lon="7.280280"><ele>2630.0</ele></trkpt>
      <trkpt lat="46.116572" lon="7.280352"><ele>2628.6</ele></trkpt>
      <trkpt lat="46.116830" lon="7.280577"><ele>2622.2</ele></trkpt>
      <trkpt lat="46.116892" lon="7.280680"><ele>2619.2</ele></trkpt>
      <trkpt lat="46.117225" lon="7.280972"><ele>2611.0</ele></trkpt>
      <trkpt lat="46.117280" lon="7.281140"><ele>2610.8</ele></trkpt>
      <trkpt lat="46.117327" lon="7.281192"><ele>2610.6</ele></trkpt>
      <trkpt lat="46.117465" lon="7.281312"><ele>2609.0</ele></trkpt>
      <trkpt lat="46.117527" lon="7.281307"><ele>2608.2</ele></trkpt>
      <trkpt lat="46.117695" lon="7.281427"><ele>2605.2</ele></trkpt>
      <trkpt lat="46.117740" lon="7.281500"><ele>2601.8</ele></trkpt>
      <trkpt lat="46.117797" lon="7.281552"><ele>2592.2</ele></trkpt>
      <trkpt lat="46.117900" lon="7.281740"><ele>2590.0</ele></trkpt>
      <trkpt lat="46.117962" lon="7.281795"><ele>2588.6</ele></trkpt>
      <trkpt lat="46.118082" lon="7.281822"><ele>2586.2</ele></trkpt>
      <trkpt lat="46.118172" lon="7.281787"><ele>2583.6</ele></trkpt>
      <trkpt lat="46.118340" lon="7.281782"><ele>2578.4</ele></trkpt>
      <trkpt lat="46.118375" lon="7.281760"><ele>2577.2</ele></trkpt>
      <trkpt lat="46.118390" lon="7.281637"><ele>2575.0</ele></trkpt>
      <trkpt lat="46.118472" lon="7.281552"><ele>2572.4</ele></trkpt>
      <trkpt lat="46.118507" lon="7.281357"><ele>2567.6</ele></trkpt>
      <trkpt lat="46.118547" lon="7.281303"><ele>2564.6</ele></trkpt>
      <trkpt lat="46.118610" lon="7.281335"><ele>2561.6</ele></trkpt>
      <trkpt lat="46.118897" lon="7.281597"><ele>2544.4</ele></trkpt>
      <trkpt lat="46.119057" lon="7.281690"><ele>2540.0</ele></trkpt>
      <trkpt lat="46.119142" lon="7.281795"><ele>2535.2</ele></trkpt>
      <trkpt lat="46.119187" lon="7.281782"><ele>2534.4</ele></trkpt>
      <trkpt lat="46.119232" lon="7.281735"><ele>2534.2</ele></trkpt>
      <trkpt lat="46.119372" lon="7.281697"><ele>2533.4</ele></trkpt>
      <trkpt lat="46.119622" lon="7.281787"><ele>2529.2</ele></trkpt>
      <trkpt lat="46.119772" lon="7.281812"><ele>2523.0</ele></trkpt>
      <trkpt lat="46.119835" lon="7.281797"><ele>2520.4</ele></trkpt>
      <trkpt lat="46.119922" lon="7.281712"><ele>2516.6</ele></trkpt>
      <trkpt lat="46.119980" lon="7.281602"><ele>2514.8</ele></trkpt>
      <trkpt lat="46.120047" lon="7.281412"><ele>2508.0</ele></trkpt>
      <trkpt lat="46.120072" lon="7.281398"><ele>2507.8</ele></trkpt>
      <trkpt lat="46.120157" lon="7.281420"><ele>2508.0</ele></trkpt>
      <trkpt lat="46.120202" lon="7.281392"><ele>2508.0</ele></trkpt>
      <trkpt lat="46.120212" lon="7.281337"><ele>2507.8</ele></trkpt>
      <trkpt lat="46.120182" lon="7.281113"><ele>2504.8</ele></trkpt>
      <trkpt lat="46.120195" lon="7.281022"><ele>2503.4</ele></trkpt>
      <trkpt lat="46.120325" lon="7.280727"><ele>2499.0</ele></trkpt>
      <trkpt lat="46.120407" lon="7.280365"><ele>2491.0</ele></trkpt>
      <trkpt lat="46.120462" lon="7.280287"><ele>2488.4</ele></trkpt>
      <trkpt lat="46.120700" lon="7.280127"><ele>2477.2</ele></trkpt>
      <trkpt lat="46.120992" lon="7.280157"><ele>2466.8</ele></trkpt>
      <trkpt lat="46.121097" lon="7.280152"><ele>2462.2</ele></trkpt>
      <trkpt lat="46.121195" lon="7.280092"><ele>2457.6</ele></trkpt>
      <trkpt lat="46.121257" lon="7.280007"><ele>2453.2</ele></trkpt>
      <trkpt lat="46.121332" lon="7.279747"><ele>2444.6</ele></trkpt>
      <trkpt lat="46.121392" lon="7.279652"><ele>2441.0</ele></trkpt>
      <trkpt lat="46.121462" lon="7.279587"><ele>2437.8</ele></trkpt>
      <trkpt lat="46.121557" lon="7.279575"><ele>2435.0</ele></trkpt>
      <trkpt lat="46.121650" lon="7.279610"><ele>2432.8</ele></trkpt>
      <trkpt lat="46.121712" lon="7.279677"><ele>2430.8</ele></trkpt>
      <trkpt lat="46.122060" lon="7.280195"><ele>2419.8</ele></trkpt>
      <trkpt lat="46.122222" lon="7.280532"><ele>2415.8</ele></trkpt>
      <trkpt lat="46.122367" lon="7.280790"><ele>2412.0</ele></trkpt>
      <trkpt lat="46.122487" lon="7.280905"><ele>2411.6</ele></trkpt>
      <trkpt lat="46.122720" lon="7.281202"><ele>2409.4</ele></trkpt>
      <trkpt lat="46.122792" lon="7.281267"><ele>2408.8</ele></trkpt>
      <trkpt lat="46.122907" lon="7.281337"><ele>2405.8</ele></trkpt>
      <trkpt lat="46.122942" lon="7.281492"><ele>2405.0</ele></trkpt>
      <trkpt lat="46.123012" lon="7.281567"><ele>2404.2</ele></trkpt>
      <trkpt lat="46.123057" lon="7.281600"><ele>2403.2</ele></trkpt>
      <trkpt lat="46.123137" lon="7.281575"><ele>2400.0</ele></trkpt>
      <trkpt lat="46.123247" lon="7.281512"><ele>2391.2</ele></trkpt>
      <trkpt lat="46.123488" lon="7.281410"><ele>2388.6</ele></trkpt>
      <trkpt lat="46.123640" lon="7.281427"><ele>2388.0</ele></trkpt>
      <trkpt lat="46.123865" lon="7.281517"><ele>2384.6</ele></trkpt>
      <trkpt lat="46.123935" lon="7.281562"><ele>2383.0</ele></trkpt>
      <trkpt lat="46.124012" lon="7.281625"><ele>2381.6</ele></trkpt>
      <trkpt lat="46.124172" lon="7.281832"><ele>2377.6</ele></trkpt>
      <trkpt lat="46.124337" lon="7.282212"><ele>2370.0</ele></trkpt>
      <trkpt lat="46.124652" lon="7.282695"><ele>2363.4</ele></trkpt>
      <trkpt lat="46.124912" lon="7.282890"><ele>2358.2</ele></trkpt>
      <trkpt lat="46.125025" lon="7.282957"><ele>2354.2</ele></trkpt>
      <trkpt lat="46.125140" lon="7.282987"><ele>2350.2</ele></trkpt>
      <trkpt lat="46.125240" lon="7.282965"><ele>2346.8</ele></trkpt>
      <trkpt lat="46.125207" lon="7.282745"><ele>2347.4</ele></trkpt>
      <trkpt lat="46.125202" lon="7.282545"><ele>2346.8</ele></trkpt>
      <trkpt lat="46.125217" lon="7.282282"><ele>2344.6</ele></trkpt>
      <trkpt lat="46.125252" lon="7.282190"><ele>2342.4</ele></trkpt>
      <trkpt lat="46.125295" lon="7.282202"><ele>2341.8</ele></trkpt>
      <trkpt lat="46.125392" lon="7.282127"><ele>2340.8</ele></trkpt>
      <trkpt lat="46.125447" lon="7.282152"><ele>2339.4</ele></trkpt>
      <trkpt lat="46.125552" lon="7.282272"><ele>2335.6</ele></trkpt>
      <trkpt lat="46.125612" lon="7.282288"><ele>2333.0</ele></trkpt>
      <trkpt lat="46.125672" lon="7.282330"><ele>2330.0</ele></trkpt>
      <trkpt lat="46.125740" lon="7.282347"><ele>2326.8</ele></trkpt>
      <trkpt lat="46.125880" lon="7.282340"><ele>2317.2</ele></trkpt>
      <trkpt lat="46.125920" lon="7.282507"><ele>2300.8</ele></trkpt>
      <trkpt lat="46.125970" lon="7.282552"><ele>2300.6</ele></trkpt>
      <trkpt lat="46.126012" lon="7.282535"><ele>2300.4</ele></trkpt>
      <trkpt lat="46.126037" lon="7.282467"><ele>2300.0</ele></trkpt>
      <trkpt lat="46.126130" lon="7.282377"><ele>2298.8</ele></trkpt>
      <trkpt lat="46.126155" lon="7.282297"><ele>2297.6</ele></trkpt>
      <trkpt lat="46.126162" lon="7.282180"><ele>2287.2</ele></trkpt>
      <trkpt lat="46.126212" lon="7.282222"><ele>2285.8</ele></trkpt>
      <trkpt lat="46.126237" lon="7.282302"><ele>2285.8</ele></trkpt>
      <trkpt lat="46.126282" lon="7.282295"><ele>2284.8</ele></trkpt>
      <trkpt lat="46.126287" lon="7.282320"><ele>2282.8</ele></trkpt>
      <trkpt lat="46.126307" lon="7.282315"><ele>2281.8</ele></trkpt>
      <trkpt lat="46.126322" lon="7.282330"><ele>2280.8</ele></trkpt>
      <trkpt lat="46.126395" lon="7.282270"><ele>2276.8</ele></trkpt>
      <trkpt lat="46.126430" lon="7.282270"><ele>2276.6</ele></trkpt>
      <trkpt lat="46.126475" lon="7.282335"><ele>2276.2</ele></trkpt>
      <trkpt lat="46.126512" lon="7.282325"><ele>2275.8</ele></trkpt>
      <trkpt lat="46.126550" lon="7.282365"><ele>2274.8</ele></trkpt>
      <trkpt lat="46.126562" lon="7.282427"><ele>2273.6</ele></trkpt>
      <trkpt lat="46.126587" lon="7.282462"><ele>2272.4</ele></trkpt>
      <trkpt lat="46.126620" lon="7.282440"><ele>2271.0</ele></trkpt>
      <trkpt lat="46.126770" lon="7.282180"><ele>2257.2</ele></trkpt>
      <trkpt lat="46.126780" lon="7.282197"><ele>2250.4</ele></trkpt>
      <trkpt lat="46.126795" lon="7.282182"><ele>2248.6</ele></trkpt>
      <trkpt lat="46.126802" lon="7.282122"><ele>2248.0</ele></trkpt>
      <trkpt lat="46.126860" lon="7.282017"><ele>2247.0</ele></trkpt>
      <trkpt lat="46.127215" lon="7.281640"><ele>2239.8</ele></trkpt>
      <trkpt lat="46.127457" lon="7.281345"><ele>2233.6</ele></trkpt>
      <trkpt lat="46.127677" lon="7.281137"><ele>2228.8</ele></trkpt>
      <trkpt lat="46.127867" lon="7.280930"><ele>2222.4</ele></trkpt>
      <trkpt lat="46.127910" lon="7.280932"><ele>2221.6</ele></trkpt>
      <trkpt lat="46.127935" lon="7.280997"><ele>2221.0</ele></trkpt>
      <trkpt lat="46.127952" lon="7.281142"><ele>2219.6</ele></trkpt>
      <trkpt lat="46.128057" lon="7.281208"><ele>2216.6</ele></trkpt>
      <trkpt lat="46.128092" lon="7.281282"><ele>2214.6</ele></trkpt>
      <trkpt lat="46.128157" lon="7.281325"><ele>2212.8</ele></trkpt>
      <trkpt lat="46.128235" lon="7.281310"><ele>2210.8</ele></trkpt>
      <trkpt lat="46.128360" lon="7.281192"><ele>2205.2</ele></trkpt>
      <trkpt lat="46.128425" lon="7.281212"><ele>2202.0</ele></trkpt>
      <trkpt lat="46.128480" lon="7.281270"><ele>2198.6</ele></trkpt>
      <trkpt lat="46.128550" lon="7.281267"><ele>2195.4</ele></trkpt>
      <trkpt lat="46.128607" lon="7.281215"><ele>2192.2</ele></trkpt>
      <trkpt lat="46.128677" lon="7.281190"><ele>2188.8</ele></trkpt>
      <trkpt lat="46.128747" lon="7.281192"><ele>2186.0</ele></trkpt>
      <trkpt lat="46.128802" lon="7.281232"><ele>2183.0</ele></trkpt>
      <trkpt lat="46.128842" lon="7.281197"><ele>2180.4</ele></trkpt>
      <trkpt lat="46.128867" lon="7.281145"><ele>2177.4</ele></trkpt>
      <trkpt lat="46.128932" lon="7.281110"><ele>2169.6</ele></trkpt>
      <trkpt lat="46.128957" lon="7.280917"><ele>2156.2</ele></trkpt>
      <trkpt lat="46.128950" lon="7.280702"><ele>2155.6</ele></trkpt>
      <trkpt lat="46.128977" lon="7.280487"><ele>2154.2</ele></trkpt>
      <trkpt lat="46.129027" lon="7.280327"><ele>2152.0</ele></trkpt>
      <trkpt lat="46.129122" lon="7.280127"><ele>2149.2</ele></trkpt>
      <trkpt lat="46.129152" lon="7.279940"><ele>2147.0</ele></trkpt>
      <trkpt lat="46.129217" lon="7.279770"><ele>2141.4</ele></trkpt>
      <trkpt lat="46.129237" lon="7.279577"><ele>2139.8</ele></trkpt>
      <trkpt lat="46.129347" lon="7.279337"><ele>2137.6</ele></trkpt>
      <trkpt lat="46.129447" lon="7.279272"><ele>2131.0</ele></trkpt>
      <trkpt lat="46.129497" lon="7.279265"><ele>2130.6</ele></trkpt>
      <trkpt lat="46.129587" lon="7.279222"><ele>2130.0</ele></trkpt>
      <trkpt lat="46.129635" lon="7.279235"><ele>2129.0</ele></trkpt>
      <trkpt lat="46.129680" lon="7.279272"><ele>2127.6</ele></trkpt>
      <trkpt lat="46.129732" lon="7.279267"><ele>2125.8</ele></trkpt>
      <trkpt lat="46.129787" lon="7.279232"><ele>2123.6</ele></trkpt>
      <trkpt lat="46.129832" lon="7.279262"><ele>2121.6</ele></trkpt>
      <trkpt lat="46.129860" lon="7.279310"><ele>2119.4</ele></trkpt>
      <trkpt lat="46.129907" lon="7.279325"><ele>2116.8</ele></trkpt>
      <trkpt lat="46.129957" lon="7.279302"><ele>2114.0</ele></trkpt>
      <trkpt lat="46.130012" lon="7.279327"><ele>2111.0</ele></trkpt>
      <trkpt lat="46.130045" lon="7.279377"><ele>2108.4</ele></trkpt>
      <trkpt lat="46.130087" lon="7.279402"><ele>2105.2</ele></trkpt>
      <trkpt lat="46.130162" lon="7.279330"><ele>2098.8</ele></trkpt>
      <trkpt lat="46.130212" lon="7.279337"><ele>2095.8</ele></trkpt>
      <trkpt lat="46.130267" lon="7.279452"><ele>2089.6</ele></trkpt>
      <trkpt lat="46.130377" lon="7.279455"><ele>2083.6</ele></trkpt>
      <trkpt lat="46.130467" lon="7.279547"><ele>2078.2</ele></trkpt>
      <trkpt lat="46.130580" lon="7.279530"><ele>2071.6</ele></trkpt>
      <trkpt lat="46.130632" lon="7.279582"><ele>2068.4</ele></trkpt>
      <trkpt lat="46.130655" lon="7.279712"><ele>2062.2</ele></trkpt>
      <trkpt lat="46.130707" lon="7.279825"><ele>2054.8</ele></trkpt>
      <trkpt lat="46.130752" lon="7.279860"><ele>2052.0</ele></trkpt>
      <trkpt lat="46.130800" lon="7.279827"><ele>2049.8</ele></trkpt>
      <trkpt lat="46.130910" lon="7.279532"><ele>2031.4</ele></trkpt>
      <trkpt lat="46.130977" lon="7.279435"><ele>2027.4</ele></trkpt>
      <trkpt lat="46.131037" lon="7.279157"><ele>2021.2</ele></trkpt>
      <trkpt lat="46.131077" lon="7.279122"><ele>2020.4</ele></trkpt>
      <trkpt lat="46.131122" lon="7.279137"><ele>2019.6</ele></trkpt>
      <trkpt lat="46.131177" lon="7.279210"><ele>2017.6</ele></trkpt>
      <trkpt lat="46.131210" lon="7.279220"><ele>2016.2</ele></trkpt>
      <trkpt lat="46.131242" lon="7.279170"><ele>2014.6</ele></trkpt>
      <trkpt lat="46.131277" lon="7.279052"><ele>2011.2</ele></trkpt>
      <trkpt lat="46.131327" lon="7.279047"><ele>2009.6</ele></trkpt>
      <trkpt lat="46.131362" lon="7.279097"><ele>2006.0</ele></trkpt>
      <trkpt lat="46.131417" lon="7.279112"><ele>1995.4</ele></trkpt>
      <trkpt lat="46.131450" lon="7.279090"><ele>1995.0</ele></trkpt>
      <trkpt lat="46.131495" lon="7.278892"><ele>1992.0</ele></trkpt>
      <trkpt lat="46.131522" lon="7.278837"><ele>1990.8</ele></trkpt>
      <trkpt lat="46.131572" lon="7.278837"><ele>1989.8</ele></trkpt>
      <trkpt lat="46.131610" lon="7.278867"><ele>1988.6</ele></trkpt>
      <trkpt lat="46.131657" lon="7.278875"><ele>1987.6</ele></trkpt>
      <trkpt lat="46.131720" lon="7.278752"><ele>1984.4</ele></trkpt>
      <trkpt lat="46.131797" lon="7.278517"><ele>1978.8</ele></trkpt>
      <trkpt lat="46.131992" lon="7.278122"><ele>1965.2</ele></trkpt>
      <trkpt lat="46.132087" lon="7.277782"><ele>1963.8</ele></trkpt>
      <trkpt lat="46.132172" lon="7.277370"><ele>1959.8</ele></trkpt>
      <trkpt lat="46.132202" lon="7.277282"><ele>1958.6</ele></trkpt>
      <trkpt lat="46.132217" lon="7.277287"><ele>1956.8</ele></trkpt>
      <trkpt lat="46.132252" lon="7.277172"><ele>1956.0</ele></trkpt>
      <trkpt lat="46.132247" lon="7.277017"><ele>1953.4</ele></trkpt>
      <trkpt lat="46.132267" lon="7.276862"><ele>1951.4</ele></trkpt>
      <trkpt lat="46.132215" lon="7.276705"><ele>1946.4</ele></trkpt>
      <trkpt lat="46.132202" lon="7.276387"><ele>1943.6</ele></trkpt>
      <trkpt lat="46.132255" lon="7.276115"><ele>1940.0</ele></trkpt>
      <trkpt lat="46.132327" lon="7.275850"><ele>1932.6</ele></trkpt>
      <trkpt lat="46.132402" lon="7.275838"><ele>1929.6</ele></trkpt>
      <trkpt lat="46.132427" lon="7.275877"><ele>1929.4</ele></trkpt>
      <trkpt lat="46.132457" lon="7.276070"><ele>1928.2</ele></trkpt>
      <trkpt lat="46.132477" lon="7.276112"><ele>1927.0</ele></trkpt>
      <trkpt lat="46.132517" lon="7.276117"><ele>1925.6</ele></trkpt>
      <trkpt lat="46.132665" lon="7.275957"><ele>1918.2</ele></trkpt>
      <trkpt lat="46.132712" lon="7.275972"><ele>1916.6</ele></trkpt>
      <trkpt lat="46.132772" lon="7.276055"><ele>1914.0</ele></trkpt>
      <trkpt lat="46.132817" lon="7.276067"><ele>1912.2</ele></trkpt>
      <trkpt lat="46.132910" lon="7.276017"><ele>1908.6</ele></trkpt>
      <trkpt lat="46.132958" lon="7.276027"><ele>1907.2</ele></trkpt>
      <trkpt lat="46.132990" lon="7.276072"><ele>1905.2</ele></trkpt>
      <trkpt lat="46.133032" lon="7.276067"><ele>1903.2</ele></trkpt>
      <trkpt lat="46.133130" lon="7.276002"><ele>1898.8</ele></trkpt>
      <trkpt lat="46.133183" lon="7.276035"><ele>1896.6</ele></trkpt>
      <trkpt lat="46.133220" lon="7.276167"><ele>1891.6</ele></trkpt>
      <trkpt lat="46.133257" lon="7.276210"><ele>1889.0</ele></trkpt>
      <trkpt lat="46.133297" lon="7.276182"><ele>1886.4</ele></trkpt>
      <trkpt lat="46.133365" lon="7.276062"><ele>1877.4</ele></trkpt>
      <trkpt lat="46.133412" lon="7.276030"><ele>1873.8</ele></trkpt>
      <trkpt lat="46.133445" lon="7.276052"><ele>1872.8</ele></trkpt>
      <trkpt lat="46.133455" lon="7.276085"><ele>1871.6</ele></trkpt>
      <trkpt lat="46.133455" lon="7.276217"><ele>1868.0</ele></trkpt>
      <trkpt lat="46.133487" lon="7.276280"><ele>1865.4</ele></trkpt>
      <trkpt lat="46.133522" lon="7.276252"><ele>1864.2</ele></trkpt>
      <trkpt lat="46.133572" lon="7.276242"><ele>1863.2</ele></trkpt>
      <trkpt lat="46.133657" lon="7.276322"><ele>1861.4</ele></trkpt>
      <trkpt lat="46.133700" lon="7.276312"><ele>1856.4</ele></trkpt>
      <trkpt lat="46.133710" lon="7.276277"><ele>1849.2</ele></trkpt>
      <trkpt lat="46.133750" lon="7.276277"><ele>1846.0</ele></trkpt>
      <trkpt lat="46.133795" lon="7.276317"><ele>1845.8</ele></trkpt>
      <trkpt lat="46.133862" lon="7.276260"><ele>1845.2</ele></trkpt>
      <trkpt lat="46.133922" lon="7.276362"><ele>1843.0</ele></trkpt>
      <trkpt lat="46.133992" lon="7.276417"><ele>1836.8</ele></trkpt>
      <trkpt lat="46.134030" lon="7.276407"><ele>1835.4</ele></trkpt>
      <trkpt lat="46.134065" lon="7.276245"><ele>1829.0</ele></trkpt>
      <trkpt lat="46.134097" lon="7.276210"><ele>1828.6</ele></trkpt>
      <trkpt lat="46.134137" lon="7.276212"><ele>1828.2</ele></trkpt>
      <trkpt lat="46.134190" lon="7.276252"><ele>1827.2</ele></trkpt>
      <trkpt lat="46.134225" lon="7.276247"><ele>1826.2</ele></trkpt>
      <trkpt lat="46.134307" lon="7.276100"><ele>1817.6</ele></trkpt>
      <trkpt lat="46.134342" lon="7.276077"><ele>1816.8</ele></trkpt>
      <trkpt lat="46.134412" lon="7.276102"><ele>1815.4</ele></trkpt>
      <trkpt lat="46.134452" lon="7.276093"><ele>1814.4</ele></trkpt>
      <trkpt lat="46.134497" lon="7.275952"><ele>1809.4</ele></trkpt>
      <trkpt lat="46.134522" lon="7.275917"><ele>1807.6</ele></trkpt>
      <trkpt lat="46.134622" lon="7.275922"><ele>1803.2</ele></trkpt>
      <trkpt lat="46.134655" lon="7.275795"><ele>1800.0</ele></trkpt>
      <trkpt lat="46.134692" lon="7.275760"><ele>1797.4</ele></trkpt>
      <trkpt lat="46.134730" lon="7.275755"><ele>1796.2</ele></trkpt>
      <trkpt lat="46.134765" lon="7.275785"><ele>1792.6</ele></trkpt>
      <trkpt lat="46.134877" lon="7.276067"><ele>1779.2</ele></trkpt>
      <trkpt lat="46.134925" lon="7.276127"><ele>1777.0</ele></trkpt>
      <trkpt lat="46.134977" lon="7.276257"><ele>1775.0</ele></trkpt>
      <trkpt lat="46.135030" lon="7.276317"><ele>1773.2</ele></trkpt>
      <trkpt lat="46.135267" lon="7.276437"><ele>1767.0</ele></trkpt>
      <trkpt lat="46.135412" lon="7.276477"><ele>1763.4</ele></trkpt>
      <trkpt lat="46.135603" lon="7.276582"><ele>1759.6</ele></trkpt>
      <trkpt lat="46.136030" lon="7.276652"><ele>1755.0</ele></trkpt>
      <trkpt lat="46.136087" lon="7.276682"><ele>1755.6</ele></trkpt>
      <trkpt lat="46.136227" lon="7.276670"><ele>1755.4</ele></trkpt>
      <trkpt lat="46.136247" lon="7.276645"><ele>1755.4</ele></trkpt>
      <trkpt lat="46.136325" lon="7.276627"><ele>1755.8</ele></trkpt>
      <trkpt lat="46.136377" lon="7.276582"><ele>1756.6</ele></trkpt>
      <trkpt lat="46.136557" lon="7.276507"><ele>1755.6</ele></trkpt>
      <trkpt lat="46.136665" lon="7.276502"><ele>1755.2</ele></trkpt>
      <trkpt lat="46.136797" lon="7.276462"><ele>1755.6</ele></trkpt>
      <trkpt lat="46.136850" lon="7.276462"><ele>1755.8</ele></trkpt>
      <trkpt lat="46.136865" lon="7.276482"><ele>1755.8</ele></trkpt>
      <trkpt lat="46.137090" lon="7.276420"><ele>1755.8</ele></trkpt>
      <trkpt lat="46.137355" lon="7.276407"><ele>1754.6</ele></trkpt>
      <trkpt lat="46.137532" lon="7.276360"><ele>1754.8</ele></trkpt>
      <trkpt lat="46.137637" lon="7.276425"><ele>1754.8</ele></trkpt>
      <trkpt lat="46.138012" lon="7.276538"><ele>1755.4</ele></trkpt>
      <trkpt lat="46.138127" lon="7.276597"><ele>1755.4</ele></trkpt>
      <trkpt lat="46.138207" lon="7.276660"><ele>1755.6</ele></trkpt>
      <trkpt lat="46.138422" lon="7.276742"><ele>1755.6</ele></trkpt>
      <trkpt lat="46.138495" lon="7.276745"><ele>1755.4</ele></trkpt>
      <trkpt lat="46.138597" lon="7.276710"><ele>1755.2</ele></trkpt>
      <trkpt lat="46.138807" lon="7.276702"><ele>1755.8</ele></trkpt>
      <trkpt lat="46.139202" lon="7.276627"><ele>1754.6</ele></trkpt>
      <trkpt lat="46.139247" lon="7.276652"><ele>1754.6</ele></trkpt>
      <trkpt lat="46.139265" lon="7.276692"><ele>1752.6</ele></trkpt>
      <trkpt lat="46.139322" lon="7.276722"><ele>1752.6</ele></trkpt>
      <trkpt lat="46.139687" lon="7.276800"><ele>1753.4</ele></trkpt>
      <trkpt lat="46.139857" lon="7.276897"><ele>1753.6</ele></trkpt>
      <trkpt lat="46.140187" lon="7.277205"><ele>1754.6</ele></trkpt>
      <trkpt lat="46.140237" lon="7.277307"><ele>1754.4</ele></trkpt>
      <trkpt lat="46.140237" lon="7.277292"><ele>1752.8</ele></trkpt>
      <trkpt lat="46.140392" lon="7.277430"><ele>1753.8</ele></trkpt>
      <trkpt lat="46.140710" lon="7.277642"><ele>1754.2</ele></trkpt>
      <trkpt lat="46.140807" lon="7.277737"><ele>1754.2</ele></trkpt>
      <trkpt lat="46.141015" lon="7.278095"><ele>1754.4</ele></trkpt>
      <trkpt lat="46.141052" lon="7.278145"><ele>1754.8</ele></trkpt>
      <trkpt lat="46.141117" lon="7.278187"><ele>1754.8</ele></trkpt>
      <trkpt lat="46.141187" lon="7.278180"><ele>1755.0</ele></trkpt>
      <trkpt lat="46.141387" lon="7.278032"><ele>1754.6</ele></trkpt>
      <trkpt lat="46.141675" lon="7.277857"><ele>1754.4</ele></trkpt>
      <trkpt lat="46.142067" lon="7.277522"><ele>1754.8</ele></trkpt>
      <trkpt lat="46.142160" lon="7.277487"><ele>1755.2</ele></trkpt>
      <trkpt lat="46.142210" lon="7.277490"><ele>1755.6</ele></trkpt>
      <trkpt lat="46.142572" lon="7.277637"><ele>1755.6</ele></trkpt>
      <trkpt lat="46.142797" lon="7.277812"><ele>1755.4</ele></trkpt>
      <trkpt lat="46.143132" lon="7.278210"><ele>1754.6</ele></trkpt>
      <trkpt lat="46.143292" lon="7.278332"><ele>1754.2</ele></trkpt>
      <trkpt lat="46.143385" lon="7.278443"><ele>1754.4</ele></trkpt>
      <trkpt lat="46.143410" lon="7.278505"><ele>1754.2</ele></trkpt>
      <trkpt lat="46.143510" lon="7.278652"><ele>1754.0</ele></trkpt>
      <trkpt lat="46.143632" lon="7.278782"><ele>1753.8</ele></trkpt>
      <trkpt lat="46.143692" lon="7.278817"><ele>1754.0</ele></trkpt>
      <trkpt lat="46.143800" lon="7.278837"><ele>1754.4</ele></trkpt>
      <trkpt lat="46.144110" lon="7.278712"><ele>1754.8</ele></trkpt>
      <trkpt lat="46.144225" lon="7.278722"><ele>1754.4</ele></trkpt>
      <trkpt lat="46.144317" lon="7.278772"><ele>1754.2</ele></trkpt>
      <trkpt lat="46.144437" lon="7.278902"><ele>1754.6</ele></trkpt>
      <trkpt lat="46.144550" lon="7.278955"><ele>1754.2</ele></trkpt>
      <trkpt lat="46.144622" lon="7.279022"><ele>1753.8</ele></trkpt>
      <trkpt lat="46.144687" lon="7.279045"><ele>1753.8</ele></trkpt>
      <trkpt lat="46.144852" lon="7.279035"><ele>1754.4</ele></trkpt>
      <trkpt lat="46.145112" lon="7.278947"><ele>1754.8</ele></trkpt>
      <trkpt lat="46.145377" lon="7.278977"><ele>1756.0</ele></trkpt>
      <trkpt lat="46.145490" lon="7.278967"><ele>1756.8</ele></trkpt>
      <trkpt lat="46.145635" lon="7.278982"><ele>1758.4</ele></trkpt>
      <trkpt lat="46.145797" lon="7.279027"><ele>1760.4</ele></trkpt>
      <trkpt lat="46.145882" lon="7.279102"><ele>1760.6</ele></trkpt>
      <trkpt lat="46.145992" lon="7.279155"><ele>1761.8</ele></trkpt>
      <trkpt lat="46.146042" lon="7.279157"><ele>1762.2</ele></trkpt>
      <trkpt lat="46.146132" lon="7.279125"><ele>1763.2</ele></trkpt>
      <trkpt lat="46.146217" lon="7.279190"><ele>1763.8</ele></trkpt>
      <trkpt lat="46.146262" lon="7.279195"><ele>1764.2</ele></trkpt>
      <trkpt lat="46.146337" lon="7.279187"><ele>1764.4</ele></trkpt>
      <trkpt lat="46.146467" lon="7.279062"><ele>1765.2</ele></trkpt>
      <trkpt lat="46.146540" lon="7.279017"><ele>1765.6</ele></trkpt>
      <trkpt lat="46.146662" lon="7.278880"><ele>1766.2</ele></trkpt>
      <trkpt lat="46.146842" lon="7.278602"><ele>1768.8</ele></trkpt>
      <trkpt lat="46.146972" lon="7.278487"><ele>1771.0</ele></trkpt>
      <trkpt lat="46.147060" lon="7.278462"><ele>1771.2</ele></trkpt>
      <trkpt lat="46.147212" lon="7.278385"><ele>1772.2</ele></trkpt>
      <trkpt lat="46.147412" lon="7.278357"><ele>1774.6</ele></trkpt>
      <trkpt lat="46.147527" lon="7.278317"><ele>1776.0</ele></trkpt>
      <trkpt lat="46.147572" lon="7.278317"><ele>1776.6</ele></trkpt>
      <trkpt lat="46.147652" lon="7.278377"><ele>1777.8</ele></trkpt>
      <trkpt lat="46.147707" lon="7.278382"><ele>1778.6</ele></trkpt>
      <trkpt lat="46.147902" lon="7.278222"><ele>1783.6</ele></trkpt>
      <trkpt lat="46.147915" lon="7.278197"><ele>1784.2</ele></trkpt>
      <trkpt lat="46.148012" lon="7.278145"><ele>1786.0</ele></trkpt>
      <trkpt lat="46.148192" lon="7.277875"><ele>1792.8</ele></trkpt>
      <trkpt lat="46.148500" lon="7.277562"><ele>1801.0</ele></trkpt>
      <trkpt lat="46.148527" lon="7.277515"><ele>1802.4</ele></trkpt>
      <trkpt lat="46.148622" lon="7.277455"><ele>1805.0</ele></trkpt>
      <trkpt lat="46.148687" lon="7.277337"><ele>1807.4</ele></trkpt>
      <trkpt lat="46.148810" lon="7.277242"><ele>1811.4</ele></trkpt>
      <trkpt lat="46.149017" lon="7.276967"><ele>1817.8</ele></trkpt>
      <trkpt lat="46.149175" lon="7.276875"><ele>1821.2</ele></trkpt>
      <trkpt lat="46.149212" lon="7.276810"><ele>1822.6</ele></trkpt>
      <trkpt lat="46.149242" lon="7.276637"><ele>1823.8</ele></trkpt>
      <trkpt lat="46.149225" lon="7.276575"><ele>1823.0</ele></trkpt>
      <trkpt lat="46.149187" lon="7.276565"><ele>1822.8</ele></trkpt>
      <trkpt lat="46.149207" lon="7.276502"><ele>1825.8</ele></trkpt>
    </trkseg>
  </trk>
</gpx>
