<?xml version="1.0" encoding="UTF-8"?>
<gpx version="1.1" creator="Snowdesk route export"
     xmlns="http://www.topografix.com/GPX/1/1"
     xmlns:xsi="http://www.w3.org/2001/XMLSchema-instance"
     xsi:schemaLocation="http://www.topografix.com/GPX/1/1 http://www.topografix.com/GPX/1/1/gpx.xsd">
  <metadata>
    <name>Mont Fort - Col de la Chaux</name>
    <desc>Reconstituted from Snowdesk stored points (route 4adee546-0b15-4838-9a5e-f7a376755d93). The uploaded file was parsed and discarded at ingest; this is not it. 894 points stored; the source count was not recorded for this route. Per-point timestamps are not stored and are absent here.</desc>
    <time>2026-03-13T09:41:38Z</time>
    <bounds minlat="46.067652" minlon="7.300162" maxlat="46.135182" maxlon="7.355832"/>
  </metadata>
  <trk>
    <name>Mont Fort - Col de la Chaux</name>
    <trkseg>
      <trkpt lat="46.084745" lon="7.300882"><ele>2914.4</ele></trkpt>
      <trkpt lat="46.084763" lon="7.300902"><ele>2914.4</ele></trkpt>
      <trkpt lat="46.084775" lon="7.301050"><ele>2913.4</ele></trkpt>
      <trkpt lat="46.084707" lon="7.301112"><ele>2913.4</ele></trkpt>
      <trkpt lat="46.084647" lon="7.301122"><ele>2911.4</ele></trkpt>
      <trkpt lat="46.084627" lon="7.301112"><ele>2910.6</ele></trkpt>
      <trkpt lat="46.084627" lon="7.301085"><ele>2909.8</ele></trkpt>
      <trkpt lat="46.084608" lon="7.301085"><ele>2908.4</ele></trkpt>
      <trkpt lat="46.084622" lon="7.301177"><ele>2907.4</ele></trkpt>
      <trkpt lat="46.084605" lon="7.301227"><ele>2906.6</ele></trkpt>
      <trkpt lat="46.084542" lon="7.301207"><ele>2907.2</ele></trkpt>
      <trkpt lat="46.084472" lon="7.301237"><ele>2907.2</ele></trkpt>
      <trkpt lat="46.084300" lon="7.301342"><ele>2907.0</ele></trkpt>
      <trkpt lat="46.084192" lon="7.301437"><ele>2906.6</ele></trkpt>
      <trkpt lat="46.083992" lon="7.301527"><ele>2905.6</ele></trkpt>
      <trkpt lat="46.083925" lon="7.301605"><ele>2905.2</ele></trkpt>
      <trkpt lat="46.083872" lon="7.301802"><ele>2903.8</ele></trkpt>
      <trkpt lat="46.083832" lon="7.301827"><ele>2903.4</ele></trkpt>
      <trkpt lat="46.083797" lon="7.301802"><ele>2902.8</ele></trkpt>
      <trkpt lat="46.083755" lon="7.301702"><ele>2901.2</ele></trkpt>
      <trkpt lat="46.083670" lon="7.301620"><ele>2899.6</ele></trkpt>
      <trkpt lat="46.083597" lon="7.301383"><ele>2888.2</ele></trkpt>
      <trkpt lat="46.083502" lon="7.301175"><ele>2884.2</ele></trkpt>
      <trkpt lat="46.083462" lon="7.300885"><ele>2878.6</ele></trkpt>
      <trkpt lat="46.083412" lon="7.300762"><ele>2876.2</ele></trkpt>
      <trkpt lat="46.083377" lon="7.300632"><ele>2873.4</ele></trkpt>
      <trkpt lat="46.083367" lon="7.300507"><ele>2871.2</ele></trkpt>
      <trkpt lat="46.083325" lon="7.300407"><ele>2869.6</ele></trkpt>
      <trkpt lat="46.083267" lon="7.300337"><ele>2868.2</ele></trkpt>
      <trkpt lat="46.083192" lon="7.300182"><ele>2865.6</ele></trkpt>
      <trkpt lat="46.083152" lon="7.300162"><ele>2864.8</ele></trkpt>
      <trkpt lat="46.083135" lon="7.300170"><ele>2863.0</ele></trkpt>
      <trkpt lat="46.083135" lon="7.300192"><ele>2861.2</ele></trkpt>
      <trkpt lat="46.083022" lon="7.300167"><ele>2860.8</ele></trkpt>
      <trkpt lat="46.082937" lon="7.300207"><ele>2859.6</ele></trkpt>
      <trkpt lat="46.082827" lon="7.300337"><ele>2855.0</ele></trkpt>
      <trkpt lat="46.082785" lon="7.300472"><ele>2854.6</ele></trkpt>
      <trkpt lat="46.082652" lon="7.300677"><ele>2849.6</ele></trkpt>
      <trkpt lat="46.082582" lon="7.300897"><ele>2846.4</ele></trkpt>
      <trkpt lat="46.082550" lon="7.300945"><ele>2845.0</ele></trkpt>
      <trkpt lat="46.082477" lon="7.300985"><ele>2843.2</ele></trkpt>
      <trkpt lat="46.081862" lon="7.301167"><ele>2831.6</ele></trkpt>
      <trkpt lat="46.081842" lon="7.301132"><ele>2828.2</ele></trkpt>
      <trkpt lat="46.081782" lon="7.301110"><ele>2825.2</ele></trkpt>
      <trkpt lat="46.081542" lon="7.301195"><ele>2820.6</ele></trkpt>
      <trkpt lat="46.081345" lon="7.301352"><ele>2816.6</ele></trkpt>
      <trkpt lat="46.081157" lon="7.301570"><ele>2810.6</ele></trkpt>
      <trkpt lat="46.081022" lon="7.301710"><ele>2807.8</ele></trkpt>
      <trkpt lat="46.080972" lon="7.301742"><ele>2806.8</ele></trkpt>
      <trkpt lat="46.080823" lon="7.301792"><ele>2805.0</ele></trkpt>
      <trkpt lat="46.080707" lon="7.301787"><ele>2804.0</ele></trkpt>
      <trkpt lat="46.080595" lon="7.301757"><ele>2802.6</ele></trkpt>
      <trkpt lat="46.080552" lon="7.301763"><ele>2800.6</ele></trkpt>
      <trkpt lat="46.080252" lon="7.301957"><ele>2794.8</ele></trkpt>
      <trkpt lat="46.079835" lon="7.302150"><ele>2786.8</ele></trkpt>
      <trkpt lat="46.079650" lon="7.302217"><ele>2784.6</ele></trkpt>
      <trkpt lat="46.079487" lon="7.302252"><ele>2782.8</ele></trkpt>
      <trkpt lat="46.079342" lon="7.302262"><ele>2781.0</ele></trkpt>
      <trkpt lat="46.079025" lon="7.302247"><ele>2777.4</ele></trkpt>
      <trkpt lat="46.078295" lon="7.302435"><ele>2769.2</ele></trkpt>
      <trkpt lat="46.077915" lon="7.302587"><ele>2764.4</ele></trkpt>
      <trkpt lat="46.077567" lon="7.302637"><ele>2760.0</ele></trkpt>
      <trkpt lat="46.077547" lon="7.302627"><ele>2758.8</ele></trkpt>
      <trkpt lat="46.077542" lon="7.302642"><ele>2761.0</ele></trkpt>
      <trkpt lat="46.077505" lon="7.302647"><ele>2762.0</ele></trkpt>
      <trkpt lat="46.077417" lon="7.302630"><ele>2762.8</ele></trkpt>
      <trkpt lat="46.077392" lon="7.302662"><ele>2764.0</ele></trkpt>
      <trkpt lat="46.077315" lon="7.302872"><ele>2769.2</ele></trkpt>
      <trkpt lat="46.077215" lon="7.302987"><ele>2769.6</ele></trkpt>
      <trkpt lat="46.077137" lon="7.303110"><ele>2774.0</ele></trkpt>
      <trkpt lat="46.077115" lon="7.303417"><ele>2779.8</ele></trkpt>
      <trkpt lat="46.076945" lon="7.303672"><ele>2785.0</ele></trkpt>
      <trkpt lat="46.076787" lon="7.303815"><ele>2789.4</ele></trkpt>
      <trkpt lat="46.076760" lon="7.303887"><ele>2790.4</ele></trkpt>
      <trkpt lat="46.076702" lon="7.303972"><ele>2792.0</ele></trkpt>
      <trkpt lat="46.076665" lon="7.304000"><ele>2793.2</ele></trkpt>
      <trkpt lat="46.076622" lon="7.304007"><ele>2794.4</ele></trkpt>
      <trkpt lat="46.076565" lon="7.304002"><ele>2795.6</ele></trkpt>
      <trkpt lat="46.076557" lon="7.303977"><ele>2797.2</ele></trkpt>
      <trkpt lat="46.076532" lon="7.303992"><ele>2797.0</ele></trkpt>
      <trkpt lat="46.076475" lon="7.304087"><ele>2798.4</ele></trkpt>
      <trkpt lat="46.076442" lon="7.304190"><ele>2801.8</ele></trkpt>
      <trkpt lat="46.076275" lon="7.304412"><ele>2806.8</ele></trkpt>
      <trkpt lat="46.076257" lon="7.304517"><ele>2808.2</ele></trkpt>
      <trkpt lat="46.076278" lon="7.304632"><ele>2810.8</ele></trkpt>
      <trkpt lat="46.076265" lon="7.304652"><ele>2811.6</ele></trkpt>
      <trkpt lat="46.076147" lon="7.304657"><ele>2814.8</ele></trkpt>
      <trkpt lat="46.076105" lon="7.304637"><ele>2816.0</ele></trkpt>
      <trkpt lat="46.076100" lon="7.304812"><ele>2820.8</ele></trkpt>
      <trkpt lat="46.076047" lon="7.304850"><ele>2822.2</ele></trkpt>
      <trkpt lat="46.075780" lon="7.304927"><ele>2829.4</ele></trkpt>
      <trkpt lat="46.075710" lon="7.304973"><ele>2832.0</ele></trkpt>
      <trkpt lat="46.075662" lon="7.304982"><ele>2832.8</ele></trkpt>
      <trkpt lat="46.075600" lon="7.305020"><ele>2833.8</ele></trkpt>
      <trkpt lat="46.075562" lon="7.305022"><ele>2834.6</ele></trkpt>
      <trkpt lat="46.075377" lon="7.305152"><ele>2838.4</ele></trkpt>
      <trkpt lat="46.075277" lon="7.305182"><ele>2841.2</ele></trkpt>
      <trkpt lat="46.075040" lon="7.305155"><ele>2847.2</ele></trkpt>
      <trkpt lat="46.074957" lon="7.305090"><ele>2851.0</ele></trkpt>
      <trkpt lat="46.074735" lon="7.304840"><ele>2860.2</ele></trkpt>
      <trkpt lat="46.074680" lon="7.305010"><ele>2864.0</ele></trkpt>
      <trkpt lat="46.074632" lon="7.305360"><ele>2871.4</ele></trkpt>
      <trkpt lat="46.074592" lon="7.305522"><ele>2874.8</ele></trkpt>
      <trkpt lat="46.074607" lon="7.305662"><ele>2877.8</ele></trkpt>
      <trkpt lat="46.074652" lon="7.305727"><ele>2880.2</ele></trkpt>
      <trkpt lat="46.074652" lon="7.305827"><ele>2883.4</ele></trkpt>
      <trkpt lat="46.074635" lon="7.305850"><ele>2884.0</ele></trkpt>
      <trkpt lat="46.074417" lon="7.305865"><ele>2891.0</ele></trkpt>
      <trkpt lat="46.074117" lon="7.305790"><ele>2898.2</ele></trkpt>
      <trkpt lat="46.074107" lon="7.305812"><ele>2898.6</ele></trkpt>
      <trkpt lat="46.074120" lon="7.305872"><ele>2899.2</ele></trkpt>
      <trkpt lat="46.074230" lon="7.306087"><ele>2904.6</ele></trkpt>
      <trkpt lat="46.074250" lon="7.306195"><ele>2906.8</ele></trkpt>
      <trkpt lat="46.074337" lon="7.306455"><ele>2915.2</ele></trkpt>
      <trkpt lat="46.074332" lon="7.306480"><ele>2916.0</ele></trkpt>
      <trkpt lat="46.074095" lon="7.306437"><ele>2921.4</ele></trkpt>
      <trkpt lat="46.074062" lon="7.306462"><ele>2923.2</ele></trkpt>
      <trkpt lat="46.074067" lon="7.306495"><ele>2923.6</ele></trkpt>
      <trkpt lat="46.074162" lon="7.306702"><ele>2929.0</ele></trkpt>
      <trkpt lat="46.074417" lon="7.307020"><ele>2940.4</ele></trkpt>
      <trkpt lat="46.074485" lon="7.307132"><ele>2942.6</ele></trkpt>
      <trkpt lat="46.074582" lon="7.307487"><ele>2950.2</ele></trkpt>
      <trkpt lat="46.074572" lon="7.307515"><ele>2950.6</ele></trkpt>
      <trkpt lat="46.074497" lon="7.307532"><ele>2954.4</ele></trkpt>
      <trkpt lat="46.074437" lon="7.307577"><ele>2956.8</ele></trkpt>
      <trkpt lat="46.074347" lon="7.307582"><ele>2958.8</ele></trkpt>
      <trkpt lat="46.074327" lon="7.307545"><ele>2960.6</ele></trkpt>
      <trkpt lat="46.074382" lon="7.307577"><ele>2959.6</ele></trkpt>
      <trkpt lat="46.074370" lon="7.307597"><ele>2960.0</ele></trkpt>
      <trkpt lat="46.074257" lon="7.307695"><ele>2959.2</ele></trkpt>
      <trkpt lat="46.074083" lon="7.307810"><ele>2956.4</ele></trkpt>
      <trkpt lat="46.073960" lon="7.308032"><ele>2953.8</ele></trkpt>
      <trkpt lat="46.073917" lon="7.308240"><ele>2951.0</ele></trkpt>
      <trkpt lat="46.073942" lon="7.308370"><ele>2949.2</ele></trkpt>
      <trkpt lat="46.073900" lon="7.308577"><ele>2941.2</ele></trkpt>
      <trkpt lat="46.073947" lon="7.308667"><ele>2938.0</ele></trkpt>
      <trkpt lat="46.073877" lon="7.308852"><ele>2931.4</ele></trkpt>
      <trkpt lat="46.073840" lon="7.309115"><ele>2921.4</ele></trkpt>
      <trkpt lat="46.073862" lon="7.309147"><ele>2920.0</ele></trkpt>
      <trkpt lat="46.073907" lon="7.309162"><ele>2918.6</ele></trkpt>
      <trkpt lat="46.073942" lon="7.309210"><ele>2916.0</ele></trkpt>
      <trkpt lat="46.073932" lon="7.309287"><ele>2914.8</ele></trkpt>
      <trkpt lat="46.073857" lon="7.309432"><ele>2908.8</ele></trkpt>
      <trkpt lat="46.073662" lon="7.310097"><ele>2893.8</ele></trkpt>
      <trkpt lat="46.073592" lon="7.310440"><ele>2890.8</ele></trkpt>
      <trkpt lat="46.073555" lon="7.310825"><ele>2886.6</ele></trkpt>
      <trkpt lat="46.073512" lon="7.311047"><ele>2884.2</ele></trkpt>
      <trkpt lat="46.073455" lon="7.311182"><ele>2883.4</ele></trkpt>
      <trkpt lat="46.073312" lon="7.311412"><ele>2882.6</ele></trkpt>
      <trkpt lat="46.073117" lon="7.311782"><ele>2879.2</ele></trkpt>
      <trkpt lat="46.073052" lon="7.311957"><ele>2878.0</ele></trkpt>
      <trkpt lat="46.073037" lon="7.312047"><ele>2877.4</ele></trkpt>
      <trkpt lat="46.072987" lon="7.312612"><ele>2866.6</ele></trkpt>
      <trkpt lat="46.073020" lon="7.313012"><ele>2865.4</ele></trkpt>
      <trkpt lat="46.073102" lon="7.313390"><ele>2860.8</ele></trkpt>
      <trkpt lat="46.073147" lon="7.313712"><ele>2856.6</ele></trkpt>
      <trkpt lat="46.073162" lon="7.314065"><ele>2850.8</ele></trkpt>
      <trkpt lat="46.073122" lon="7.314600"><ele>2845.6</ele></trkpt>
      <trkpt lat="46.073102" lon="7.314720"><ele>2844.4</ele></trkpt>
      <trkpt lat="46.073065" lon="7.314820"><ele>2843.2</ele></trkpt>
      <trkpt lat="46.072842" lon="7.315317"><ele>2837.2</ele></trkpt>
      <trkpt lat="46.072717" lon="7.315820"><ele>2831.8</ele></trkpt>
      <trkpt lat="46.072585" lon="7.316272"><ele>2829.8</ele></trkpt>
      <trkpt lat="46.072542" lon="7.316485"><ele>2828.8</ele></trkpt>
      <trkpt lat="46.072495" lon="7.316887"><ele>2827.0</ele></trkpt>
      <trkpt lat="46.072457" lon="7.317507"><ele>2823.2</ele></trkpt>
      <trkpt lat="46.072380" lon="7.318225"><ele>2820.2</ele></trkpt>
      <trkpt lat="46.072320" lon="7.318442"><ele>2819.0</ele></trkpt>
      <trkpt lat="46.072125" lon="7.318765"><ele>2818.0</ele></trkpt>
      <trkpt lat="46.072100" lon="7.318867"><ele>2817.6</ele></trkpt>
      <trkpt lat="46.072092" lon="7.318992"><ele>2817.2</ele></trkpt>
      <trkpt lat="46.072102" lon="7.319205"><ele>2816.4</ele></trkpt>
      <trkpt lat="46.072142" lon="7.319402"><ele>2815.6</ele></trkpt>
      <trkpt lat="46.072357" lon="7.319927"><ele>2812.0</ele></trkpt>
      <trkpt lat="46.072385" lon="7.319982"><ele>2811.6</ele></trkpt>
      <trkpt lat="46.072472" lon="7.320077"><ele>2810.0</ele></trkpt>
      <trkpt lat="46.072492" lon="7.320127"><ele>2809.4</ele></trkpt>
      <trkpt lat="46.072482" lon="7.320245"><ele>2808.6</ele></trkpt>
      <trkpt lat="46.072517" lon="7.320300"><ele>2808.2</ele></trkpt>
      <trkpt lat="46.072525" lon="7.320370"><ele>2807.6</ele></trkpt>
      <trkpt lat="46.072490" lon="7.320472"><ele>2806.0</ele></trkpt>
      <trkpt lat="46.072530" lon="7.320590"><ele>2803.6</ele></trkpt>
      <trkpt lat="46.072517" lon="7.320632"><ele>2802.6</ele></trkpt>
      <trkpt lat="46.072322" lon="7.320940"><ele>2797.0</ele></trkpt>
      <trkpt lat="46.072137" lon="7.321080"><ele>2792.0</ele></trkpt>
      <trkpt lat="46.072047" lon="7.321182"><ele>2790.6</ele></trkpt>
      <trkpt lat="46.071947" lon="7.321260"><ele>2789.4</ele></trkpt>
      <trkpt lat="46.071912" lon="7.321317"><ele>2788.8</ele></trkpt>
      <trkpt lat="46.071862" lon="7.321557"><ele>2786.4</ele></trkpt>
      <trkpt lat="46.071857" lon="7.321672"><ele>2785.4</ele></trkpt>
      <trkpt lat="46.071895" lon="7.322022"><ele>2779.8</ele></trkpt>
      <trkpt lat="46.071887" lon="7.322280"><ele>2778.2</ele></trkpt>
      <trkpt lat="46.071837" lon="7.322590"><ele>2776.6</ele></trkpt>
      <trkpt lat="46.071733" lon="7.323010"><ele>2773.8</ele></trkpt>
      <trkpt lat="46.071677" lon="7.323400"><ele>2772.4</ele></trkpt>
      <trkpt lat="46.071670" lon="7.323487"><ele>2771.2</ele></trkpt>
      <trkpt lat="46.071700" lon="7.323637"><ele>2770.0</ele></trkpt>
      <trkpt lat="46.071692" lon="7.323727"><ele>2769.8</ele></trkpt>
      <trkpt lat="46.071665" lon="7.323802"><ele>2769.2</ele></trkpt>
      <trkpt lat="46.071592" lon="7.323867"><ele>2767.6</ele></trkpt>
      <trkpt lat="46.071300" lon="7.323935"><ele>2764.2</ele></trkpt>
      <trkpt lat="46.071272" lon="7.324037"><ele>2767.6</ele></trkpt>
      <trkpt lat="46.071202" lon="7.324180"><ele>2769.4</ele></trkpt>
      <trkpt lat="46.071057" lon="7.324660"><ele>2774.4</ele></trkpt>
      <trkpt lat="46.070982" lon="7.324852"><ele>2777.8</ele></trkpt>
      <trkpt lat="46.070922" lon="7.324967"><ele>2779.8</ele></trkpt>
      <trkpt lat="46.070802" lon="7.325127"><ele>2784.4</ele></trkpt>
      <trkpt lat="46.070757" lon="7.325220"><ele>2786.6</ele></trkpt>
      <trkpt lat="46.070717" lon="7.325320"><ele>2788.4</ele></trkpt>
      <trkpt lat="46.070660" lon="7.325592"><ele>2795.2</ele></trkpt>
      <trkpt lat="46.070477" lon="7.326137"><ele>2805.6</ele></trkpt>
      <trkpt lat="46.070455" lon="7.326527"><ele>2812.2</ele></trkpt>
      <trkpt lat="46.070375" lon="7.326987"><ele>2820.6</ele></trkpt>
      <trkpt lat="46.070345" lon="7.327017"><ele>2821.2</ele></trkpt>
      <trkpt lat="46.070227" lon="7.326990"><ele>2825.2</ele></trkpt>
      <trkpt lat="46.070117" lon="7.326987"><ele>2828.6</ele></trkpt>
      <trkpt lat="46.069997" lon="7.327032"><ele>2831.8</ele></trkpt>
      <trkpt lat="46.069937" lon="7.327020"><ele>2833.2</ele></trkpt>
      <trkpt lat="46.069905" lon="7.326990"><ele>2834.4</ele></trkpt>
      <trkpt lat="46.069887" lon="7.327105"><ele>2838.2</ele></trkpt>
      <trkpt lat="46.069882" lon="7.327327"><ele>2845.6</ele></trkpt>
      <trkpt lat="46.069815" lon="7.327397"><ele>2846.4</ele></trkpt>
      <trkpt lat="46.069792" lon="7.327410"><ele>2846.6</ele></trkpt>
      <trkpt lat="46.069727" lon="7.327397"><ele>2847.6</ele></trkpt>
      <trkpt lat="46.069597" lon="7.327252"><ele>2852.6</ele></trkpt>
      <trkpt lat="46.069457" lon="7.327432"><ele>2858.4</ele></trkpt>
      <trkpt lat="46.069382" lon="7.327412"><ele>2861.2</ele></trkpt>
      <trkpt lat="46.069327" lon="7.327427"><ele>2863.0</ele></trkpt>
      <trkpt lat="46.069292" lon="7.327467"><ele>2864.0</ele></trkpt>
      <trkpt lat="46.069212" lon="7.327645"><ele>2867.0</ele></trkpt>
      <trkpt lat="46.069105" lon="7.327955"><ele>2871.0</ele></trkpt>
      <trkpt lat="46.069072" lon="7.328212"><ele>2876.0</ele></trkpt>
      <trkpt lat="46.068897" lon="7.328477"><ele>2879.8</ele></trkpt>
      <trkpt lat="46.068822" lon="7.328512"><ele>2881.6</ele></trkpt>
      <trkpt lat="46.068717" lon="7.328477"><ele>2884.0</ele></trkpt>
      <trkpt lat="46.068660" lon="7.328475"><ele>2885.6</ele></trkpt>
      <trkpt lat="46.068597" lon="7.328532"><ele>2887.6</ele></trkpt>
      <trkpt lat="46.068557" lon="7.328672"><ele>2890.4</ele></trkpt>
      <trkpt lat="46.068487" lon="7.328792"><ele>2894.2</ele></trkpt>
      <trkpt lat="46.068632" lon="7.328867"><ele>2898.2</ele></trkpt>
      <trkpt lat="46.068682" lon="7.328935"><ele>2900.0</ele></trkpt>
      <trkpt lat="46.068700" lon="7.329042"><ele>2901.8</ele></trkpt>
      <trkpt lat="46.068677" lon="7.329152"><ele>2904.0</ele></trkpt>
      <trkpt lat="46.068420" lon="7.329560"><ele>2908.8</ele></trkpt>
      <trkpt lat="46.068335" lon="7.329753"><ele>2911.8</ele></trkpt>
      <trkpt lat="46.068280" lon="7.329802"><ele>2913.2</ele></trkpt>
      <trkpt lat="46.068185" lon="7.329930"><ele>2916.6</ele></trkpt>
      <trkpt lat="46.068095" lon="7.330090"><ele>2919.6</ele></trkpt>
      <trkpt lat="46.068027" lon="7.330362"><ele>2921.6</ele></trkpt>
      <trkpt lat="46.067917" lon="7.330647"><ele>2926.6</ele></trkpt>
      <trkpt lat="46.067852" lon="7.330967"><ele>2932.4</ele></trkpt>
      <trkpt lat="46.067827" lon="7.331915"><ele>2946.2</ele></trkpt>
      <trkpt lat="46.067792" lon="7.332342"><ele>2954.0</ele></trkpt>
      <trkpt lat="46.067767" lon="7.332482"><ele>2959.8</ele></trkpt>
      <trkpt lat="46.067762" lon="7.332702"><ele>2960.0</ele></trkpt>
      <trkpt lat="46.067862" lon="7.333150"><ele>2968.8</ele></trkpt>
      <trkpt lat="46.067942" lon="7.333312"><ele>2972.8</ele></trkpt>
      <trkpt lat="46.067952" lon="7.333367"><ele>2973.0</ele></trkpt>
      <trkpt lat="46.067877" lon="7.333677"><ele>2983.6</ele></trkpt>
      <trkpt lat="46.067852" lon="7.334012"><ele>2984.8</ele></trkpt>
      <trkpt lat="46.067827" lon="7.334120"><ele>2986.6</ele></trkpt>
      <trkpt lat="46.067752" lon="7.334210"><ele>2989.2</ele></trkpt>
      <trkpt lat="46.067652" lon="7.334277"><ele>2994.0</ele></trkpt>
      <trkpt lat="46.067992" lon="7.334627"><ele>3006.0</ele></trkpt>
      <trkpt lat="46.068185" lon="7.334937"><ele>3007.2</ele></trkpt>
      <trkpt lat="46.068217" lon="7.334867"><ele>3007.8</ele></trkpt>
      <trkpt lat="46.068337" lon="7.334722"><ele>3008.6</ele></trkpt>
      <trkpt lat="46.068375" lon="7.334712"><ele>3009.2</ele></trkpt>
      <trkpt lat="46.068417" lon="7.334740"><ele>3010.2</ele></trkpt>
      <trkpt lat="46.068457" lon="7.334737"><ele>3010.8</ele></trkpt>
      <trkpt lat="46.068500" lon="7.334612"><ele>3013.2</ele></trkpt>
      <trkpt lat="46.068522" lon="7.334357"><ele>3012.8</ele></trkpt>
      <trkpt lat="46.068587" lon="7.334207"><ele>3012.2</ele></trkpt>
      <trkpt lat="46.068630" lon="7.334167"><ele>3011.4</ele></trkpt>
      <trkpt lat="46.068680" lon="7.334160"><ele>3010.6</ele></trkpt>
      <trkpt lat="46.068792" lon="7.334200"><ele>3006.6</ele></trkpt>
      <trkpt lat="46.068872" lon="7.334200"><ele>2999.6</ele></trkpt>
      <trkpt lat="46.068977" lon="7.334107"><ele>2998.6</ele></trkpt>
      <trkpt lat="46.069022" lon="7.334105"><ele>2997.6</ele></trkpt>
      <trkpt lat="46.069067" lon="7.334160"><ele>2994.2</ele></trkpt>
      <trkpt lat="46.069112" lon="7.334280"><ele>2984.2</ele></trkpt>
      <trkpt lat="46.069167" lon="7.334337"><ele>2983.8</ele></trkpt>
      <trkpt lat="46.069287" lon="7.334375"><ele>2982.8</ele></trkpt>
      <trkpt lat="46.069367" lon="7.334367"><ele>2982.0</ele></trkpt>
      <trkpt lat="46.069432" lon="7.334393"><ele>2980.4</ele></trkpt>
      <trkpt lat="46.069557" lon="7.334612"><ele>2965.6</ele></trkpt>
      <trkpt lat="46.069557" lon="7.334583"><ele>2960.8</ele></trkpt>
      <trkpt lat="46.069600" lon="7.334597"><ele>2960.6</ele></trkpt>
      <trkpt lat="46.069665" lon="7.334667"><ele>2960.0</ele></trkpt>
      <trkpt lat="46.069697" lon="7.334762"><ele>2959.0</ele></trkpt>
      <trkpt lat="46.069827" lon="7.334920"><ele>2955.0</ele></trkpt>
      <trkpt lat="46.069847" lon="7.334970"><ele>2948.2</ele></trkpt>
      <trkpt lat="46.069847" lon="7.334940"><ele>2944.8</ele></trkpt>
      <trkpt lat="46.069882" lon="7.334905"><ele>2944.6</ele></trkpt>
      <trkpt lat="46.069897" lon="7.334772"><ele>2944.4</ele></trkpt>
      <trkpt lat="46.069937" lon="7.334645"><ele>2943.4</ele></trkpt>
      <trkpt lat="46.070035" lon="7.334517"><ele>2940.0</ele></trkpt>
      <trkpt lat="46.070142" lon="7.334447"><ele>2938.2</ele></trkpt>
      <trkpt lat="46.070190" lon="7.334455"><ele>2937.4</ele></trkpt>
      <trkpt lat="46.070227" lon="7.334495"><ele>2936.2</ele></trkpt>
      <trkpt lat="46.070327" lon="7.334495"><ele>2933.2</ele></trkpt>
      <trkpt lat="46.070380" lon="7.334627"><ele>2926.6</ele></trkpt>
      <trkpt lat="46.070387" lon="7.334792"><ele>2921.8</ele></trkpt>
      <trkpt lat="46.070422" lon="7.334900"><ele>2915.8</ele></trkpt>
      <trkpt lat="46.070512" lon="7.334847"><ele>2904.8</ele></trkpt>
      <trkpt lat="46.070582" lon="7.334907"><ele>2901.4</ele></trkpt>
      <trkpt lat="46.070712" lon="7.334962"><ele>2897.8</ele></trkpt>
      <trkpt lat="46.070852" lon="7.334932"><ele>2893.2</ele></trkpt>
      <trkpt lat="46.070907" lon="7.334895"><ele>2890.6</ele></trkpt>
      <trkpt lat="46.070967" lon="7.334885"><ele>2887.8</ele></trkpt>
      <trkpt lat="46.071092" lon="7.334952"><ele>2882.6</ele></trkpt>
      <trkpt lat="46.071162" lon="7.335012"><ele>2880.2</ele></trkpt>
      <trkpt lat="46.071247" lon="7.335042"><ele>2877.6</ele></trkpt>
      <trkpt lat="46.071332" lon="7.335097"><ele>2875.0</ele></trkpt>
      <trkpt lat="46.071512" lon="7.335132"><ele>2869.2</ele></trkpt>
      <trkpt lat="46.071585" lon="7.335190"><ele>2865.6</ele></trkpt>
      <trkpt lat="46.071620" lon="7.335282"><ele>2862.6</ele></trkpt>
      <trkpt lat="46.071607" lon="7.335400"><ele>2856.8</ele></trkpt>
      <trkpt lat="46.071637" lon="7.335420"><ele>2842.4</ele></trkpt>
      <trkpt lat="46.071825" lon="7.335457"><ele>2845.8</ele></trkpt>
      <trkpt lat="46.071932" lon="7.335562"><ele>2845.2</ele></trkpt>
      <trkpt lat="46.071977" lon="7.335637"><ele>2844.2</ele></trkpt>
      <trkpt lat="46.072105" lon="7.335747"><ele>2841.2</ele></trkpt>
      <trkpt lat="46.072745" lon="7.336167"><ele>2829.4</ele></trkpt>
      <trkpt lat="46.073127" lon="7.336380"><ele>2823.2</ele></trkpt>
      <trkpt lat="46.073472" lon="7.336502"><ele>2819.2</ele></trkpt>
      <trkpt lat="46.073520" lon="7.336537"><ele>2818.6</ele></trkpt>
      <trkpt lat="46.073610" lon="7.336777"><ele>2816.8</ele></trkpt>
      <trkpt lat="46.073712" lon="7.336892"><ele>2816.0</ele></trkpt>
      <trkpt lat="46.073927" lon="7.337077"><ele>2812.8</ele></trkpt>
      <trkpt lat="46.074242" lon="7.337315"><ele>2804.2</ele></trkpt>
      <trkpt lat="46.074340" lon="7.337412"><ele>2802.2</ele></trkpt>
      <trkpt lat="46.074587" lon="7.337735"><ele>2798.4</ele></trkpt>
      <trkpt lat="46.074822" lon="7.338010"><ele>2794.6</ele></trkpt>
      <trkpt lat="46.074870" lon="7.338082"><ele>2793.8</ele></trkpt>
      <trkpt lat="46.074970" lon="7.338307"><ele>2790.8</ele></trkpt>
      <trkpt lat="46.075095" lon="7.338467"><ele>2788.8</ele></trkpt>
      <trkpt lat="46.075482" lon="7.338817"><ele>2780.4</ele></trkpt>
      <trkpt lat="46.075772" lon="7.339127"><ele>2773.2</ele></trkpt>
      <trkpt lat="46.075787" lon="7.339132"><ele>2770.0</ele></trkpt>
      <trkpt lat="46.075785" lon="7.339107"><ele>2774.0</ele></trkpt>
      <trkpt lat="46.075820" lon="7.339147"><ele>2774.2</ele></trkpt>
      <trkpt lat="46.075997" lon="7.339442"><ele>2778.0</ele></trkpt>
      <trkpt lat="46.076167" lon="7.339772"><ele>2780.2</ele></trkpt>
      <trkpt lat="46.076457" lon="7.339957"><ele>2779.4</ele></trkpt>
      <trkpt lat="46.076530" lon="7.340027"><ele>2779.2</ele></trkpt>
      <trkpt lat="46.076665" lon="7.340052"><ele>2779.2</ele></trkpt>
      <trkpt lat="46.076857" lon="7.340143"><ele>2780.6</ele></trkpt>
      <trkpt lat="46.077287" lon="7.340422"><ele>2789.2</ele></trkpt>
      <trkpt lat="46.077382" lon="7.340493"><ele>2791.4</ele></trkpt>
      <trkpt lat="46.077445" lon="7.340575"><ele>2792.6</ele></trkpt>
      <trkpt lat="46.077567" lon="7.340962"><ele>2798.0</ele></trkpt>
      <trkpt lat="46.077662" lon="7.341342"><ele>2801.0</ele></trkpt>
      <trkpt lat="46.077712" lon="7.341772"><ele>2802.4</ele></trkpt>
      <trkpt lat="46.077572" lon="7.342227"><ele>2803.8</ele></trkpt>
      <trkpt lat="46.077558" lon="7.342337"><ele>2805.0</ele></trkpt>
      <trkpt lat="46.077577" lon="7.342452"><ele>2806.8</ele></trkpt>
      <trkpt lat="46.077677" lon="7.342787"><ele>2813.6</ele></trkpt>
      <trkpt lat="46.077682" lon="7.342985"><ele>2816.8</ele></trkpt>
      <trkpt lat="46.077567" lon="7.343337"><ele>2822.8</ele></trkpt>
      <trkpt lat="46.077517" lon="7.343430"><ele>2826.2</ele></trkpt>
      <trkpt lat="46.077437" lon="7.343655"><ele>2828.2</ele></trkpt>
      <trkpt lat="46.077417" lon="7.343732"><ele>2829.4</ele></trkpt>
      <trkpt lat="46.077410" lon="7.344130"><ele>2836.2</ele></trkpt>
      <trkpt lat="46.077392" lon="7.344187"><ele>2837.4</ele></trkpt>
      <trkpt lat="46.077322" lon="7.344247"><ele>2839.6</ele></trkpt>
      <trkpt lat="46.077257" lon="7.344387"><ele>2843.8</ele></trkpt>
      <trkpt lat="46.077235" lon="7.344582"><ele>2848.0</ele></trkpt>
      <trkpt lat="46.077240" lon="7.344777"><ele>2851.2</ele></trkpt>
      <trkpt lat="46.077287" lon="7.344997"><ele>2854.8</ele></trkpt>
      <trkpt lat="46.077520" lon="7.345492"><ele>2864.6</ele></trkpt>
      <trkpt lat="46.077452" lon="7.345782"><ele>2872.0</ele></trkpt>
      <trkpt lat="46.077407" lon="7.346095"><ele>2881.0</ele></trkpt>
      <trkpt lat="46.077410" lon="7.346247"><ele>2882.4</ele></trkpt>
      <trkpt lat="46.077437" lon="7.346295"><ele>2883.2</ele></trkpt>
      <trkpt lat="46.077605" lon="7.346392"><ele>2886.2</ele></trkpt>
      <trkpt lat="46.077637" lon="7.346627"><ele>2892.2</ele></trkpt>
      <trkpt lat="46.077692" lon="7.346770"><ele>2896.0</ele></trkpt>
      <trkpt lat="46.078137" lon="7.347530"><ele>2903.8</ele></trkpt>
      <trkpt lat="46.078207" lon="7.347620"><ele>2904.6</ele></trkpt>
      <trkpt lat="46.078312" lon="7.347717"><ele>2907.8</ele></trkpt>
      <trkpt lat="46.078502" lon="7.348090"><ele>2914.0</ele></trkpt>
      <trkpt lat="46.078637" lon="7.348475"><ele>2918.0</ele></trkpt>
      <trkpt lat="46.078827" lon="7.348852"><ele>2920.6</ele></trkpt>
      <trkpt lat="46.078877" lon="7.349155"><ele>2926.8</ele></trkpt>
      <trkpt lat="46.079052" lon="7.349762"><ele>2933.8</ele></trkpt>
      <trkpt lat="46.079127" lon="7.349942"><ele>2937.2</ele></trkpt>
      <trkpt lat="46.079157" lon="7.350062"><ele>2939.4</ele></trkpt>
      <trkpt lat="46.079162" lon="7.350297"><ele>2941.8</ele></trkpt>
      <trkpt lat="46.079137" lon="7.350440"><ele>2944.2</ele></trkpt>
      <trkpt lat="46.079157" lon="7.350810"><ele>2949.0</ele></trkpt>
      <trkpt lat="46.079205" lon="7.351097"><ele>2952.4</ele></trkpt>
      <trkpt lat="46.079272" lon="7.351270"><ele>2956.4</ele></trkpt>
      <trkpt lat="46.079330" lon="7.351497"><ele>2960.2</ele></trkpt>
      <trkpt lat="46.079362" lon="7.351665"><ele>2963.2</ele></trkpt>
      <trkpt lat="46.079377" lon="7.351910"><ele>2967.4</ele></trkpt>
      <trkpt lat="46.079370" lon="7.351987"><ele>2968.6</ele></trkpt>
      <trkpt lat="46.079327" lon="7.352052"><ele>2969.8</ele></trkpt>
      <trkpt lat="46.079127" lon="7.351997"><ele>2974.2</ele></trkpt>
      <trkpt lat="46.079087" lon="7.352025"><ele>2975.4</ele></trkpt>
      <trkpt lat="46.079012" lon="7.352157"><ele>2977.0</ele></trkpt>
      <trkpt lat="46.078977" lon="7.352332"><ele>2978.0</ele></trkpt>
      <trkpt lat="46.078975" lon="7.352647"><ele>2980.4</ele></trkpt>
      <trkpt lat="46.078950" lon="7.352805"><ele>2983.2</ele></trkpt>
      <trkpt lat="46.078882" lon="7.353017"><ele>2987.2</ele></trkpt>
      <trkpt lat="46.078692" lon="7.353152"><ele>2989.4</ele></trkpt>
      <trkpt lat="46.078452" lon="7.353277"><ele>2994.8</ele></trkpt>
      <trkpt lat="46.078392" lon="7.353332"><ele>2996.0</ele></trkpt>
      <trkpt lat="46.078305" lon="7.353350"><ele>2998.0</ele></trkpt>
      <trkpt lat="46.078195" lon="7.353340"><ele>3000.0</ele></trkpt>
      <trkpt lat="46.078147" lon="7.353317"><ele>3001.4</ele></trkpt>
      <trkpt lat="46.078012" lon="7.353445"><ele>3002.8</ele></trkpt>
      <trkpt lat="46.077985" lon="7.353492"><ele>3002.8</ele></trkpt>
      <trkpt lat="46.078042" lon="7.353602"><ele>3003.2</ele></trkpt>
      <trkpt lat="46.078000" lon="7.353852"><ele>3001.6</ele></trkpt>
      <trkpt lat="46.077962" lon="7.353932"><ele>3000.6</ele></trkpt>
      <trkpt lat="46.077927" lon="7.354152"><ele>2999.0</ele></trkpt>
      <trkpt lat="46.077942" lon="7.354197"><ele>2998.8</ele></trkpt>
      <trkpt lat="46.078032" lon="7.354187"><ele>2998.2</ele></trkpt>
      <trkpt lat="46.078085" lon="7.354217"><ele>2997.6</ele></trkpt>
      <trkpt lat="46.078120" lon="7.354267"><ele>2996.4</ele></trkpt>
      <trkpt lat="46.078130" lon="7.354350"><ele>2995.0</ele></trkpt>
      <trkpt lat="46.078215" lon="7.354495"><ele>2990.6</ele></trkpt>
      <trkpt lat="46.078332" lon="7.354632"><ele>2985.8</ele></trkpt>
      <trkpt lat="46.078537" lon="7.354977"><ele>2975.4</ele></trkpt>
      <trkpt lat="46.078602" lon="7.355022"><ele>2973.2</ele></trkpt>
      <trkpt lat="46.078677" lon="7.355047"><ele>2971.4</ele></trkpt>
      <trkpt lat="46.079040" lon="7.355317"><ele>2961.0</ele></trkpt>
      <trkpt lat="46.079295" lon="7.355422"><ele>2955.2</ele></trkpt>
      <trkpt lat="46.080182" lon="7.355562"><ele>2935.0</ele></trkpt>
      <trkpt lat="46.080235" lon="7.355595"><ele>2934.0</ele></trkpt>
      <trkpt lat="46.080272" lon="7.355667"><ele>2929.4</ele></trkpt>
      <trkpt lat="46.080345" lon="7.355675"><ele>2928.8</ele></trkpt>
      <trkpt lat="46.080537" lon="7.355817"><ele>2927.0</ele></trkpt>
      <trkpt lat="46.080582" lon="7.355832"><ele>2926.2</ele></trkpt>
      <trkpt lat="46.080675" lon="7.355747"><ele>2924.4</ele></trkpt>
      <trkpt lat="46.080747" lon="7.355605"><ele>2922.2</ele></trkpt>
      <trkpt lat="46.080977" lon="7.355307"><ele>2912.0</ele></trkpt>
      <trkpt lat="46.081428" lon="7.354392"><ele>2886.2</ele></trkpt>
      <trkpt lat="46.081522" lon="7.354260"><ele>2884.8</ele></trkpt>
      <trkpt lat="46.081752" lon="7.354117"><ele>2884.8</ele></trkpt>
      <trkpt lat="46.082077" lon="7.353952"><ele>2885.4</ele></trkpt>
      <trkpt lat="46.082172" lon="7.353867"><ele>2886.8</ele></trkpt>
      <trkpt lat="46.082397" lon="7.353777"><ele>2887.2</ele></trkpt>
      <trkpt lat="46.082527" lon="7.353807"><ele>2887.4</ele></trkpt>
      <trkpt lat="46.082587" lon="7.353860"><ele>2888.0</ele></trkpt>
      <trkpt lat="46.082627" lon="7.353922"><ele>2888.4</ele></trkpt>
      <trkpt lat="46.082712" lon="7.354142"><ele>2887.2</ele></trkpt>
      <trkpt lat="46.082757" lon="7.354165"><ele>2886.4</ele></trkpt>
      <trkpt lat="46.082777" lon="7.354145"><ele>2885.2</ele></trkpt>
      <trkpt lat="46.082802" lon="7.354157"><ele>2884.8</ele></trkpt>
      <trkpt lat="46.082852" lon="7.354275"><ele>2878.2</ele></trkpt>
      <trkpt lat="46.082892" lon="7.354285"><ele>2873.4</ele></trkpt>
      <trkpt lat="46.082937" lon="7.354340"><ele>2871.8</ele></trkpt>
      <trkpt lat="46.082982" lon="7.354442"><ele>2870.4</ele></trkpt>
      <trkpt lat="46.083052" lon="7.354722"><ele>2858.8</ele></trkpt>
      <trkpt lat="46.083255" lon="7.355022"><ele>2855.4</ele></trkpt>
      <trkpt lat="46.083377" lon="7.354997"><ele>2852.4</ele></trkpt>
      <trkpt lat="46.083490" lon="7.355072"><ele>2848.8</ele></trkpt>
      <trkpt lat="46.083545" lon="7.355082"><ele>2845.8</ele></trkpt>
      <trkpt lat="46.083605" lon="7.355062"><ele>2842.6</ele></trkpt>
      <trkpt lat="46.083662" lon="7.355077"><ele>2839.6</ele></trkpt>
      <trkpt lat="46.083725" lon="7.355055"><ele>2837.0</ele></trkpt>
      <trkpt lat="46.083777" lon="7.354997"><ele>2834.0</ele></trkpt>
      <trkpt lat="46.083902" lon="7.354975"><ele>2827.2</ele></trkpt>
      <trkpt lat="46.083955" lon="7.354912"><ele>2823.4</ele></trkpt>
      <trkpt lat="46.084077" lon="7.354912"><ele>2816.2</ele></trkpt>
      <trkpt lat="46.084187" lon="7.354800"><ele>2809.0</ele></trkpt>
      <trkpt lat="46.084357" lon="7.354907"><ele>2798.6</ele></trkpt>
      <trkpt lat="46.084460" lon="7.354847"><ele>2791.4</ele></trkpt>
      <trkpt lat="46.084567" lon="7.354852"><ele>2785.6</ele></trkpt>
      <trkpt lat="46.084595" lon="7.354702"><ele>2765.0</ele></trkpt>
      <trkpt lat="46.084657" lon="7.354617"><ele>2764.6</ele></trkpt>
      <trkpt lat="46.084747" lon="7.354612"><ele>2763.0</ele></trkpt>
      <trkpt lat="46.084842" lon="7.354557"><ele>2760.4</ele></trkpt>
      <trkpt lat="46.084917" lon="7.354587"><ele>2757.0</ele></trkpt>
      <trkpt lat="46.085007" lon="7.354477"><ele>2753.4</ele></trkpt>
      <trkpt lat="46.085102" lon="7.354407"><ele>2749.4</ele></trkpt>
      <trkpt lat="46.085207" lon="7.354370"><ele>2745.2</ele></trkpt>
      <trkpt lat="46.085290" lon="7.354270"><ele>2740.0</ele></trkpt>
      <trkpt lat="46.085387" lon="7.354217"><ele>2735.0</ele></trkpt>
      <trkpt lat="46.085437" lon="7.354062"><ele>2729.8</ele></trkpt>
      <trkpt lat="46.085585" lon="7.353992"><ele>2723.0</ele></trkpt>
      <trkpt lat="46.085620" lon="7.353932"><ele>2720.4</ele></trkpt>
      <trkpt lat="46.085720" lon="7.353902"><ele>2715.8</ele></trkpt>
      <trkpt lat="46.085797" lon="7.353787"><ele>2710.6</ele></trkpt>
      <trkpt lat="46.085922" lon="7.353802"><ele>2705.8</ele></trkpt>
      <trkpt lat="46.085972" lon="7.353777"><ele>2703.2</ele></trkpt>
      <trkpt lat="46.086015" lon="7.353707"><ele>2700.6</ele></trkpt>
      <trkpt lat="46.086075" lon="7.353678"><ele>2698.2</ele></trkpt>
      <trkpt lat="46.086242" lon="7.353697"><ele>2690.8</ele></trkpt>
      <trkpt lat="46.086272" lon="7.353645"><ele>2688.0</ele></trkpt>
      <trkpt lat="46.086305" lon="7.353452"><ele>2685.8</ele></trkpt>
      <trkpt lat="46.086820" lon="7.352930"><ele>2663.8</ele></trkpt>
      <trkpt lat="46.087127" lon="7.352550"><ele>2656.2</ele></trkpt>
      <trkpt lat="46.087192" lon="7.352507"><ele>2654.8</ele></trkpt>
      <trkpt lat="46.087307" lon="7.352485"><ele>2652.2</ele></trkpt>
      <trkpt lat="46.087362" lon="7.352412"><ele>2646.2</ele></trkpt>
      <trkpt lat="46.087462" lon="7.352327"><ele>2645.8</ele></trkpt>
      <trkpt lat="46.087575" lon="7.352320"><ele>2645.4</ele></trkpt>
      <trkpt lat="46.087797" lon="7.352182"><ele>2642.2</ele></trkpt>
      <trkpt lat="46.087902" lon="7.352087"><ele>2640.2</ele></trkpt>
      <trkpt lat="46.087957" lon="7.352062"><ele>2639.2</ele></trkpt>
      <trkpt lat="46.088437" lon="7.351702"><ele>2628.0</ele></trkpt>
      <trkpt lat="46.088537" lon="7.351542"><ele>2624.2</ele></trkpt>
      <trkpt lat="46.088867" lon="7.351267"><ele>2615.4</ele></trkpt>
      <trkpt lat="46.089202" lon="7.350882"><ele>2605.8</ele></trkpt>
      <trkpt lat="46.089297" lon="7.350690"><ele>2602.6</ele></trkpt>
      <trkpt lat="46.089452" lon="7.350132"><ele>2596.6</ele></trkpt>
      <trkpt lat="46.089652" lon="7.349590"><ele>2588.2</ele></trkpt>
      <trkpt lat="46.089820" lon="7.349012"><ele>2577.6</ele></trkpt>
      <trkpt lat="46.089860" lon="7.348812"><ele>2576.4</ele></trkpt>
      <trkpt lat="46.089897" lon="7.348197"><ele>2565.2</ele></trkpt>
      <trkpt lat="46.089962" lon="7.347997"><ele>2562.8</ele></trkpt>
      <trkpt lat="46.090052" lon="7.347842"><ele>2559.8</ele></trkpt>
      <trkpt lat="46.090142" lon="7.347747"><ele>2557.2</ele></trkpt>
      <trkpt lat="46.090550" lon="7.347402"><ele>2551.2</ele></trkpt>
      <trkpt lat="46.091072" lon="7.347037"><ele>2543.0</ele></trkpt>
      <trkpt lat="46.091222" lon="7.346912"><ele>2540.6</ele></trkpt>
      <trkpt lat="46.091307" lon="7.346812"><ele>2539.2</ele></trkpt>
      <trkpt lat="46.091362" lon="7.346717"><ele>2537.4</ele></trkpt>
      <trkpt lat="46.091422" lon="7.346447"><ele>2535.4</ele></trkpt>
      <trkpt lat="46.091450" lon="7.346212"><ele>2533.8</ele></trkpt>
      <trkpt lat="46.091535" lon="7.346137"><ele>2533.6</ele></trkpt>
      <trkpt lat="46.091562" lon="7.346065"><ele>2533.0</ele></trkpt>
      <trkpt lat="46.091622" lon="7.346027"><ele>2532.0</ele></trkpt>
      <trkpt lat="46.091682" lon="7.346012"><ele>2530.8</ele></trkpt>
      <trkpt lat="46.091728" lon="7.345937"><ele>2529.4</ele></trkpt>
      <trkpt lat="46.092067" lon="7.345607"><ele>2517.8</ele></trkpt>
      <trkpt lat="46.092527" lon="7.345227"><ele>2506.6</ele></trkpt>
      <trkpt lat="46.092762" lon="7.344917"><ele>2502.8</ele></trkpt>
      <trkpt lat="46.092915" lon="7.344805"><ele>2499.6</ele></trkpt>
      <trkpt lat="46.093380" lon="7.344372"><ele>2495.8</ele></trkpt>
      <trkpt lat="46.093562" lon="7.344102"><ele>2493.2</ele></trkpt>
      <trkpt lat="46.093615" lon="7.343932"><ele>2489.8</ele></trkpt>
      <trkpt lat="46.093712" lon="7.343760"><ele>2488.4</ele></trkpt>
      <trkpt lat="46.093742" lon="7.343600"><ele>2486.8</ele></trkpt>
      <trkpt lat="46.093698" lon="7.343202"><ele>2483.0</ele></trkpt>
      <trkpt lat="46.093687" lon="7.342855"><ele>2479.4</ele></trkpt>
      <trkpt lat="46.093707" lon="7.342337"><ele>2471.4</ele></trkpt>
      <trkpt lat="46.093807" lon="7.342037"><ele>2469.4</ele></trkpt>
      <trkpt lat="46.093812" lon="7.341940"><ele>2468.4</ele></trkpt>
      <trkpt lat="46.093890" lon="7.341595"><ele>2462.8</ele></trkpt>
      <trkpt lat="46.093945" lon="7.341427"><ele>2459.8</ele></trkpt>
      <trkpt lat="46.094017" lon="7.341290"><ele>2457.0</ele></trkpt>
      <trkpt lat="46.094052" lon="7.340960"><ele>2445.0</ele></trkpt>
      <trkpt lat="46.094078" lon="7.340907"><ele>2445.0</ele></trkpt>
      <trkpt lat="46.094120" lon="7.340897"><ele>2444.8</ele></trkpt>
      <trkpt lat="46.094175" lon="7.340952"><ele>2444.6</ele></trkpt>
      <trkpt lat="46.094252" lon="7.340935"><ele>2443.2</ele></trkpt>
      <trkpt lat="46.094327" lon="7.340782"><ele>2441.6</ele></trkpt>
      <trkpt lat="46.094527" lon="7.340592"><ele>2436.6</ele></trkpt>
      <trkpt lat="46.094602" lon="7.340562"><ele>2435.0</ele></trkpt>
      <trkpt lat="46.094838" lon="7.340517"><ele>2429.2</ele></trkpt>
      <trkpt lat="46.095037" lon="7.340427"><ele>2426.2</ele></trkpt>
      <trkpt lat="46.095102" lon="7.340420"><ele>2425.6</ele></trkpt>
      <trkpt lat="46.095247" lon="7.340502"><ele>2424.4</ele></trkpt>
      <trkpt lat="46.095517" lon="7.340457"><ele>2420.4</ele></trkpt>
      <trkpt lat="46.095887" lon="7.340470"><ele>2410.0</ele></trkpt>
      <trkpt lat="46.096132" lon="7.340428"><ele>2407.8</ele></trkpt>
      <trkpt lat="46.096412" lon="7.340407"><ele>2406.8</ele></trkpt>
      <trkpt lat="46.096575" lon="7.340372"><ele>2406.0</ele></trkpt>
      <trkpt lat="46.096777" lon="7.340397"><ele>2404.2</ele></trkpt>
      <trkpt lat="46.096852" lon="7.340377"><ele>2403.6</ele></trkpt>
      <trkpt lat="46.096915" lon="7.340325"><ele>2402.8</ele></trkpt>
      <trkpt lat="46.096985" lon="7.340302"><ele>2402.0</ele></trkpt>
      <trkpt lat="46.097050" lon="7.340307"><ele>2401.0</ele></trkpt>
      <trkpt lat="46.097262" lon="7.340267"><ele>2398.0</ele></trkpt>
      <trkpt lat="46.097372" lon="7.340187"><ele>2395.8</ele></trkpt>
      <trkpt lat="46.097537" lon="7.340020"><ele>2392.4</ele></trkpt>
      <trkpt lat="46.097597" lon="7.339977"><ele>2391.8</ele></trkpt>
      <trkpt lat="46.097735" lon="7.339927"><ele>2390.6</ele></trkpt>
      <trkpt lat="46.097932" lon="7.339907"><ele>2387.6</ele></trkpt>
      <trkpt lat="46.098102" lon="7.339947"><ele>2384.4</ele></trkpt>
      <trkpt lat="46.098377" lon="7.339960"><ele>2381.0</ele></trkpt>
      <trkpt lat="46.098782" lon="7.339905"><ele>2377.0</ele></trkpt>
      <trkpt lat="46.099055" lon="7.339812"><ele>2374.2</ele></trkpt>
      <trkpt lat="46.099202" lon="7.339787"><ele>2372.6</ele></trkpt>
      <trkpt lat="46.099257" lon="7.339767"><ele>2372.2</ele></trkpt>
      <trkpt lat="46.099557" lon="7.339582"><ele>2369.2</ele></trkpt>
      <trkpt lat="46.100027" lon="7.339387"><ele>2362.2</ele></trkpt>
      <trkpt lat="46.100332" lon="7.339212"><ele>2358.2</ele></trkpt>
      <trkpt lat="46.100597" lon="7.339100"><ele>2353.6</ele></trkpt>
      <trkpt lat="46.100790" lon="7.339047"><ele>2351.8</ele></trkpt>
      <trkpt lat="46.100992" lon="7.338937"><ele>2349.8</ele></trkpt>
      <trkpt lat="46.101157" lon="7.338770"><ele>2346.2</ele></trkpt>
      <trkpt lat="46.101275" lon="7.338607"><ele>2344.4</ele></trkpt>
      <trkpt lat="46.101587" lon="7.338107"><ele>2338.2</ele></trkpt>
      <trkpt lat="46.101967" lon="7.337402"><ele>2335.4</ele></trkpt>
      <trkpt lat="46.102305" lon="7.336917"><ele>2332.6</ele></trkpt>
      <trkpt lat="46.102370" lon="7.336782"><ele>2332.4</ele></trkpt>
      <trkpt lat="46.102432" lon="7.336717"><ele>2331.2</ele></trkpt>
      <trkpt lat="46.102552" lon="7.336462"><ele>2330.0</ele></trkpt>
      <trkpt lat="46.102645" lon="7.336432"><ele>2329.6</ele></trkpt>
      <trkpt lat="46.102780" lon="7.336197"><ele>2323.0</ele></trkpt>
      <trkpt lat="46.103070" lon="7.335992"><ele>2315.4</ele></trkpt>
      <trkpt lat="46.103437" lon="7.335552"><ele>2305.8</ele></trkpt>
      <trkpt lat="46.103460" lon="7.335507"><ele>2305.0</ele></trkpt>
      <trkpt lat="46.103475" lon="7.335387"><ele>2302.4</ele></trkpt>
      <trkpt lat="46.103447" lon="7.335357"><ele>2301.6</ele></trkpt>
      <trkpt lat="46.103440" lon="7.335310"><ele>2301.0</ele></trkpt>
      <trkpt lat="46.103430" lon="7.334940"><ele>2293.4</ele></trkpt>
      <trkpt lat="46.103360" lon="7.334470"><ele>2287.4</ele></trkpt>
      <trkpt lat="46.103372" lon="7.333788"><ele>2281.0</ele></trkpt>
      <trkpt lat="46.103392" lon="7.333480"><ele>2278.8</ele></trkpt>
      <trkpt lat="46.103517" lon="7.332995"><ele>2273.4</ele></trkpt>
      <trkpt lat="46.103780" lon="7.332115"><ele>2266.6</ele></trkpt>
      <trkpt lat="46.103810" lon="7.331830"><ele>2264.6</ele></trkpt>
      <trkpt lat="46.103832" lon="7.331752"><ele>2264.2</ele></trkpt>
      <trkpt lat="46.103895" lon="7.331587"><ele>2262.2</ele></trkpt>
      <trkpt lat="46.103977" lon="7.331432"><ele>2261.4</ele></trkpt>
      <trkpt lat="46.104060" lon="7.331167"><ele>2259.2</ele></trkpt>
      <trkpt lat="46.104142" lon="7.331027"><ele>2256.4</ele></trkpt>
      <trkpt lat="46.104237" lon="7.330907"><ele>2253.6</ele></trkpt>
      <trkpt lat="46.104267" lon="7.330837"><ele>2252.8</ele></trkpt>
      <trkpt lat="46.104332" lon="7.330587"><ele>2250.6</ele></trkpt>
      <trkpt lat="46.104392" lon="7.330447"><ele>2249.0</ele></trkpt>
      <trkpt lat="46.104437" lon="7.330195"><ele>2246.8</ele></trkpt>
      <trkpt lat="46.104472" lon="7.330115"><ele>2246.4</ele></trkpt>
      <trkpt lat="46.104592" lon="7.330027"><ele>2244.2</ele></trkpt>
      <trkpt lat="46.104752" lon="7.329812"><ele>2242.0</ele></trkpt>
      <trkpt lat="46.104977" lon="7.329372"><ele>2237.6</ele></trkpt>
      <trkpt lat="46.105022" lon="7.329242"><ele>2236.0</ele></trkpt>
      <trkpt lat="46.105047" lon="7.329097"><ele>2234.6</ele></trkpt>
      <trkpt lat="46.105027" lon="7.328647"><ele>2230.6</ele></trkpt>
      <trkpt lat="46.105062" lon="7.328337"><ele>2227.2</ele></trkpt>
      <trkpt lat="46.105127" lon="7.328145"><ele>2223.8</ele></trkpt>
      <trkpt lat="46.105167" lon="7.327947"><ele>2219.8</ele></trkpt>
      <trkpt lat="46.105207" lon="7.327832"><ele>2218.8</ele></trkpt>
      <trkpt lat="46.105325" lon="7.327610"><ele>2217.0</ele></trkpt>
      <trkpt lat="46.105412" lon="7.327320"><ele>2214.8</ele></trkpt>
      <trkpt lat="46.105482" lon="7.327170"><ele>2212.8</ele></trkpt>
      <trkpt lat="46.105540" lon="7.327085"><ele>2211.6</ele></trkpt>
      <trkpt lat="46.105587" lon="7.327035"><ele>2211.4</ele></trkpt>
      <trkpt lat="46.105852" lon="7.326845"><ele>2209.4</ele></trkpt>
      <trkpt lat="46.105940" lon="7.326752"><ele>2208.6</ele></trkpt>
      <trkpt lat="46.106217" lon="7.326377"><ele>2205.4</ele></trkpt>
      <trkpt lat="46.106360" lon="7.326132"><ele>2204.0</ele></trkpt>
      <trkpt lat="46.106425" lon="7.326082"><ele>2203.4</ele></trkpt>
      <trkpt lat="46.106465" lon="7.326077"><ele>2203.2</ele></trkpt>
      <trkpt lat="46.106532" lon="7.326110"><ele>2202.2</ele></trkpt>
      <trkpt lat="46.106672" lon="7.326222"><ele>2202.2</ele></trkpt>
      <trkpt lat="46.106862" lon="7.326222"><ele>2203.4</ele></trkpt>
      <trkpt lat="46.106960" lon="7.326205"><ele>2203.2</ele></trkpt>
      <trkpt lat="46.107347" lon="7.325955"><ele>2203.2</ele></trkpt>
      <trkpt lat="46.107462" lon="7.325857"><ele>2203.4</ele></trkpt>
      <trkpt lat="46.107555" lon="7.325747"><ele>2202.8</ele></trkpt>
      <trkpt lat="46.107612" lon="7.325717"><ele>2202.6</ele></trkpt>
      <trkpt lat="46.107810" lon="7.325537"><ele>2202.6</ele></trkpt>
      <trkpt lat="46.107897" lon="7.325552"><ele>2201.8</ele></trkpt>
      <trkpt lat="46.107957" lon="7.325652"><ele>2201.8</ele></trkpt>
      <trkpt lat="46.108075" lon="7.325727"><ele>2202.2</ele></trkpt>
      <trkpt lat="46.108242" lon="7.325777"><ele>2202.4</ele></trkpt>
      <trkpt lat="46.108467" lon="7.325815"><ele>2202.4</ele></trkpt>
      <trkpt lat="46.108597" lon="7.325887"><ele>2202.0</ele></trkpt>
      <trkpt lat="46.108717" lon="7.325878"><ele>2202.4</ele></trkpt>
      <trkpt lat="46.108895" lon="7.325900"><ele>2201.8</ele></trkpt>
      <trkpt lat="46.108982" lon="7.325890"><ele>2201.4</ele></trkpt>
      <trkpt lat="46.109050" lon="7.325950"><ele>2201.8</ele></trkpt>
      <trkpt lat="46.109085" lon="7.325945"><ele>2202.0</ele></trkpt>
      <trkpt lat="46.109372" lon="7.325812"><ele>2201.4</ele></trkpt>
      <trkpt lat="46.109517" lon="7.325772"><ele>2201.2</ele></trkpt>
      <trkpt lat="46.109630" lon="7.325770"><ele>2201.2</ele></trkpt>
      <trkpt lat="46.109990" lon="7.325672"><ele>2200.4</ele></trkpt>
      <trkpt lat="46.110420" lon="7.325512"><ele>2200.8</ele></trkpt>
      <trkpt lat="46.110652" lon="7.325467"><ele>2200.6</ele></trkpt>
      <trkpt lat="46.110787" lon="7.325362"><ele>2200.4</ele></trkpt>
      <trkpt lat="46.110887" lon="7.325185"><ele>2199.4</ele></trkpt>
      <trkpt lat="46.110947" lon="7.325135"><ele>2199.4</ele></trkpt>
      <trkpt lat="46.111030" lon="7.325152"><ele>2199.8</ele></trkpt>
      <trkpt lat="46.111165" lon="7.325140"><ele>2200.0</ele></trkpt>
      <trkpt lat="46.111227" lon="7.325172"><ele>2200.0</ele></trkpt>
      <trkpt lat="46.111262" lon="7.325232"><ele>2199.6</ele></trkpt>
      <trkpt lat="46.111345" lon="7.325562"><ele>2199.6</ele></trkpt>
      <trkpt lat="46.111417" lon="7.325680"><ele>2199.6</ele></trkpt>
      <trkpt lat="46.111597" lon="7.325783"><ele>2200.4</ele></trkpt>
      <trkpt lat="46.111727" lon="7.325897"><ele>2200.4</ele></trkpt>
      <trkpt lat="46.111782" lon="7.325927"><ele>2200.2</ele></trkpt>
      <trkpt lat="46.111872" lon="7.325927"><ele>2200.4</ele></trkpt>
      <trkpt lat="46.111937" lon="7.325907"><ele>2200.4</ele></trkpt>
      <trkpt lat="46.112215" lon="7.325730"><ele>2199.2</ele></trkpt>
      <trkpt lat="46.112425" lon="7.325482"><ele>2198.0</ele></trkpt>
      <trkpt lat="46.112555" lon="7.325400"><ele>2195.2</ele></trkpt>
      <trkpt lat="46.112622" lon="7.325332"><ele>2195.0</ele></trkpt>
      <trkpt lat="46.112807" lon="7.324977"><ele>2194.6</ele></trkpt>
      <trkpt lat="46.112837" lon="7.324855"><ele>2194.2</ele></trkpt>
      <trkpt lat="46.112862" lon="7.324575"><ele>2193.6</ele></trkpt>
      <trkpt lat="46.112892" lon="7.324467"><ele>2193.2</ele></trkpt>
      <trkpt lat="46.112967" lon="7.324307"><ele>2192.2</ele></trkpt>
      <trkpt lat="46.113085" lon="7.324163"><ele>2191.8</ele></trkpt>
      <trkpt lat="46.113110" lon="7.324027"><ele>2190.6</ele></trkpt>
      <trkpt lat="46.111780" lon="7.320485"><ele>2191.4</ele></trkpt>
      <trkpt lat="46.111737" lon="7.320255"><ele>2191.4</ele></trkpt>
      <trkpt lat="46.111742" lon="7.320027"><ele>2191.8</ele></trkpt>
      <trkpt lat="46.111712" lon="7.319497"><ele>2191.6</ele></trkpt>
      <trkpt lat="46.111752" lon="7.319390"><ele>2191.4</ele></trkpt>
      <trkpt lat="46.111872" lon="7.319272"><ele>2191.6</ele></trkpt>
      <trkpt lat="46.111947" lon="7.318970"><ele>2190.8</ele></trkpt>
      <trkpt lat="46.112035" lon="7.318837"><ele>2191.4</ele></trkpt>
      <trkpt lat="46.112185" lon="7.318452"><ele>2190.0</ele></trkpt>
      <trkpt lat="46.112247" lon="7.318102"><ele>2187.8</ele></trkpt>
      <trkpt lat="46.112222" lon="7.317825"><ele>2185.6</ele></trkpt>
      <trkpt lat="46.112152" lon="7.317525"><ele>2184.2</ele></trkpt>
      <trkpt lat="46.112200" lon="7.317405"><ele>2183.8</ele></trkpt>
      <trkpt lat="46.112320" lon="7.316975"><ele>2176.2</ele></trkpt>
      <trkpt lat="46.112402" lon="7.316812"><ele>2174.8</ele></trkpt>
      <trkpt lat="46.112432" lon="7.316502"><ele>2170.6</ele></trkpt>
      <trkpt lat="46.112457" lon="7.316405"><ele>2167.6</ele></trkpt>
      <trkpt lat="46.112612" lon="7.316130"><ele>2162.8</ele></trkpt>
      <trkpt lat="46.112653" lon="7.315962"><ele>2156.8</ele></trkpt>
      <trkpt lat="46.112817" lon="7.315850"><ele>2154.0</ele></trkpt>
      <trkpt lat="46.112860" lon="7.315855"><ele>2153.4</ele></trkpt>
      <trkpt lat="46.112885" lon="7.316122"><ele>2143.0</ele></trkpt>
      <trkpt lat="46.112907" lon="7.316152"><ele>2142.2</ele></trkpt>
      <trkpt lat="46.113012" lon="7.316085"><ele>2137.4</ele></trkpt>
      <trkpt lat="46.113040" lon="7.316082"><ele>2136.4</ele></trkpt>
      <trkpt lat="46.113072" lon="7.316105"><ele>2135.4</ele></trkpt>
      <trkpt lat="46.113067" lon="7.316317"><ele>2128.4</ele></trkpt>
      <trkpt lat="46.113112" lon="7.316307"><ele>2124.8</ele></trkpt>
      <trkpt lat="46.113140" lon="7.316327"><ele>2123.6</ele></trkpt>
      <trkpt lat="46.113255" lon="7.316227"><ele>2117.8</ele></trkpt>
      <trkpt lat="46.113387" lon="7.316070"><ele>2113.0</ele></trkpt>
      <trkpt lat="46.113462" lon="7.316065"><ele>2111.2</ele></trkpt>
      <trkpt lat="46.113495" lon="7.316132"><ele>2110.0</ele></trkpt>
      <trkpt lat="46.113532" lon="7.316122"><ele>2109.0</ele></trkpt>
      <trkpt lat="46.113590" lon="7.316032"><ele>2105.4</ele></trkpt>
      <trkpt lat="46.113650" lon="7.316042"><ele>2101.6</ele></trkpt>
      <trkpt lat="46.113830" lon="7.315937"><ele>2095.4</ele></trkpt>
      <trkpt lat="46.113840" lon="7.315947"><ele>2090.4</ele></trkpt>
      <trkpt lat="46.113997" lon="7.315847"><ele>2087.8</ele></trkpt>
      <trkpt lat="46.114342" lon="7.315582"><ele>2080.2</ele></trkpt>
      <trkpt lat="46.114585" lon="7.315432"><ele>2077.0</ele></trkpt>
      <trkpt lat="46.114777" lon="7.315285"><ele>2072.8</ele></trkpt>
      <trkpt lat="46.114882" lon="7.315157"><ele>2070.4</ele></trkpt>
      <trkpt lat="46.114937" lon="7.315152"><ele>2069.6</ele></trkpt>
      <trkpt lat="46.115017" lon="7.315115"><ele>2069.0</ele></trkpt>
      <trkpt lat="46.115232" lon="7.314957"><ele>2065.6</ele></trkpt>
      <trkpt lat="46.115467" lon="7.314812"><ele>2063.0</ele></trkpt>
      <trkpt lat="46.115507" lon="7.314777"><ele>2062.6</ele></trkpt>
      <trkpt lat="46.115540" lon="7.314692"><ele>2061.0</ele></trkpt>
      <trkpt lat="46.115592" lon="7.314622"><ele>2060.4</ele></trkpt>
      <trkpt lat="46.115827" lon="7.314500"><ele>2056.4</ele></trkpt>
      <trkpt lat="46.115930" lon="7.314427"><ele>2055.0</ele></trkpt>
      <trkpt lat="46.116000" lon="7.314407"><ele>2053.8</ele></trkpt>
      <trkpt lat="46.116127" lon="7.314277"><ele>2050.2</ele></trkpt>
      <trkpt lat="46.116297" lon="7.314217"><ele>2045.6</ele></trkpt>
      <trkpt lat="46.116455" lon="7.314117"><ele>2042.8</ele></trkpt>
      <trkpt lat="46.116562" lon="7.314085"><ele>2040.0</ele></trkpt>
      <trkpt lat="46.116662" lon="7.314077"><ele>2035.2</ele></trkpt>
      <trkpt lat="46.116857" lon="7.313995"><ele>2032.4</ele></trkpt>
      <trkpt lat="46.116907" lon="7.313990"><ele>2031.2</ele></trkpt>
      <trkpt lat="46.117047" lon="7.313917"><ele>2028.4</ele></trkpt>
      <trkpt lat="46.117180" lon="7.313807"><ele>2023.8</ele></trkpt>
      <trkpt lat="46.117237" lon="7.313792"><ele>2022.2</ele></trkpt>
      <trkpt lat="46.117497" lon="7.313637"><ele>2015.2</ele></trkpt>
      <trkpt lat="46.117672" lon="7.313562"><ele>2011.6</ele></trkpt>
      <trkpt lat="46.117767" lon="7.313542"><ele>2009.4</ele></trkpt>
      <trkpt lat="46.117975" lon="7.313395"><ele>2005.0</ele></trkpt>
      <trkpt lat="46.118115" lon="7.313360"><ele>2001.6</ele></trkpt>
      <trkpt lat="46.118312" lon="7.313232"><ele>1997.2</ele></trkpt>
      <trkpt lat="46.118452" lon="7.313185"><ele>1994.4</ele></trkpt>
      <trkpt lat="46.118577" lon="7.313040"><ele>1992.4</ele></trkpt>
      <trkpt lat="46.118630" lon="7.313015"><ele>1992.0</ele></trkpt>
      <trkpt lat="46.118750" lon="7.313012"><ele>1991.0</ele></trkpt>
      <trkpt lat="46.118855" lon="7.312935"><ele>1990.0</ele></trkpt>
      <trkpt lat="46.118975" lon="7.312892"><ele>1985.8</ele></trkpt>
      <trkpt lat="46.119065" lon="7.312952"><ele>1983.0</ele></trkpt>
      <trkpt lat="46.119282" lon="7.313012"><ele>1981.2</ele></trkpt>
      <trkpt lat="46.119460" lon="7.312975"><ele>1980.0</ele></trkpt>
      <trkpt lat="46.119712" lon="7.312875"><ele>1977.6</ele></trkpt>
      <trkpt lat="46.119972" lon="7.312860"><ele>1974.2</ele></trkpt>
      <trkpt lat="46.120175" lon="7.312817"><ele>1972.2</ele></trkpt>
      <trkpt lat="46.120322" lon="7.312755"><ele>1971.0</ele></trkpt>
      <trkpt lat="46.120745" lon="7.312645"><ele>1965.8</ele></trkpt>
      <trkpt lat="46.121032" lon="7.312542"><ele>1962.8</ele></trkpt>
      <trkpt lat="46.121180" lon="7.312442"><ele>1961.6</ele></trkpt>
      <trkpt lat="46.121245" lon="7.312350"><ele>1961.0</ele></trkpt>
      <trkpt lat="46.121297" lon="7.312237"><ele>1960.4</ele></trkpt>
      <trkpt lat="46.121332" lon="7.312112"><ele>1959.8</ele></trkpt>
      <trkpt lat="46.121342" lon="7.311982"><ele>1959.2</ele></trkpt>
      <trkpt lat="46.121297" lon="7.311742"><ele>1957.4</ele></trkpt>
      <trkpt lat="46.121295" lon="7.311625"><ele>1956.4</ele></trkpt>
      <trkpt lat="46.121325" lon="7.311507"><ele>1955.4</ele></trkpt>
      <trkpt lat="46.121377" lon="7.311417"><ele>1953.6</ele></trkpt>
      <trkpt lat="46.121517" lon="7.311312"><ele>1950.6</ele></trkpt>
      <trkpt lat="46.121857" lon="7.311185"><ele>1946.2</ele></trkpt>
      <trkpt lat="46.122172" lon="7.311042"><ele>1943.8</ele></trkpt>
      <trkpt lat="46.122352" lon="7.310857"><ele>1943.0</ele></trkpt>
      <trkpt lat="46.122422" lon="7.310842"><ele>1942.4</ele></trkpt>
      <trkpt lat="46.122495" lon="7.310857"><ele>1941.8</ele></trkpt>
      <trkpt lat="46.122577" lon="7.310845"><ele>1941.0</ele></trkpt>
      <trkpt lat="46.122747" lon="7.310818"><ele>1938.6</ele></trkpt>
      <trkpt lat="46.122837" lon="7.310782"><ele>1937.4</ele></trkpt>
      <trkpt lat="46.122927" lon="7.310767"><ele>1936.0</ele></trkpt>
      <trkpt lat="46.123005" lon="7.310818"><ele>1935.0</ele></trkpt>
      <trkpt lat="46.123057" lon="7.310895"><ele>1933.6</ele></trkpt>
      <trkpt lat="46.123130" lon="7.310942"><ele>1932.4</ele></trkpt>
      <trkpt lat="46.123210" lon="7.310935"><ele>1931.0</ele></trkpt>
      <trkpt lat="46.123290" lon="7.310957"><ele>1929.8</ele></trkpt>
      <trkpt lat="46.123410" lon="7.311097"><ele>1927.8</ele></trkpt>
      <trkpt lat="46.123487" lon="7.311110"><ele>1926.8</ele></trkpt>
      <trkpt lat="46.123572" lon="7.311097"><ele>1925.6</ele></trkpt>
      <trkpt lat="46.123655" lon="7.311125"><ele>1924.8</ele></trkpt>
      <trkpt lat="46.123805" lon="7.311262"><ele>1923.2</ele></trkpt>
      <trkpt lat="46.123897" lon="7.311277"><ele>1922.4</ele></trkpt>
      <trkpt lat="46.123997" lon="7.311263"><ele>1921.6</ele></trkpt>
      <trkpt lat="46.124093" lon="7.311302"><ele>1920.6</ele></trkpt>
      <trkpt lat="46.124262" lon="7.311477"><ele>1917.8</ele></trkpt>
      <trkpt lat="46.124365" lon="7.311527"><ele>1916.4</ele></trkpt>
      <trkpt lat="46.124562" lon="7.311680"><ele>1913.6</ele></trkpt>
      <trkpt lat="46.124675" lon="7.311707"><ele>1911.8</ele></trkpt>
      <trkpt lat="46.124790" lon="7.311712"><ele>1910.2</ele></trkpt>
      <trkpt lat="46.124895" lon="7.311762"><ele>1908.6</ele></trkpt>
      <trkpt lat="46.125077" lon="7.311927"><ele>1905.8</ele></trkpt>
      <trkpt lat="46.125280" lon="7.311972"><ele>1903.0</ele></trkpt>
      <trkpt lat="46.125367" lon="7.312017"><ele>1901.4</ele></trkpt>
      <trkpt lat="46.125540" lon="7.312152"><ele>1898.6</ele></trkpt>
      <trkpt lat="46.125817" lon="7.312227"><ele>1895.0</ele></trkpt>
      <trkpt lat="46.126062" lon="7.312415"><ele>1892.0</ele></trkpt>
      <trkpt lat="46.126147" lon="7.312452"><ele>1891.0</ele></trkpt>
      <trkpt lat="46.126412" lon="7.312437"><ele>1888.4</ele></trkpt>
      <trkpt lat="46.126497" lon="7.312485"><ele>1887.6</ele></trkpt>
      <trkpt lat="46.126647" lon="7.312615"><ele>1885.6</ele></trkpt>
      <trkpt lat="46.126837" lon="7.312612"><ele>1883.4</ele></trkpt>
      <trkpt lat="46.126927" lon="7.312652"><ele>1882.6</ele></trkpt>
      <trkpt lat="46.127007" lon="7.312717"><ele>1881.4</ele></trkpt>
      <trkpt lat="46.127267" lon="7.312757"><ele>1878.2</ele></trkpt>
      <trkpt lat="46.127410" lon="7.312867"><ele>1877.0</ele></trkpt>
      <trkpt lat="46.127637" lon="7.312907"><ele>1874.8</ele></trkpt>
      <trkpt lat="46.127700" lon="7.312967"><ele>1874.0</ele></trkpt>
      <trkpt lat="46.127750" lon="7.313043"><ele>1873.6</ele></trkpt>
      <trkpt lat="46.127817" lon="7.313092"><ele>1873.0</ele></trkpt>
      <trkpt lat="46.127962" lon="7.313090"><ele>1871.8</ele></trkpt>
      <trkpt lat="46.128095" lon="7.313295"><ele>1868.8</ele></trkpt>
      <trkpt lat="46.128167" lon="7.313310"><ele>1867.2</ele></trkpt>
      <trkpt lat="46.128250" lon="7.313300"><ele>1866.2</ele></trkpt>
      <trkpt lat="46.128325" lon="7.313352"><ele>1865.4</ele></trkpt>
      <trkpt lat="46.128412" lon="7.313512"><ele>1862.2</ele></trkpt>
      <trkpt lat="46.128542" lon="7.313545"><ele>1859.4</ele></trkpt>
      <trkpt lat="46.128597" lon="7.313597"><ele>1858.4</ele></trkpt>
      <trkpt lat="46.128630" lon="7.313670"><ele>1857.2</ele></trkpt>
      <trkpt lat="46.128682" lon="7.313720"><ele>1856.0</ele></trkpt>
      <trkpt lat="46.128745" lon="7.313742"><ele>1854.6</ele></trkpt>
      <trkpt lat="46.128842" lon="7.313847"><ele>1852.2</ele></trkpt>
      <trkpt lat="46.128970" lon="7.313887"><ele>1849.4</ele></trkpt>
      <trkpt lat="46.129050" lon="7.314025"><ele>1847.0</ele></trkpt>
      <trkpt lat="46.129173" lon="7.314080"><ele>1844.2</ele></trkpt>
      <trkpt lat="46.129307" lon="7.314232"><ele>1839.4</ele></trkpt>
      <trkpt lat="46.129392" lon="7.314365"><ele>1835.8</ele></trkpt>
      <trkpt lat="46.129630" lon="7.314550"><ele>1829.2</ele></trkpt>
      <trkpt lat="46.129792" lon="7.314710"><ele>1821.8</ele></trkpt>
      <trkpt lat="46.129882" lon="7.314862"><ele>1819.2</ele></trkpt>
      <trkpt lat="46.129952" lon="7.314920"><ele>1817.4</ele></trkpt>
      <trkpt lat="46.130130" lon="7.314972"><ele>1815.4</ele></trkpt>
      <trkpt lat="46.130302" lon="7.315102"><ele>1812.8</ele></trkpt>
      <trkpt lat="46.130607" lon="7.315112"><ele>1808.6</ele></trkpt>
      <trkpt lat="46.130897" lon="7.315210"><ele>1804.4</ele></trkpt>
      <trkpt lat="46.131085" lon="7.315192"><ele>1801.8</ele></trkpt>
      <trkpt lat="46.131267" lon="7.315225"><ele>1799.6</ele></trkpt>
      <trkpt lat="46.131357" lon="7.315217"><ele>1798.6</ele></trkpt>
      <trkpt lat="46.131532" lon="7.315167"><ele>1796.4</ele></trkpt>
      <trkpt lat="46.131625" lon="7.315172"><ele>1795.4</ele></trkpt>
      <trkpt lat="46.131802" lon="7.315232"><ele>1793.6</ele></trkpt>
      <trkpt lat="46.131980" lon="7.315207"><ele>1791.8</ele></trkpt>
      <trkpt lat="46.132067" lon="7.315210"><ele>1790.6</ele></trkpt>
      <trkpt lat="46.132227" lon="7.315302"><ele>1788.8</ele></trkpt>
      <trkpt lat="46.132312" lon="7.315332"><ele>1788.0</ele></trkpt>
      <trkpt lat="46.132490" lon="7.315332"><ele>1786.0</ele></trkpt>
      <trkpt lat="46.132578" lon="7.315347"><ele>1785.2</ele></trkpt>
      <trkpt lat="46.132670" lon="7.315310"><ele>1784.2</ele></trkpt>
      <trkpt lat="46.132750" lon="7.315255"><ele>1783.0</ele></trkpt>
      <trkpt lat="46.132832" lon="7.315252"><ele>1782.0</ele></trkpt>
      <trkpt lat="46.132907" lon="7.315298"><ele>1780.8</ele></trkpt>
      <trkpt lat="46.132992" lon="7.315312"><ele>1779.8</ele></trkpt>
      <trkpt lat="46.133147" lon="7.315267"><ele>1776.6</ele></trkpt>
      <trkpt lat="46.133225" lon="7.315282"><ele>1775.4</ele></trkpt>
      <trkpt lat="46.133302" lon="7.315267"><ele>1774.4</ele></trkpt>
      <trkpt lat="46.133377" lon="7.315230"><ele>1772.8</ele></trkpt>
      <trkpt lat="46.133452" lon="7.315237"><ele>1771.6</ele></trkpt>
      <trkpt lat="46.133522" lon="7.315292"><ele>1770.4</ele></trkpt>
      <trkpt lat="46.133607" lon="7.315317"><ele>1769.2</ele></trkpt>
      <trkpt lat="46.133777" lon="7.315297"><ele>1766.6</ele></trkpt>
      <trkpt lat="46.133855" lon="7.315347"><ele>1765.4</ele></trkpt>
      <trkpt lat="46.133900" lon="7.315435"><ele>1763.6</ele></trkpt>
      <trkpt lat="46.133960" lon="7.315507"><ele>1762.0</ele></trkpt>
      <trkpt lat="46.134040" lon="7.315522"><ele>1760.4</ele></trkpt>
      <trkpt lat="46.134120" lon="7.315565"><ele>1759.2</ele></trkpt>
      <trkpt lat="46.134270" lon="7.315687"><ele>1757.2</ele></trkpt>
      <trkpt lat="46.134532" lon="7.315715"><ele>1754.0</ele></trkpt>
      <trkpt lat="46.134762" lon="7.315832"><ele>1749.6</ele></trkpt>
      <trkpt lat="46.135022" lon="7.315922"><ele>1746.0</ele></trkpt>
      <trkpt lat="46.135125" lon="7.315915"><ele>1744.6</ele></trkpt>
      <trkpt lat="46.135165" lon="7.315927"><ele>1744.2</ele></trkpt>
      <trkpt lat="46.135182" lon="7.315875"><ele>1744.2</ele></trkpt>
    </trkseg>
  </trk>
</gpx>
