<?xml version="1.0" encoding="UTF-8"?>
<gpx version="1.1" creator="Snowdesk route export"
     xmlns="http://www.topografix.com/GPX/1/1"
     xmlns:xsi="http://www.w3.org/2001/XMLSchema-instance"
     xsi:schemaLocation="http://www.topografix.com/GPX/1/1 http://www.topografix.com/GPX/1/1/gpx.xsd">
  <metadata>
    <name>Mont Fort - Backside</name>
    <desc>Reconstituted from Snowdesk stored points (route 893029d6-bca6-4323-923f-f34a7add4f4b). The uploaded file was parsed and discarded at ingest; this is not it. 694 points stored; the source count was not recorded for this route. Per-point timestamps are not stored and are absent here.</desc>
    <time>2026-03-12T11:10:22Z</time>
    <bounds minlat="46.076695" minlon="7.31102" maxlat="46.135187" maxlon="7.355707"/>
  </metadata>
  <trk>
    <name>Mont Fort - Backside</name>
    <trkseg>
      <trkpt lat="46.080012" lon="7.318197"><ele>3436.6</ele></trkpt>
      <trkpt lat="46.079997" lon="7.318187"><ele>3438.2</ele></trkpt>
      <trkpt lat="46.079842" lon="7.318202"><ele>3448.6</ele></trkpt>
      <trkpt lat="46.079770" lon="7.318177"><ele>3452.4</ele></trkpt>
      <trkpt lat="46.079730" lon="7.318202"><ele>3500.6</ele></trkpt>
      <trkpt lat="46.079785" lon="7.318490"><ele>3503.6</ele></trkpt>
      <trkpt lat="46.079800" lon="7.318842"><ele>3507.6</ele></trkpt>
      <trkpt lat="46.079790" lon="7.318937"><ele>3510.6</ele></trkpt>
      <trkpt lat="46.079775" lon="7.318935"><ele>3511.8</ele></trkpt>
      <trkpt lat="46.079772" lon="7.319022"><ele>3513.0</ele></trkpt>
      <trkpt lat="46.079887" lon="7.319557"><ele>3516.6</ele></trkpt>
      <trkpt lat="46.079855" lon="7.319657"><ele>3523.2</ele></trkpt>
      <trkpt lat="46.079772" lon="7.319687"><ele>3525.0</ele></trkpt>
      <trkpt lat="46.079692" lon="7.319860"><ele>3526.6</ele></trkpt>
      <trkpt lat="46.079620" lon="7.320277"><ele>3534.2</ele></trkpt>
      <trkpt lat="46.079605" lon="7.320277"><ele>3535.6</ele></trkpt>
      <trkpt lat="46.079592" lon="7.320305"><ele>3536.8</ele></trkpt>
      <trkpt lat="46.079577" lon="7.320392"><ele>3538.2</ele></trkpt>
      <trkpt lat="46.079542" lon="7.320425"><ele>3540.2</ele></trkpt>
      <trkpt lat="46.079520" lon="7.320567"><ele>3541.0</ele></trkpt>
      <trkpt lat="46.079490" lon="7.320592"><ele>3541.0</ele></trkpt>
      <trkpt lat="46.079420" lon="7.320582"><ele>3541.4</ele></trkpt>
      <trkpt lat="46.079402" lon="7.320625"><ele>3541.8</ele></trkpt>
      <trkpt lat="46.079402" lon="7.320772"><ele>3542.2</ele></trkpt>
      <trkpt lat="46.079375" lon="7.320825"><ele>3542.6</ele></trkpt>
      <trkpt lat="46.079307" lon="7.320817"><ele>3543.0</ele></trkpt>
      <trkpt lat="46.079280" lon="7.320857"><ele>3543.0</ele></trkpt>
      <trkpt lat="46.079232" lon="7.321212"><ele>3544.2</ele></trkpt>
      <trkpt lat="46.079207" lon="7.321287"><ele>3544.2</ele></trkpt>
      <trkpt lat="46.079162" lon="7.321302"><ele>3544.6</ele></trkpt>
      <trkpt lat="46.079120" lon="7.321285"><ele>3544.6</ele></trkpt>
      <trkpt lat="46.079070" lon="7.321302"><ele>3545.0</ele></trkpt>
      <trkpt lat="46.079037" lon="7.321360"><ele>3545.4</ele></trkpt>
      <trkpt lat="46.078997" lon="7.321507"><ele>3545.8</ele></trkpt>
      <trkpt lat="46.078952" lon="7.321532"><ele>3546.0</ele></trkpt>
      <trkpt lat="46.078887" lon="7.321493"><ele>3546.4</ele></trkpt>
      <trkpt lat="46.078847" lon="7.321505"><ele>3546.4</ele></trkpt>
      <trkpt lat="46.078812" lon="7.321552"><ele>3546.8</ele></trkpt>
      <trkpt lat="46.078772" lon="7.321550"><ele>3546.8</ele></trkpt>
      <trkpt lat="46.078747" lon="7.321510"><ele>3549.0</ele></trkpt>
      <trkpt lat="46.078707" lon="7.321530"><ele>3557.6</ele></trkpt>
      <trkpt lat="46.078667" lon="7.321517"><ele>3558.0</ele></trkpt>
      <trkpt lat="46.078642" lon="7.321552"><ele>3560.0</ele></trkpt>
      <trkpt lat="46.078602" lon="7.321552"><ele>3560.4</ele></trkpt>
      <trkpt lat="46.078572" lon="7.321512"><ele>3560.6</ele></trkpt>
      <trkpt lat="46.078497" lon="7.321195"><ele>3561.8</ele></trkpt>
      <trkpt lat="46.078452" lon="7.320660"><ele>3563.6</ele></trkpt>
      <trkpt lat="46.078427" lon="7.320615"><ele>3565.2</ele></trkpt>
      <trkpt lat="46.078397" lon="7.320627"><ele>3565.4</ele></trkpt>
      <trkpt lat="46.078147" lon="7.321087"><ele>3567.2</ele></trkpt>
      <trkpt lat="46.078092" lon="7.321242"><ele>3567.6</ele></trkpt>
      <trkpt lat="46.077962" lon="7.321477"><ele>3570.4</ele></trkpt>
      <trkpt lat="46.077892" lon="7.321542"><ele>3570.8</ele></trkpt>
      <trkpt lat="46.077797" lon="7.321675"><ele>3574.6</ele></trkpt>
      <trkpt lat="46.077727" lon="7.321877"><ele>3588.4</ele></trkpt>
      <trkpt lat="46.077737" lon="7.321957"><ele>3590.6</ele></trkpt>
      <trkpt lat="46.077752" lon="7.321972"><ele>3591.4</ele></trkpt>
      <trkpt lat="46.077772" lon="7.321960"><ele>3593.6</ele></trkpt>
      <trkpt lat="46.077795" lon="7.321972"><ele>3600.8</ele></trkpt>
      <trkpt lat="46.077815" lon="7.321955"><ele>3602.0</ele></trkpt>
      <trkpt lat="46.077932" lon="7.322012"><ele>3607.6</ele></trkpt>
      <trkpt lat="46.078112" lon="7.322212"><ele>3610.2</ele></trkpt>
      <trkpt lat="46.078147" lon="7.322337"><ele>3612.4</ele></trkpt>
      <trkpt lat="46.078142" lon="7.322382"><ele>3613.2</ele></trkpt>
      <trkpt lat="46.078092" lon="7.322405"><ele>3613.4</ele></trkpt>
      <trkpt lat="46.078082" lon="7.322435"><ele>3614.4</ele></trkpt>
      <trkpt lat="46.078142" lon="7.322535"><ele>3615.4</ele></trkpt>
      <trkpt lat="46.078132" lon="7.322592"><ele>3615.6</ele></trkpt>
      <trkpt lat="46.078107" lon="7.322610"><ele>3615.6</ele></trkpt>
      <trkpt lat="46.078007" lon="7.322605"><ele>3616.2</ele></trkpt>
      <trkpt lat="46.077992" lon="7.322627"><ele>3617.0</ele></trkpt>
      <trkpt lat="46.077817" lon="7.322662"><ele>3617.4</ele></trkpt>
      <trkpt lat="46.077657" lon="7.322752"><ele>3618.4</ele></trkpt>
      <trkpt lat="46.077487" lon="7.322767"><ele>3618.8</ele></trkpt>
      <trkpt lat="46.077325" lon="7.322852"><ele>3619.6</ele></trkpt>
      <trkpt lat="46.077132" lon="7.323137"><ele>3621.4</ele></trkpt>
      <trkpt lat="46.076740" lon="7.323852"><ele>3622.0</ele></trkpt>
      <trkpt lat="46.076697" lon="7.323972"><ele>3622.0</ele></trkpt>
      <trkpt lat="46.076695" lon="7.324075"><ele>3622.0</ele></trkpt>
      <trkpt lat="46.076747" lon="7.324345"><ele>3622.2</ele></trkpt>
      <trkpt lat="46.076790" lon="7.324905"><ele>3625.6</ele></trkpt>
      <trkpt lat="46.076865" lon="7.325372"><ele>3627.6</ele></trkpt>
      <trkpt lat="46.077427" lon="7.327647"><ele>3635.8</ele></trkpt>
      <trkpt lat="46.077657" lon="7.328755"><ele>3641.4</ele></trkpt>
      <trkpt lat="46.077767" lon="7.329077"><ele>3642.6</ele></trkpt>
      <trkpt lat="46.077957" lon="7.329437"><ele>3651.2</ele></trkpt>
      <trkpt lat="46.078060" lon="7.329700"><ele>3664.0</ele></trkpt>
      <trkpt lat="46.078522" lon="7.330002"><ele>3659.8</ele></trkpt>
      <trkpt lat="46.078802" lon="7.330115"><ele>3651.0</ele></trkpt>
      <trkpt lat="46.079057" lon="7.330272"><ele>3640.4</ele></trkpt>
      <trkpt lat="46.079140" lon="7.330330"><ele>3636.6</ele></trkpt>
      <trkpt lat="46.079200" lon="7.330397"><ele>3633.2</ele></trkpt>
      <trkpt lat="46.079480" lon="7.330587"><ele>3620.4</ele></trkpt>
      <trkpt lat="46.079622" lon="7.330665"><ele>3614.8</ele></trkpt>
      <trkpt lat="46.079697" lon="7.330682"><ele>3612.0</ele></trkpt>
      <trkpt lat="46.079760" lon="7.330725"><ele>3609.2</ele></trkpt>
      <trkpt lat="46.079812" lon="7.330785"><ele>3606.6</ele></trkpt>
      <trkpt lat="46.079885" lon="7.330927"><ele>3597.6</ele></trkpt>
      <trkpt lat="46.079982" lon="7.330927"><ele>3589.4</ele></trkpt>
      <trkpt lat="46.080032" lon="7.330947"><ele>3589.0</ele></trkpt>
      <trkpt lat="46.080090" lon="7.330993"><ele>3588.2</ele></trkpt>
      <trkpt lat="46.080247" lon="7.331072"><ele>3580.8</ele></trkpt>
      <trkpt lat="46.080792" lon="7.331533"><ele>3571.6</ele></trkpt>
      <trkpt lat="46.081032" lon="7.331807"><ele>3548.8</ele></trkpt>
      <trkpt lat="46.081432" lon="7.332412"><ele>3490.8</ele></trkpt>
      <trkpt lat="46.081597" lon="7.332787"><ele>3468.0</ele></trkpt>
      <trkpt lat="46.081632" lon="7.332992"><ele>3452.4</ele></trkpt>
      <trkpt lat="46.081745" lon="7.333312"><ele>3430.0</ele></trkpt>
      <trkpt lat="46.081707" lon="7.333542"><ele>3427.4</ele></trkpt>
      <trkpt lat="46.081582" lon="7.333832"><ele>3424.8</ele></trkpt>
      <trkpt lat="46.081422" lon="7.334277"><ele>3419.8</ele></trkpt>
      <trkpt lat="46.081352" lon="7.334587"><ele>3411.2</ele></trkpt>
      <trkpt lat="46.081287" lon="7.334592"><ele>3410.6</ele></trkpt>
      <trkpt lat="46.081190" lon="7.334567"><ele>3410.2</ele></trkpt>
      <trkpt lat="46.081118" lon="7.334512"><ele>3398.0</ele></trkpt>
      <trkpt lat="46.081057" lon="7.334497"><ele>3392.0</ele></trkpt>
      <trkpt lat="46.080990" lon="7.334447"><ele>3390.8</ele></trkpt>
      <trkpt lat="46.080917" lon="7.334425"><ele>3390.0</ele></trkpt>
      <trkpt lat="46.080820" lon="7.334367"><ele>3389.4</ele></trkpt>
      <trkpt lat="46.080377" lon="7.334488"><ele>3384.4</ele></trkpt>
      <trkpt lat="46.080150" lon="7.334615"><ele>3330.6</ele></trkpt>
      <trkpt lat="46.080062" lon="7.334707"><ele>3295.0</ele></trkpt>
      <trkpt lat="46.079952" lon="7.334762"><ele>3272.2</ele></trkpt>
      <trkpt lat="46.079787" lon="7.334922"><ele>3267.0</ele></trkpt>
      <trkpt lat="46.079585" lon="7.335192"><ele>3256.6</ele></trkpt>
      <trkpt lat="46.079102" lon="7.335757"><ele>3212.0</ele></trkpt>
      <trkpt lat="46.078677" lon="7.336192"><ele>3203.8</ele></trkpt>
      <trkpt lat="46.078560" lon="7.336382"><ele>3198.2</ele></trkpt>
      <trkpt lat="46.078462" lon="7.336602"><ele>3189.2</ele></trkpt>
      <trkpt lat="46.078330" lon="7.337040"><ele>3182.0</ele></trkpt>
      <trkpt lat="46.078315" lon="7.337232"><ele>3178.4</ele></trkpt>
      <trkpt lat="46.078337" lon="7.337462"><ele>3153.0</ele></trkpt>
      <trkpt lat="46.078317" lon="7.337442"><ele>2908.2</ele></trkpt>
      <trkpt lat="46.078307" lon="7.337470"><ele>2793.4</ele></trkpt>
      <trkpt lat="46.078370" lon="7.337637"><ele>2791.8</ele></trkpt>
      <trkpt lat="46.078422" lon="7.337670"><ele>2791.6</ele></trkpt>
      <trkpt lat="46.078477" lon="7.337927"><ele>2793.0</ele></trkpt>
      <trkpt lat="46.078615" lon="7.339357"><ele>2791.2</ele></trkpt>
      <trkpt lat="46.078607" lon="7.339460"><ele>2791.6</ele></trkpt>
      <trkpt lat="46.078507" lon="7.339822"><ele>2794.8</ele></trkpt>
      <trkpt lat="46.078395" lon="7.340142"><ele>2797.2</ele></trkpt>
      <trkpt lat="46.078267" lon="7.340482"><ele>2800.2</ele></trkpt>
      <trkpt lat="46.077900" lon="7.341317"><ele>2806.4</ele></trkpt>
      <trkpt lat="46.077787" lon="7.341610"><ele>2806.6</ele></trkpt>
      <trkpt lat="46.077592" lon="7.342215"><ele>2809.0</ele></trkpt>
      <trkpt lat="46.077585" lon="7.342380"><ele>2810.2</ele></trkpt>
      <trkpt lat="46.077707" lon="7.342770"><ele>2817.2</ele></trkpt>
      <trkpt lat="46.077702" lon="7.342980"><ele>2821.4</ele></trkpt>
      <trkpt lat="46.077587" lon="7.343365"><ele>2826.8</ele></trkpt>
      <trkpt lat="46.077437" lon="7.343702"><ele>2832.6</ele></trkpt>
      <trkpt lat="46.077422" lon="7.343782"><ele>2833.8</ele></trkpt>
      <trkpt lat="46.077427" lon="7.344100"><ele>2839.4</ele></trkpt>
      <trkpt lat="46.077407" lon="7.344212"><ele>2841.4</ele></trkpt>
      <trkpt lat="46.077382" lon="7.344245"><ele>2842.6</ele></trkpt>
      <trkpt lat="46.077327" lon="7.344257"><ele>2844.0</ele></trkpt>
      <trkpt lat="46.077252" lon="7.344427"><ele>2847.8</ele></trkpt>
      <trkpt lat="46.077237" lon="7.344547"><ele>2850.4</ele></trkpt>
      <trkpt lat="46.077247" lon="7.344800"><ele>2855.4</ele></trkpt>
      <trkpt lat="46.077267" lon="7.344908"><ele>2856.8</ele></trkpt>
      <trkpt lat="46.077402" lon="7.345267"><ele>2861.8</ele></trkpt>
      <trkpt lat="46.077510" lon="7.345447"><ele>2866.6</ele></trkpt>
      <trkpt lat="46.077525" lon="7.345497"><ele>2867.4</ele></trkpt>
      <trkpt lat="46.077447" lon="7.345852"><ele>2874.6</ele></trkpt>
      <trkpt lat="46.077412" lon="7.346112"><ele>2880.4</ele></trkpt>
      <trkpt lat="46.077415" lon="7.346230"><ele>2883.0</ele></trkpt>
      <trkpt lat="46.077442" lon="7.346277"><ele>2884.4</ele></trkpt>
      <trkpt lat="46.077607" lon="7.346380"><ele>2888.4</ele></trkpt>
      <trkpt lat="46.077642" lon="7.346512"><ele>2892.0</ele></trkpt>
      <trkpt lat="46.077643" lon="7.346627"><ele>2894.2</ele></trkpt>
      <trkpt lat="46.077677" lon="7.346727"><ele>2896.0</ele></trkpt>
      <trkpt lat="46.078147" lon="7.347530"><ele>2904.6</ele></trkpt>
      <trkpt lat="46.078217" lon="7.347620"><ele>2905.6</ele></trkpt>
      <trkpt lat="46.078290" lon="7.347682"><ele>2907.4</ele></trkpt>
      <trkpt lat="46.078525" lon="7.348137"><ele>2915.6</ele></trkpt>
      <trkpt lat="46.078627" lon="7.348422"><ele>2918.8</ele></trkpt>
      <trkpt lat="46.078847" lon="7.348870"><ele>2922.6</ele></trkpt>
      <trkpt lat="46.078887" lon="7.349140"><ele>2927.4</ele></trkpt>
      <trkpt lat="46.078952" lon="7.349332"><ele>2929.0</ele></trkpt>
      <trkpt lat="46.079072" lon="7.349805"><ele>2936.2</ele></trkpt>
      <trkpt lat="46.079157" lon="7.349987"><ele>2939.4</ele></trkpt>
      <trkpt lat="46.079170" lon="7.350070"><ele>2940.8</ele></trkpt>
      <trkpt lat="46.079165" lon="7.350287"><ele>2943.2</ele></trkpt>
      <trkpt lat="46.079102" lon="7.350610"><ele>2948.6</ele></trkpt>
      <trkpt lat="46.079110" lon="7.350897"><ele>2953.2</ele></trkpt>
      <trkpt lat="46.079042" lon="7.351180"><ele>2959.8</ele></trkpt>
      <trkpt lat="46.079027" lon="7.351355"><ele>2962.6</ele></trkpt>
      <trkpt lat="46.078910" lon="7.351500"><ele>2966.6</ele></trkpt>
      <trkpt lat="46.078892" lon="7.351548"><ele>2967.4</ele></trkpt>
      <trkpt lat="46.078895" lon="7.351692"><ele>2969.4</ele></trkpt>
      <trkpt lat="46.078862" lon="7.351855"><ele>2973.2</ele></trkpt>
      <trkpt lat="46.078965" lon="7.352375"><ele>2978.4</ele></trkpt>
      <trkpt lat="46.078982" lon="7.352547"><ele>2978.8</ele></trkpt>
      <trkpt lat="46.078947" lon="7.352825"><ele>2983.0</ele></trkpt>
      <trkpt lat="46.078917" lon="7.352930"><ele>2985.6</ele></trkpt>
      <trkpt lat="46.078850" lon="7.353052"><ele>2987.8</ele></trkpt>
      <trkpt lat="46.078737" lon="7.353137"><ele>2990.0</ele></trkpt>
      <trkpt lat="46.078640" lon="7.353182"><ele>2988.6</ele></trkpt>
      <trkpt lat="46.078572" lon="7.353237"><ele>2990.4</ele></trkpt>
      <trkpt lat="46.078527" lon="7.353247"><ele>2991.8</ele></trkpt>
      <trkpt lat="46.078460" lon="7.353300"><ele>2994.0</ele></trkpt>
      <trkpt lat="46.078360" lon="7.353347"><ele>2997.0</ele></trkpt>
      <trkpt lat="46.078285" lon="7.353362"><ele>2998.2</ele></trkpt>
      <trkpt lat="46.078145" lon="7.353322"><ele>3001.2</ele></trkpt>
      <trkpt lat="46.078037" lon="7.353422"><ele>3004.0</ele></trkpt>
      <trkpt lat="46.077972" lon="7.353542"><ele>3004.2</ele></trkpt>
      <trkpt lat="46.078007" lon="7.353767"><ele>3003.8</ele></trkpt>
      <trkpt lat="46.077995" lon="7.353862"><ele>3003.4</ele></trkpt>
      <trkpt lat="46.077937" lon="7.353942"><ele>3002.4</ele></trkpt>
      <trkpt lat="46.077897" lon="7.353970"><ele>3002.4</ele></trkpt>
      <trkpt lat="46.077767" lon="7.353997"><ele>3003.8</ele></trkpt>
      <trkpt lat="46.077697" lon="7.354140"><ele>3007.2</ele></trkpt>
      <trkpt lat="46.077652" lon="7.354110"><ele>3013.0</ele></trkpt>
      <trkpt lat="46.077502" lon="7.354067"><ele>3014.2</ele></trkpt>
      <trkpt lat="46.077492" lon="7.354392"><ele>3019.0</ele></trkpt>
      <trkpt lat="46.077462" lon="7.354507"><ele>3021.8</ele></trkpt>
      <trkpt lat="46.077502" lon="7.354817"><ele>3020.2</ele></trkpt>
      <trkpt lat="46.077532" lon="7.354895"><ele>3019.0</ele></trkpt>
      <trkpt lat="46.077562" lon="7.354930"><ele>3019.0</ele></trkpt>
      <trkpt lat="46.077612" lon="7.354957"><ele>3018.6</ele></trkpt>
      <trkpt lat="46.077697" lon="7.355050"><ele>3017.6</ele></trkpt>
      <trkpt lat="46.077750" lon="7.355057"><ele>3016.4</ele></trkpt>
      <trkpt lat="46.077797" lon="7.355092"><ele>3014.6</ele></trkpt>
      <trkpt lat="46.078023" lon="7.355077"><ele>3004.8</ele></trkpt>
      <trkpt lat="46.078152" lon="7.355107"><ele>2999.8</ele></trkpt>
      <trkpt lat="46.078207" lon="7.355138"><ele>2997.2</ele></trkpt>
      <trkpt lat="46.078410" lon="7.355152"><ele>2988.0</ele></trkpt>
      <trkpt lat="46.078472" lon="7.355195"><ele>2985.2</ele></trkpt>
      <trkpt lat="46.078675" lon="7.355252"><ele>2977.0</ele></trkpt>
      <trkpt lat="46.078747" lon="7.355247"><ele>2974.2</ele></trkpt>
      <trkpt lat="46.078957" lon="7.355337"><ele>2966.6</ele></trkpt>
      <trkpt lat="46.079162" lon="7.355402"><ele>2959.8</ele></trkpt>
      <trkpt lat="46.079362" lon="7.355425"><ele>2953.2</ele></trkpt>
      <trkpt lat="46.079572" lon="7.355375"><ele>2947.0</ele></trkpt>
      <trkpt lat="46.079890" lon="7.355367"><ele>2938.2</ele></trkpt>
      <trkpt lat="46.079947" lon="7.355387"><ele>2931.0</ele></trkpt>
      <trkpt lat="46.079977" lon="7.355420"><ele>2930.8</ele></trkpt>
      <trkpt lat="46.080288" lon="7.355520"><ele>2929.4</ele></trkpt>
      <trkpt lat="46.080447" lon="7.355707"><ele>2926.0</ele></trkpt>
      <trkpt lat="46.080477" lon="7.355647"><ele>2923.8</ele></trkpt>
      <trkpt lat="46.080525" lon="7.355617"><ele>2923.8</ele></trkpt>
      <trkpt lat="46.080572" lon="7.355622"><ele>2923.6</ele></trkpt>
      <trkpt lat="46.080617" lon="7.355592"><ele>2923.4</ele></trkpt>
      <trkpt lat="46.080945" lon="7.355192"><ele>2911.2</ele></trkpt>
      <trkpt lat="46.081130" lon="7.354897"><ele>2899.2</ele></trkpt>
      <trkpt lat="46.081352" lon="7.354480"><ele>2885.8</ele></trkpt>
      <trkpt lat="46.081507" lon="7.354272"><ele>2885.4</ele></trkpt>
      <trkpt lat="46.081707" lon="7.354142"><ele>2885.4</ele></trkpt>
      <trkpt lat="46.081950" lon="7.354035"><ele>2885.6</ele></trkpt>
      <trkpt lat="46.082067" lon="7.353967"><ele>2885.8</ele></trkpt>
      <trkpt lat="46.082192" lon="7.353865"><ele>2887.4</ele></trkpt>
      <trkpt lat="46.082407" lon="7.353782"><ele>2887.6</ele></trkpt>
      <trkpt lat="46.082517" lon="7.353802"><ele>2888.6</ele></trkpt>
      <trkpt lat="46.082552" lon="7.353827"><ele>2889.0</ele></trkpt>
      <trkpt lat="46.082447" lon="7.353667"><ele>2887.4</ele></trkpt>
      <trkpt lat="46.082427" lon="7.353612"><ele>2887.2</ele></trkpt>
      <trkpt lat="46.082432" lon="7.353522"><ele>2886.2</ele></trkpt>
      <trkpt lat="46.082462" lon="7.353487"><ele>2884.2</ele></trkpt>
      <trkpt lat="46.082567" lon="7.353450"><ele>2881.0</ele></trkpt>
      <trkpt lat="46.082622" lon="7.353275"><ele>2873.2</ele></trkpt>
      <trkpt lat="46.082682" lon="7.353272"><ele>2869.0</ele></trkpt>
      <trkpt lat="46.082762" lon="7.353372"><ele>2865.8</ele></trkpt>
      <trkpt lat="46.082810" lon="7.353332"><ele>2864.4</ele></trkpt>
      <trkpt lat="46.082837" lon="7.353337"><ele>2864.2</ele></trkpt>
      <trkpt lat="46.082850" lon="7.353367"><ele>2863.6</ele></trkpt>
      <trkpt lat="46.082937" lon="7.353355"><ele>2850.6</ele></trkpt>
      <trkpt lat="46.083042" lon="7.353422"><ele>2846.6</ele></trkpt>
      <trkpt lat="46.083382" lon="7.354085"><ele>2834.6</ele></trkpt>
      <trkpt lat="46.083495" lon="7.354252"><ele>2830.6</ele></trkpt>
      <trkpt lat="46.083615" lon="7.354607"><ele>2820.4</ele></trkpt>
      <trkpt lat="46.083752" lon="7.354822"><ele>2819.8</ele></trkpt>
      <trkpt lat="46.083855" lon="7.354790"><ele>2818.0</ele></trkpt>
      <trkpt lat="46.083907" lon="7.354800"><ele>2816.8</ele></trkpt>
      <trkpt lat="46.083962" lon="7.354755"><ele>2815.8</ele></trkpt>
      <trkpt lat="46.084407" lon="7.354637"><ele>2797.6</ele></trkpt>
      <trkpt lat="46.084467" lon="7.354597"><ele>2794.0</ele></trkpt>
      <trkpt lat="46.084590" lon="7.354577"><ele>2787.6</ele></trkpt>
      <trkpt lat="46.084792" lon="7.354477"><ele>2776.8</ele></trkpt>
      <trkpt lat="46.084932" lon="7.354432"><ele>2769.4</ele></trkpt>
      <trkpt lat="46.085002" lon="7.354432"><ele>2765.6</ele></trkpt>
      <trkpt lat="46.085072" lon="7.354397"><ele>2761.6</ele></trkpt>
      <trkpt lat="46.085142" lon="7.354392"><ele>2758.2</ele></trkpt>
      <trkpt lat="46.085347" lon="7.354267"><ele>2746.6</ele></trkpt>
      <trkpt lat="46.085862" lon="7.354080"><ele>2719.8</ele></trkpt>
      <trkpt lat="46.086132" lon="7.353892"><ele>2704.4</ele></trkpt>
      <trkpt lat="46.086212" lon="7.353725"><ele>2697.4</ele></trkpt>
      <trkpt lat="46.086272" lon="7.353662"><ele>2694.2</ele></trkpt>
      <trkpt lat="46.086420" lon="7.353587"><ele>2688.4</ele></trkpt>
      <trkpt lat="46.086572" lon="7.353417"><ele>2681.6</ele></trkpt>
      <trkpt lat="46.086787" lon="7.353102"><ele>2673.0</ele></trkpt>
      <trkpt lat="46.087012" lon="7.352835"><ele>2664.4</ele></trkpt>
      <trkpt lat="46.087150" lon="7.352712"><ele>2659.8</ele></trkpt>
      <trkpt lat="46.087272" lon="7.352635"><ele>2654.8</ele></trkpt>
      <trkpt lat="46.087315" lon="7.352572"><ele>2653.0</ele></trkpt>
      <trkpt lat="46.087397" lon="7.352185"><ele>2641.2</ele></trkpt>
      <trkpt lat="46.087648" lon="7.351660"><ele>2635.2</ele></trkpt>
      <trkpt lat="46.088017" lon="7.351307"><ele>2623.2</ele></trkpt>
      <trkpt lat="46.088090" lon="7.351262"><ele>2621.2</ele></trkpt>
      <trkpt lat="46.088502" lon="7.351167"><ele>2613.8</ele></trkpt>
      <trkpt lat="46.088610" lon="7.351127"><ele>2611.8</ele></trkpt>
      <trkpt lat="46.088647" lon="7.351097"><ele>2611.0</ele></trkpt>
      <trkpt lat="46.088995" lon="7.350942"><ele>2606.2</ele></trkpt>
      <trkpt lat="46.089087" lon="7.350857"><ele>2605.0</ele></trkpt>
      <trkpt lat="46.089202" lon="7.350680"><ele>2603.4</ele></trkpt>
      <trkpt lat="46.089275" lon="7.350427"><ele>2599.4</ele></trkpt>
      <trkpt lat="46.089347" lon="7.350260"><ele>2595.6</ele></trkpt>
      <trkpt lat="46.089382" lon="7.350210"><ele>2594.6</ele></trkpt>
      <trkpt lat="46.089437" lon="7.350182"><ele>2594.0</ele></trkpt>
      <trkpt lat="46.089522" lon="7.350062"><ele>2592.4</ele></trkpt>
      <trkpt lat="46.089767" lon="7.349547"><ele>2576.2</ele></trkpt>
      <trkpt lat="46.089815" lon="7.349512"><ele>2574.4</ele></trkpt>
      <trkpt lat="46.089850" lon="7.349525"><ele>2573.6</ele></trkpt>
      <trkpt lat="46.089900" lon="7.349500"><ele>2573.0</ele></trkpt>
      <trkpt lat="46.089937" lon="7.349447"><ele>2572.6</ele></trkpt>
      <trkpt lat="46.089990" lon="7.349207"><ele>2569.0</ele></trkpt>
      <trkpt lat="46.089987" lon="7.348890"><ele>2561.2</ele></trkpt>
      <trkpt lat="46.090007" lon="7.348692"><ele>2557.6</ele></trkpt>
      <trkpt lat="46.090045" lon="7.348637"><ele>2556.6</ele></trkpt>
      <trkpt lat="46.090107" lon="7.348617"><ele>2555.6</ele></trkpt>
      <trkpt lat="46.090170" lon="7.348550"><ele>2554.6</ele></trkpt>
      <trkpt lat="46.090232" lon="7.348445"><ele>2553.2</ele></trkpt>
      <trkpt lat="46.090307" lon="7.348355"><ele>2551.6</ele></trkpt>
      <trkpt lat="46.090465" lon="7.348212"><ele>2547.6</ele></trkpt>
      <trkpt lat="46.090782" lon="7.347807"><ele>2536.8</ele></trkpt>
      <trkpt lat="46.090840" lon="7.347760"><ele>2535.4</ele></trkpt>
      <trkpt lat="46.091060" lon="7.347667"><ele>2531.4</ele></trkpt>
      <trkpt lat="46.091100" lon="7.347625"><ele>2530.6</ele></trkpt>
      <trkpt lat="46.091760" lon="7.346685"><ele>2521.4</ele></trkpt>
      <trkpt lat="46.091837" lon="7.346512"><ele>2519.8</ele></trkpt>
      <trkpt lat="46.091877" lon="7.346275"><ele>2518.0</ele></trkpt>
      <trkpt lat="46.092000" lon="7.346087"><ele>2516.2</ele></trkpt>
      <trkpt lat="46.092057" lon="7.346042"><ele>2515.4</ele></trkpt>
      <trkpt lat="46.092250" lon="7.345777"><ele>2509.8</ele></trkpt>
      <trkpt lat="46.092647" lon="7.345362"><ele>2499.4</ele></trkpt>
      <trkpt lat="46.092885" lon="7.345137"><ele>2495.6</ele></trkpt>
      <trkpt lat="46.093132" lon="7.344792"><ele>2491.6</ele></trkpt>
      <trkpt lat="46.093370" lon="7.344547"><ele>2487.4</ele></trkpt>
      <trkpt lat="46.093457" lon="7.344432"><ele>2485.8</ele></trkpt>
      <trkpt lat="46.093627" lon="7.344122"><ele>2482.2</ele></trkpt>
      <trkpt lat="46.093710" lon="7.343932"><ele>2479.2</ele></trkpt>
      <trkpt lat="46.093783" lon="7.343852"><ele>2478.8</ele></trkpt>
      <trkpt lat="46.093805" lon="7.343800"><ele>2478.6</ele></trkpt>
      <trkpt lat="46.093827" lon="7.343292"><ele>2472.4</ele></trkpt>
      <trkpt lat="46.093797" lon="7.343015"><ele>2469.0</ele></trkpt>
      <trkpt lat="46.093800" lon="7.342620"><ele>2465.8</ele></trkpt>
      <trkpt lat="46.093812" lon="7.342545"><ele>2465.0</ele></trkpt>
      <trkpt lat="46.093892" lon="7.342415"><ele>2463.0</ele></trkpt>
      <trkpt lat="46.093902" lon="7.342327"><ele>2462.0</ele></trkpt>
      <trkpt lat="46.093937" lon="7.342267"><ele>2460.8</ele></trkpt>
      <trkpt lat="46.094092" lon="7.342282"><ele>2455.8</ele></trkpt>
      <trkpt lat="46.094185" lon="7.342192"><ele>2452.4</ele></trkpt>
      <trkpt lat="46.094232" lon="7.342177"><ele>2450.6</ele></trkpt>
      <trkpt lat="46.094282" lon="7.342125"><ele>2449.2</ele></trkpt>
      <trkpt lat="46.094345" lon="7.342117"><ele>2447.6</ele></trkpt>
      <trkpt lat="46.094457" lon="7.342182"><ele>2443.2</ele></trkpt>
      <trkpt lat="46.094587" lon="7.342167"><ele>2437.8</ele></trkpt>
      <trkpt lat="46.094645" lon="7.342200"><ele>2435.0</ele></trkpt>
      <trkpt lat="46.094782" lon="7.342157"><ele>2430.2</ele></trkpt>
      <trkpt lat="46.094852" lon="7.342152"><ele>2427.2</ele></trkpt>
      <trkpt lat="46.094927" lon="7.342120"><ele>2424.6</ele></trkpt>
      <trkpt lat="46.095002" lon="7.342127"><ele>2422.2</ele></trkpt>
      <trkpt lat="46.095087" lon="7.342097"><ele>2419.4</ele></trkpt>
      <trkpt lat="46.095262" lon="7.342095"><ele>2413.6</ele></trkpt>
      <trkpt lat="46.095350" lon="7.342067"><ele>2411.0</ele></trkpt>
      <trkpt lat="46.095932" lon="7.342080"><ele>2396.6</ele></trkpt>
      <trkpt lat="46.096240" lon="7.341987"><ele>2392.6</ele></trkpt>
      <trkpt lat="46.096432" lon="7.341890"><ele>2391.2</ele></trkpt>
      <trkpt lat="46.096872" lon="7.341547"><ele>2388.8</ele></trkpt>
      <trkpt lat="46.097580" lon="7.340702"><ele>2382.4</ele></trkpt>
      <trkpt lat="46.097792" lon="7.340510"><ele>2380.6</ele></trkpt>
      <trkpt lat="46.098117" lon="7.340317"><ele>2377.8</ele></trkpt>
      <trkpt lat="46.098287" lon="7.340237"><ele>2377.0</ele></trkpt>
      <trkpt lat="46.098437" lon="7.340192"><ele>2376.6</ele></trkpt>
      <trkpt lat="46.098822" lon="7.340125"><ele>2374.8</ele></trkpt>
      <trkpt lat="46.099280" lon="7.339992"><ele>2370.8</ele></trkpt>
      <trkpt lat="46.099550" lon="7.339885"><ele>2368.2</ele></trkpt>
      <trkpt lat="46.099852" lon="7.339812"><ele>2366.6</ele></trkpt>
      <trkpt lat="46.100067" lon="7.339710"><ele>2366.0</ele></trkpt>
      <trkpt lat="46.100337" lon="7.339622"><ele>2364.0</ele></trkpt>
      <trkpt lat="46.100607" lon="7.339572"><ele>2361.8</ele></trkpt>
      <trkpt lat="46.100917" lon="7.339582"><ele>2360.4</ele></trkpt>
      <trkpt lat="46.101157" lon="7.339540"><ele>2357.8</ele></trkpt>
      <trkpt lat="46.101287" lon="7.339460"><ele>2357.2</ele></trkpt>
      <trkpt lat="46.101607" lon="7.339117"><ele>2352.6</ele></trkpt>
      <trkpt lat="46.101967" lon="7.338602"><ele>2348.8</ele></trkpt>
      <trkpt lat="46.102082" lon="7.338362"><ele>2347.4</ele></trkpt>
      <trkpt lat="46.102150" lon="7.338147"><ele>2346.0</ele></trkpt>
      <trkpt lat="46.102210" lon="7.337882"><ele>2343.6</ele></trkpt>
      <trkpt lat="46.102487" lon="7.337112"><ele>2338.8</ele></trkpt>
      <trkpt lat="46.102557" lon="7.336777"><ele>2336.4</ele></trkpt>
      <trkpt lat="46.102717" lon="7.336482"><ele>2332.6</ele></trkpt>
      <trkpt lat="46.102697" lon="7.336362"><ele>2331.4</ele></trkpt>
      <trkpt lat="46.102722" lon="7.336302"><ele>2330.8</ele></trkpt>
      <trkpt lat="46.102767" lon="7.336257"><ele>2329.4</ele></trkpt>
      <trkpt lat="46.102807" lon="7.336162"><ele>2323.4</ele></trkpt>
      <trkpt lat="46.103087" lon="7.335947"><ele>2316.0</ele></trkpt>
      <trkpt lat="46.103437" lon="7.335522"><ele>2305.4</ele></trkpt>
      <trkpt lat="46.103420" lon="7.335412"><ele>2303.4</ele></trkpt>
      <trkpt lat="46.103445" lon="7.335270"><ele>2300.8</ele></trkpt>
      <trkpt lat="46.103427" lon="7.335180"><ele>2297.0</ele></trkpt>
      <trkpt lat="46.103427" lon="7.334917"><ele>2293.8</ele></trkpt>
      <trkpt lat="46.103362" lon="7.334495"><ele>2289.2</ele></trkpt>
      <trkpt lat="46.103377" lon="7.333702"><ele>2279.2</ele></trkpt>
      <trkpt lat="46.103417" lon="7.333397"><ele>2276.4</ele></trkpt>
      <trkpt lat="46.103507" lon="7.332990"><ele>2273.2</ele></trkpt>
      <trkpt lat="46.103690" lon="7.332352"><ele>2268.8</ele></trkpt>
      <trkpt lat="46.103832" lon="7.331737"><ele>2264.0</ele></trkpt>
      <trkpt lat="46.103990" lon="7.331372"><ele>2259.8</ele></trkpt>
      <trkpt lat="46.104050" lon="7.331162"><ele>2258.2</ele></trkpt>
      <trkpt lat="46.104127" lon="7.331017"><ele>2255.6</ele></trkpt>
      <trkpt lat="46.104230" lon="7.330897"><ele>2253.6</ele></trkpt>
      <trkpt lat="46.104265" lon="7.330820"><ele>2252.4</ele></trkpt>
      <trkpt lat="46.104332" lon="7.330562"><ele>2249.0</ele></trkpt>
      <trkpt lat="46.104387" lon="7.330447"><ele>2247.0</ele></trkpt>
      <trkpt lat="46.104447" lon="7.330152"><ele>2243.4</ele></trkpt>
      <trkpt lat="46.104480" lon="7.330095"><ele>2243.2</ele></trkpt>
      <trkpt lat="46.104587" lon="7.330022"><ele>2241.8</ele></trkpt>
      <trkpt lat="46.104697" lon="7.329885"><ele>2240.4</ele></trkpt>
      <trkpt lat="46.104792" lon="7.329735"><ele>2239.2</ele></trkpt>
      <trkpt lat="46.105005" lon="7.329322"><ele>2232.0</ele></trkpt>
      <trkpt lat="46.105047" lon="7.329017"><ele>2230.6</ele></trkpt>
      <trkpt lat="46.105022" lon="7.328612"><ele>2228.2</ele></trkpt>
      <trkpt lat="46.105037" lon="7.328445"><ele>2227.2</ele></trkpt>
      <trkpt lat="46.105072" lon="7.328297"><ele>2226.0</ele></trkpt>
      <trkpt lat="46.105227" lon="7.327837"><ele>2219.2</ele></trkpt>
      <trkpt lat="46.105337" lon="7.327607"><ele>2216.4</ele></trkpt>
      <trkpt lat="46.105472" lon="7.327213"><ele>2212.2</ele></trkpt>
      <trkpt lat="46.105547" lon="7.327090"><ele>2210.6</ele></trkpt>
      <trkpt lat="46.105587" lon="7.327042"><ele>2210.2</ele></trkpt>
      <trkpt lat="46.105787" lon="7.326900"><ele>2208.8</ele></trkpt>
      <trkpt lat="46.105925" lon="7.326768"><ele>2207.8</ele></trkpt>
      <trkpt lat="46.106207" lon="7.326392"><ele>2205.0</ele></trkpt>
      <trkpt lat="46.106315" lon="7.326195"><ele>2204.2</ele></trkpt>
      <trkpt lat="46.106382" lon="7.326110"><ele>2203.6</ele></trkpt>
      <trkpt lat="46.106470" lon="7.326080"><ele>2203.0</ele></trkpt>
      <trkpt lat="46.106597" lon="7.326127"><ele>2202.2</ele></trkpt>
      <trkpt lat="46.106685" lon="7.326187"><ele>2202.0</ele></trkpt>
      <trkpt lat="46.106777" lon="7.326197"><ele>2202.2</ele></trkpt>
      <trkpt lat="46.106935" lon="7.326185"><ele>2202.4</ele></trkpt>
      <trkpt lat="46.107025" lon="7.326152"><ele>2202.2</ele></trkpt>
      <trkpt lat="46.107205" lon="7.326047"><ele>2202.8</ele></trkpt>
      <trkpt lat="46.107387" lon="7.325910"><ele>2203.8</ele></trkpt>
      <trkpt lat="46.107567" lon="7.325722"><ele>2203.2</ele></trkpt>
      <trkpt lat="46.107625" lon="7.325685"><ele>2203.4</ele></trkpt>
      <trkpt lat="46.107787" lon="7.325525"><ele>2203.4</ele></trkpt>
      <trkpt lat="46.107897" lon="7.325552"><ele>2203.6</ele></trkpt>
      <trkpt lat="46.107972" lon="7.325647"><ele>2203.8</ele></trkpt>
      <trkpt lat="46.108050" lon="7.325702"><ele>2204.2</ele></trkpt>
      <trkpt lat="46.108137" lon="7.325718"><ele>2204.8</ele></trkpt>
      <trkpt lat="46.108317" lon="7.325795"><ele>2204.2</ele></trkpt>
      <trkpt lat="46.108402" lon="7.325792"><ele>2203.8</ele></trkpt>
      <trkpt lat="46.108642" lon="7.325887"><ele>2203.6</ele></trkpt>
      <trkpt lat="46.108697" lon="7.325875"><ele>2204.2</ele></trkpt>
      <trkpt lat="46.108865" lon="7.325890"><ele>2204.0</ele></trkpt>
      <trkpt lat="46.108960" lon="7.325878"><ele>2203.4</ele></trkpt>
      <trkpt lat="46.109017" lon="7.325902"><ele>2203.4</ele></trkpt>
      <trkpt lat="46.109030" lon="7.325925"><ele>2203.6</ele></trkpt>
      <trkpt lat="46.109107" lon="7.325920"><ele>2204.2</ele></trkpt>
      <trkpt lat="46.109388" lon="7.325812"><ele>2203.6</ele></trkpt>
      <trkpt lat="46.109672" lon="7.325752"><ele>2204.0</ele></trkpt>
      <trkpt lat="46.109812" lon="7.325697"><ele>2203.8</ele></trkpt>
      <trkpt lat="46.110277" lon="7.325560"><ele>2204.2</ele></trkpt>
      <trkpt lat="46.110395" lon="7.325500"><ele>2205.0</ele></trkpt>
      <trkpt lat="46.110597" lon="7.325477"><ele>2204.2</ele></trkpt>
      <trkpt lat="46.110722" lon="7.325405"><ele>2204.6</ele></trkpt>
      <trkpt lat="46.110792" lon="7.325337"><ele>2204.6</ele></trkpt>
      <trkpt lat="46.110907" lon="7.325140"><ele>2203.4</ele></trkpt>
      <trkpt lat="46.110945" lon="7.325125"><ele>2203.4</ele></trkpt>
      <trkpt lat="46.111022" lon="7.325137"><ele>2204.0</ele></trkpt>
      <trkpt lat="46.111133" lon="7.325127"><ele>2204.8</ele></trkpt>
      <trkpt lat="46.111203" lon="7.325155"><ele>2204.4</ele></trkpt>
      <trkpt lat="46.111235" lon="7.325187"><ele>2204.4</ele></trkpt>
      <trkpt lat="46.111272" lon="7.325272"><ele>2203.8</ele></trkpt>
      <trkpt lat="46.111347" lon="7.325560"><ele>2203.2</ele></trkpt>
      <trkpt lat="46.111412" lon="7.325677"><ele>2203.4</ele></trkpt>
      <trkpt lat="46.111577" lon="7.325760"><ele>2204.0</ele></trkpt>
      <trkpt lat="46.111750" lon="7.325907"><ele>2204.6</ele></trkpt>
      <trkpt lat="46.111807" lon="7.325930"><ele>2204.8</ele></trkpt>
      <trkpt lat="46.111925" lon="7.325910"><ele>2204.6</ele></trkpt>
      <trkpt lat="46.112202" lon="7.325732"><ele>2202.6</ele></trkpt>
      <trkpt lat="46.112257" lon="7.325682"><ele>2202.2</ele></trkpt>
      <trkpt lat="46.112357" lon="7.325532"><ele>2201.6</ele></trkpt>
      <trkpt lat="46.112457" lon="7.325452"><ele>2198.6</ele></trkpt>
      <trkpt lat="46.112557" lon="7.325402"><ele>2198.0</ele></trkpt>
      <trkpt lat="46.112627" lon="7.325330"><ele>2198.4</ele></trkpt>
      <trkpt lat="46.112723" lon="7.325115"><ele>2198.8</ele></trkpt>
      <trkpt lat="46.112800" lon="7.324985"><ele>2198.6</ele></trkpt>
      <trkpt lat="46.112862" lon="7.324587"><ele>2197.4</ele></trkpt>
      <trkpt lat="46.112927" lon="7.324360"><ele>2196.0</ele></trkpt>
      <trkpt lat="46.113112" lon="7.324072"><ele>2195.6</ele></trkpt>
      <trkpt lat="46.113130" lon="7.324052"><ele>2195.2</ele></trkpt>
      <trkpt lat="46.113162" lon="7.324055"><ele>2195.2</ele></trkpt>
      <trkpt lat="46.113127" lon="7.324015"><ele>2196.2</ele></trkpt>
      <trkpt lat="46.113107" lon="7.324027"><ele>2196.2</ele></trkpt>
      <trkpt lat="46.113112" lon="7.324060"><ele>2196.8</ele></trkpt>
      <trkpt lat="46.113145" lon="7.324052"><ele>2195.6</ele></trkpt>
      <trkpt lat="46.113147" lon="7.323992"><ele>2195.4</ele></trkpt>
      <trkpt lat="46.113097" lon="7.323882"><ele>2194.8</ele></trkpt>
      <trkpt lat="46.113102" lon="7.323802"><ele>2193.8</ele></trkpt>
      <trkpt lat="46.113062" lon="7.323687"><ele>2189.8</ele></trkpt>
      <trkpt lat="46.113077" lon="7.323612"><ele>2187.8</ele></trkpt>
      <trkpt lat="46.113032" lon="7.323515"><ele>2183.8</ele></trkpt>
      <trkpt lat="46.113052" lon="7.323357"><ele>2178.8</ele></trkpt>
      <trkpt lat="46.113037" lon="7.323345"><ele>2177.8</ele></trkpt>
      <trkpt lat="46.113030" lon="7.323232"><ele>2171.0</ele></trkpt>
      <trkpt lat="46.112967" lon="7.323040"><ele>2162.6</ele></trkpt>
      <trkpt lat="46.112947" lon="7.322917"><ele>2156.8</ele></trkpt>
      <trkpt lat="46.112975" lon="7.322817"><ele>2155.0</ele></trkpt>
      <trkpt lat="46.112962" lon="7.322747"><ele>2152.0</ele></trkpt>
      <trkpt lat="46.112987" lon="7.322702"><ele>2150.0</ele></trkpt>
      <trkpt lat="46.112972" lon="7.322617"><ele>2148.2</ele></trkpt>
      <trkpt lat="46.113030" lon="7.322352"><ele>2144.0</ele></trkpt>
      <trkpt lat="46.112972" lon="7.322247"><ele>2138.0</ele></trkpt>
      <trkpt lat="46.112980" lon="7.322070"><ele>2137.2</ele></trkpt>
      <trkpt lat="46.112902" lon="7.321815"><ele>2135.6</ele></trkpt>
      <trkpt lat="46.112875" lon="7.321540"><ele>2133.0</ele></trkpt>
      <trkpt lat="46.112732" lon="7.321352"><ele>2129.2</ele></trkpt>
      <trkpt lat="46.112707" lon="7.321277"><ele>2127.6</ele></trkpt>
      <trkpt lat="46.112717" lon="7.321037"><ele>2125.4</ele></trkpt>
      <trkpt lat="46.112792" lon="7.320647"><ele>2124.4</ele></trkpt>
      <trkpt lat="46.112747" lon="7.320435"><ele>2124.6</ele></trkpt>
      <trkpt lat="46.112677" lon="7.320287"><ele>2124.4</ele></trkpt>
      <trkpt lat="46.112617" lon="7.320202"><ele>2124.0</ele></trkpt>
      <trkpt lat="46.112597" lon="7.320107"><ele>2123.8</ele></trkpt>
      <trkpt lat="46.112567" lon="7.319722"><ele>2122.2</ele></trkpt>
      <trkpt lat="46.112600" lon="7.319567"><ele>2121.0</ele></trkpt>
      <trkpt lat="46.112612" lon="7.319127"><ele>2120.2</ele></trkpt>
      <trkpt lat="46.112660" lon="7.318915"><ele>2119.4</ele></trkpt>
      <trkpt lat="46.112878" lon="7.318247"><ele>2114.6</ele></trkpt>
      <trkpt lat="46.113025" lon="7.317885"><ele>2111.8</ele></trkpt>
      <trkpt lat="46.113270" lon="7.317370"><ele>2107.4</ele></trkpt>
      <trkpt lat="46.113302" lon="7.317220"><ele>2106.0</ele></trkpt>
      <trkpt lat="46.113422" lon="7.316952"><ele>2103.2</ele></trkpt>
      <trkpt lat="46.113622" lon="7.316585"><ele>2098.0</ele></trkpt>
      <trkpt lat="46.113667" lon="7.316455"><ele>2096.4</ele></trkpt>
      <trkpt lat="46.113692" lon="7.316315"><ele>2095.2</ele></trkpt>
      <trkpt lat="46.113782" lon="7.316075"><ele>2092.6</ele></trkpt>
      <trkpt lat="46.114092" lon="7.315737"><ele>2088.6</ele></trkpt>
      <trkpt lat="46.114447" lon="7.315452"><ele>2083.2</ele></trkpt>
      <trkpt lat="46.114602" lon="7.315355"><ele>2081.2</ele></trkpt>
      <trkpt lat="46.114750" lon="7.315312"><ele>2077.8</ele></trkpt>
      <trkpt lat="46.114805" lon="7.315280"><ele>2076.0</ele></trkpt>
      <trkpt lat="46.115495" lon="7.314817"><ele>2064.8</ele></trkpt>
      <trkpt lat="46.115577" lon="7.314667"><ele>2062.4</ele></trkpt>
      <trkpt lat="46.115622" lon="7.314635"><ele>2062.2</ele></trkpt>
      <trkpt lat="46.116027" lon="7.314412"><ele>2055.4</ele></trkpt>
      <trkpt lat="46.116107" lon="7.314327"><ele>2053.0</ele></trkpt>
      <trkpt lat="46.116275" lon="7.314217"><ele>2048.6</ele></trkpt>
      <trkpt lat="46.116635" lon="7.314057"><ele>2040.2</ele></trkpt>
      <trkpt lat="46.116662" lon="7.314007"><ele>2037.4</ele></trkpt>
      <trkpt lat="46.116732" lon="7.313952"><ele>2035.6</ele></trkpt>
      <trkpt lat="46.116837" lon="7.313897"><ele>2032.6</ele></trkpt>
      <trkpt lat="46.117055" lon="7.313822"><ele>2027.2</ele></trkpt>
      <trkpt lat="46.117177" lon="7.313752"><ele>2024.6</ele></trkpt>
      <trkpt lat="46.117392" lon="7.313662"><ele>2020.0</ele></trkpt>
      <trkpt lat="46.117497" lon="7.313557"><ele>2016.6</ele></trkpt>
      <trkpt lat="46.117665" lon="7.313472"><ele>2012.6</ele></trkpt>
      <trkpt lat="46.117882" lon="7.313392"><ele>2007.4</ele></trkpt>
      <trkpt lat="46.117945" lon="7.313392"><ele>2005.4</ele></trkpt>
      <trkpt lat="46.118180" lon="7.313297"><ele>2001.8</ele></trkpt>
      <trkpt lat="46.118405" lon="7.313187"><ele>1998.4</ele></trkpt>
      <trkpt lat="46.118532" lon="7.313080"><ele>1994.0</ele></trkpt>
      <trkpt lat="46.118750" lon="7.312992"><ele>1991.4</ele></trkpt>
      <trkpt lat="46.118875" lon="7.312905"><ele>1990.2</ele></trkpt>
      <trkpt lat="46.118940" lon="7.312897"><ele>1989.6</ele></trkpt>
      <trkpt lat="46.118985" lon="7.312930"><ele>1988.8</ele></trkpt>
      <trkpt lat="46.119162" lon="7.313002"><ele>1986.0</ele></trkpt>
      <trkpt lat="46.119290" lon="7.313017"><ele>1984.2</ele></trkpt>
      <trkpt lat="46.119415" lon="7.312990"><ele>1982.6</ele></trkpt>
      <trkpt lat="46.119470" lon="7.312955"><ele>1981.6</ele></trkpt>
      <trkpt lat="46.119662" lon="7.312892"><ele>1979.0</ele></trkpt>
      <trkpt lat="46.119857" lon="7.312882"><ele>1976.6</ele></trkpt>
      <trkpt lat="46.120197" lon="7.312817"><ele>1972.6</ele></trkpt>
      <trkpt lat="46.120332" lon="7.312755"><ele>1971.2</ele></trkpt>
      <trkpt lat="46.120857" lon="7.312607"><ele>1965.4</ele></trkpt>
      <trkpt lat="46.121112" lon="7.312503"><ele>1962.2</ele></trkpt>
      <trkpt lat="46.121180" lon="7.312450"><ele>1961.4</ele></trkpt>
      <trkpt lat="46.121237" lon="7.312372"><ele>1960.6</ele></trkpt>
      <trkpt lat="46.121327" lon="7.312180"><ele>1959.4</ele></trkpt>
      <trkpt lat="46.121357" lon="7.311942"><ele>1957.8</ele></trkpt>
      <trkpt lat="46.121322" lon="7.311685"><ele>1955.8</ele></trkpt>
      <trkpt lat="46.121340" lon="7.311560"><ele>1954.6</ele></trkpt>
      <trkpt lat="46.121377" lon="7.311452"><ele>1953.6</ele></trkpt>
      <trkpt lat="46.121592" lon="7.311297"><ele>1950.0</ele></trkpt>
      <trkpt lat="46.122025" lon="7.311145"><ele>1944.2</ele></trkpt>
      <trkpt lat="46.122135" lon="7.311082"><ele>1943.4</ele></trkpt>
      <trkpt lat="46.122182" lon="7.311077"><ele>1943.2</ele></trkpt>
      <trkpt lat="46.122367" lon="7.311110"><ele>1942.6</ele></trkpt>
      <trkpt lat="46.122503" lon="7.311052"><ele>1941.4</ele></trkpt>
      <trkpt lat="46.122650" lon="7.311062"><ele>1939.8</ele></trkpt>
      <trkpt lat="46.122722" lon="7.311025"><ele>1938.6</ele></trkpt>
      <trkpt lat="46.122797" lon="7.311020"><ele>1937.6</ele></trkpt>
      <trkpt lat="46.123055" lon="7.311062"><ele>1934.4</ele></trkpt>
      <trkpt lat="46.123145" lon="7.311092"><ele>1933.4</ele></trkpt>
      <trkpt lat="46.123222" lon="7.311150"><ele>1932.2</ele></trkpt>
      <trkpt lat="46.123302" lon="7.311172"><ele>1931.2</ele></trkpt>
      <trkpt lat="46.123387" lon="7.311167"><ele>1929.6</ele></trkpt>
      <trkpt lat="46.123482" lon="7.311192"><ele>1928.2</ele></trkpt>
      <trkpt lat="46.123647" lon="7.311287"><ele>1925.8</ele></trkpt>
      <trkpt lat="46.123742" lon="7.311287"><ele>1924.2</ele></trkpt>
      <trkpt lat="46.123832" lon="7.311327"><ele>1922.4</ele></trkpt>
      <trkpt lat="46.123907" lon="7.311390"><ele>1921.2</ele></trkpt>
      <trkpt lat="46.124097" lon="7.311415"><ele>1918.0</ele></trkpt>
      <trkpt lat="46.124272" lon="7.311547"><ele>1915.0</ele></trkpt>
      <trkpt lat="46.124473" lon="7.311557"><ele>1912.0</ele></trkpt>
      <trkpt lat="46.124662" lon="7.311672"><ele>1909.0</ele></trkpt>
      <trkpt lat="46.124867" lon="7.311687"><ele>1905.8</ele></trkpt>
      <trkpt lat="46.124957" lon="7.311735"><ele>1904.2</ele></trkpt>
      <trkpt lat="46.125122" lon="7.311867"><ele>1901.4</ele></trkpt>
      <trkpt lat="46.125212" lon="7.311902"><ele>1900.2</ele></trkpt>
      <trkpt lat="46.125387" lon="7.311915"><ele>1898.4</ele></trkpt>
      <trkpt lat="46.125462" lon="7.311967"><ele>1897.4</ele></trkpt>
      <trkpt lat="46.125522" lon="7.312047"><ele>1896.2</ele></trkpt>
      <trkpt lat="46.125595" lon="7.312105"><ele>1895.0</ele></trkpt>
      <trkpt lat="46.125747" lon="7.312150"><ele>1893.2</ele></trkpt>
      <trkpt lat="46.125817" lon="7.312197"><ele>1892.4</ele></trkpt>
      <trkpt lat="46.125940" lon="7.312317"><ele>1891.0</ele></trkpt>
      <trkpt lat="46.126080" lon="7.312402"><ele>1889.4</ele></trkpt>
      <trkpt lat="46.126152" lon="7.312420"><ele>1888.6</ele></trkpt>
      <trkpt lat="46.126307" lon="7.312402"><ele>1887.4</ele></trkpt>
      <trkpt lat="46.126385" lon="7.312437"><ele>1886.6</ele></trkpt>
      <trkpt lat="46.126520" lon="7.312565"><ele>1885.2</ele></trkpt>
      <trkpt lat="46.126597" lon="7.312580"><ele>1884.6</ele></trkpt>
      <trkpt lat="46.126682" lon="7.312567"><ele>1883.8</ele></trkpt>
      <trkpt lat="46.126770" lon="7.312587"><ele>1883.2</ele></trkpt>
      <trkpt lat="46.126852" lon="7.312645"><ele>1882.6</ele></trkpt>
      <trkpt lat="46.126997" lon="7.312802"><ele>1880.8</ele></trkpt>
      <trkpt lat="46.127077" lon="7.312857"><ele>1879.8</ele></trkpt>
      <trkpt lat="46.127162" lon="7.312890"><ele>1879.0</ele></trkpt>
      <trkpt lat="46.127247" lon="7.312895"><ele>1878.2</ele></trkpt>
      <trkpt lat="46.127490" lon="7.312857"><ele>1875.4</ele></trkpt>
      <trkpt lat="46.127760" lon="7.312862"><ele>1872.6</ele></trkpt>
      <trkpt lat="46.127832" lon="7.312887"><ele>1872.2</ele></trkpt>
      <trkpt lat="46.127890" lon="7.312950"><ele>1871.8</ele></trkpt>
      <trkpt lat="46.127962" lon="7.312995"><ele>1871.4</ele></trkpt>
      <trkpt lat="46.128052" lon="7.312997"><ele>1870.8</ele></trkpt>
      <trkpt lat="46.128130" lon="7.313067"><ele>1869.8</ele></trkpt>
      <trkpt lat="46.128187" lon="7.313162"><ele>1869.0</ele></trkpt>
      <trkpt lat="46.128357" lon="7.313215"><ele>1866.4</ele></trkpt>
      <trkpt lat="46.128420" lon="7.313300"><ele>1864.8</ele></trkpt>
      <trkpt lat="46.128460" lon="7.313387"><ele>1863.6</ele></trkpt>
      <trkpt lat="46.128520" lon="7.313427"><ele>1861.8</ele></trkpt>
      <trkpt lat="46.128600" lon="7.313420"><ele>1860.0</ele></trkpt>
      <trkpt lat="46.128680" lon="7.313447"><ele>1858.4</ele></trkpt>
      <trkpt lat="46.128825" lon="7.313540"><ele>1855.8</ele></trkpt>
      <trkpt lat="46.128912" lon="7.313560"><ele>1854.2</ele></trkpt>
      <trkpt lat="46.128995" lon="7.313617"><ele>1852.6</ele></trkpt>
      <trkpt lat="46.129112" lon="7.313787"><ele>1850.2</ele></trkpt>
      <trkpt lat="46.129180" lon="7.313857"><ele>1848.6</ele></trkpt>
      <trkpt lat="46.129220" lon="7.314032"><ele>1845.2</ele></trkpt>
      <trkpt lat="46.129342" lon="7.314157"><ele>1839.6</ele></trkpt>
      <trkpt lat="46.129447" lon="7.314342"><ele>1834.4</ele></trkpt>
      <trkpt lat="46.129505" lon="7.314357"><ele>1832.8</ele></trkpt>
      <trkpt lat="46.129555" lon="7.314407"><ele>1831.0</ele></trkpt>
      <trkpt lat="46.129587" lon="7.314475"><ele>1829.4</ele></trkpt>
      <trkpt lat="46.129645" lon="7.314507"><ele>1828.0</ele></trkpt>
      <trkpt lat="46.129727" lon="7.314635"><ele>1824.6</ele></trkpt>
      <trkpt lat="46.129845" lon="7.314722"><ele>1821.4</ele></trkpt>
      <trkpt lat="46.129952" lon="7.314867"><ele>1818.2</ele></trkpt>
      <trkpt lat="46.130100" lon="7.314910"><ele>1814.0</ele></trkpt>
      <trkpt lat="46.130177" lon="7.314957"><ele>1812.6</ele></trkpt>
      <trkpt lat="46.130252" lon="7.315035"><ele>1811.0</ele></trkpt>
      <trkpt lat="46.130342" lon="7.315087"><ele>1810.0</ele></trkpt>
      <trkpt lat="46.130715" lon="7.315160"><ele>1805.0</ele></trkpt>
      <trkpt lat="46.130902" lon="7.315152"><ele>1801.8</ele></trkpt>
      <trkpt lat="46.131082" lon="7.315187"><ele>1799.0</ele></trkpt>
      <trkpt lat="46.131265" lon="7.315182"><ele>1796.4</ele></trkpt>
      <trkpt lat="46.131435" lon="7.315222"><ele>1794.2</ele></trkpt>
      <trkpt lat="46.131617" lon="7.315207"><ele>1791.2</ele></trkpt>
      <trkpt lat="46.131707" lon="7.315215"><ele>1790.6</ele></trkpt>
      <trkpt lat="46.131957" lon="7.315292"><ele>1788.2</ele></trkpt>
      <trkpt lat="46.132210" lon="7.315302"><ele>1786.0</ele></trkpt>
      <trkpt lat="46.132447" lon="7.315340"><ele>1783.8</ele></trkpt>
      <trkpt lat="46.132612" lon="7.315332"><ele>1782.2</ele></trkpt>
      <trkpt lat="46.132787" lon="7.315287"><ele>1780.4</ele></trkpt>
      <trkpt lat="46.132877" lon="7.315287"><ele>1779.6</ele></trkpt>
      <trkpt lat="46.132952" lon="7.315327"><ele>1778.6</ele></trkpt>
      <trkpt lat="46.133122" lon="7.315307"><ele>1776.2</ele></trkpt>
      <trkpt lat="46.133205" lon="7.315332"><ele>1774.6</ele></trkpt>
      <trkpt lat="46.133382" lon="7.315290"><ele>1772.4</ele></trkpt>
      <trkpt lat="46.133462" lon="7.315327"><ele>1770.4</ele></trkpt>
      <trkpt lat="46.133545" lon="7.315342"><ele>1769.0</ele></trkpt>
      <trkpt lat="46.133632" lon="7.315332"><ele>1767.4</ele></trkpt>
      <trkpt lat="46.133792" lon="7.315417"><ele>1764.0</ele></trkpt>
      <trkpt lat="46.133877" lon="7.315442"><ele>1762.6</ele></trkpt>
      <trkpt lat="46.134017" lon="7.315582"><ele>1759.6</ele></trkpt>
      <trkpt lat="46.134192" lon="7.315632"><ele>1756.4</ele></trkpt>
      <trkpt lat="46.134275" lon="7.315675"><ele>1755.0</ele></trkpt>
      <trkpt lat="46.134455" lon="7.315707"><ele>1752.4</ele></trkpt>
      <trkpt lat="46.134618" lon="7.315792"><ele>1750.2</ele></trkpt>
      <trkpt lat="46.134852" lon="7.315827"><ele>1746.8</ele></trkpt>
      <trkpt lat="46.135052" lon="7.315907"><ele>1742.2</ele></trkpt>
      <trkpt lat="46.135160" lon="7.315932"><ele>1741.4</ele></trkpt>
      <trkpt lat="46.135180" lon="7.315922"><ele>1741.4</ele></trkpt>
      <trkpt lat="46.135187" lon="7.315895"><ele>1741.2</ele></trkpt>
    </trkseg>
  </trk>
</gpx>
