<?xml version="1.0" encoding="UTF-8"?>
<gpx version="1.1" creator="Snowdesk dev fixture" xmlns="http://www.topografix.com/GPX/1/1">
  <metadata><name>Mont Fort from Les Ruinettes</name></metadata>
  <trk>
    <name>Mont Fort from Les Ruinettes</name>
    <trkseg>
      <trkpt lat="46.095500" lon="7.255500">
        <ele>2200.0</ele>
        <time>2026-02-14T08:30:00Z</time>
      </trkpt>
      <trkpt lat="46.095593" lon="7.255907">
        <ele>2205.7</ele>
        <time>2026-02-14T08:30:45Z</time>
      </trkpt>
      <trkpt lat="46.095686" lon="7.256314">
        <ele>2211.4</ele>
        <time>2026-02-14T08:31:30Z</time>
      </trkpt>
      <trkpt lat="46.095779" lon="7.256721">
        <ele>2217.1</ele>
        <time>2026-02-14T08:32:15Z</time>
      </trkpt>
      <trkpt lat="46.095871" lon="7.257129">
        <ele>2222.9</ele>
        <time>2026-02-14T08:33:00Z</time>
      </trkpt>
      <trkpt lat="46.095964" lon="7.257536">
        <ele>2228.6</ele>
        <time>2026-02-14T08:33:45Z</time>
      </trkpt>
      <trkpt lat="46.096057" lon="7.257943">
        <ele>2234.3</ele>
        <time>2026-02-14T08:34:30Z</time>
      </trkpt>
      <trkpt lat="46.096150" lon="7.258350">
        <ele>2240.0</ele>
        <time>2026-02-14T08:35:15Z</time>
      </trkpt>
      <trkpt lat="46.096243" lon="7.258757">
        <ele>2245.7</ele>
        <time>2026-02-14T08:36:00Z</time>
      </trkpt>
      <trkpt lat="46.096336" lon="7.259164">
        <ele>2251.4</ele>
        <time>2026-02-14T08:36:45Z</time>
      </trkpt>
      <trkpt lat="46.096429" lon="7.259571">
        <ele>2257.1</ele>
        <time>2026-02-14T08:37:30Z</time>
      </trkpt>
      <trkpt lat="46.096521" lon="7.259979">
        <ele>2262.9</ele>
        <time>2026-02-14T08:38:15Z</time>
      </trkpt>
      <trkpt lat="46.096614" lon="7.260386">
        <ele>2268.6</ele>
        <time>2026-02-14T08:39:00Z</time>
      </trkpt>
      <trkpt lat="46.096707" lon="7.260793">
        <ele>2274.3</ele>
        <time>2026-02-14T08:39:45Z</time>
      </trkpt>
      <trkpt lat="46.096800" lon="7.261200">
        <ele>2280.0</ele>
        <time>2026-02-14T08:40:30Z</time>
      </trkpt>
      <trkpt lat="46.096893" lon="7.261600">
        <ele>2285.8</ele>
        <time>2026-02-14T08:41:15Z</time>
      </trkpt>
      <trkpt lat="46.096986" lon="7.262000">
        <ele>2291.6</ele>
        <time>2026-02-14T08:42:00Z</time>
      </trkpt>
      <trkpt lat="46.097079" lon="7.262400">
        <ele>2297.4</ele>
        <time>2026-02-14T08:42:45Z</time>
      </trkpt>
      <trkpt lat="46.097171" lon="7.262800">
        <ele>2303.1</ele>
        <time>2026-02-14T08:43:30Z</time>
      </trkpt>
      <trkpt lat="46.097264" lon="7.263200">
        <ele>2308.9</ele>
        <time>2026-02-14T08:44:15Z</time>
      </trkpt>
      <trkpt lat="46.097357" lon="7.263600">
        <ele>2314.7</ele>
        <time>2026-02-14T08:45:00Z</time>
      </trkpt>
      <trkpt lat="46.097450" lon="7.264000">
        <ele>2320.5</ele>
        <time>2026-02-14T08:45:45Z</time>
      </trkpt>
      <trkpt lat="46.097543" lon="7.264400">
        <ele>2326.3</ele>
        <time>2026-02-14T08:46:30Z</time>
      </trkpt>
      <trkpt lat="46.097636" lon="7.264800">
        <ele>2332.1</ele>
        <time>2026-02-14T08:47:15Z</time>
      </trkpt>
      <trkpt lat="46.097729" lon="7.265200">
        <ele>2337.9</ele>
        <time>2026-02-14T08:48:00Z</time>
      </trkpt>
      <trkpt lat="46.097821" lon="7.265600">
        <ele>2343.6</ele>
        <time>2026-02-14T08:48:45Z</time>
      </trkpt>
      <trkpt lat="46.097914" lon="7.266000">
        <ele>2349.4</ele>
        <time>2026-02-14T08:49:30Z</time>
      </trkpt>
      <trkpt lat="46.098007" lon="7.266400">
        <ele>2355.2</ele>
        <time>2026-02-14T08:50:15Z</time>
      </trkpt>
      <trkpt lat="46.098100" lon="7.266800">
        <ele>2361.0</ele>
        <time>2026-02-14T08:51:00Z</time>
      </trkpt>
      <trkpt lat="46.098193" lon="7.267100">
        <ele>2367.5</ele>
        <time>2026-02-14T08:51:45Z</time>
      </trkpt>
      <trkpt lat="46.098286" lon="7.267400">
        <ele>2374.0</ele>
        <time>2026-02-14T08:52:30Z</time>
      </trkpt>
      <trkpt lat="46.098379" lon="7.267700">
        <ele>2380.5</ele>
        <time>2026-02-14T08:53:15Z</time>
      </trkpt>
      <trkpt lat="46.098471" lon="7.268000">
        <ele>2387.0</ele>
        <time>2026-02-14T08:54:00Z</time>
      </trkpt>
      <trkpt lat="46.098564" lon="7.268300">
        <ele>2393.5</ele>
        <time>2026-02-14T08:54:45Z</time>
      </trkpt>
      <trkpt lat="46.098657" lon="7.268600">
        <ele>2400.0</ele>
        <time>2026-02-14T08:55:30Z</time>
      </trkpt>
      <trkpt lat="46.098750" lon="7.268900">
        <ele>2406.5</ele>
        <time>2026-02-14T08:56:15Z</time>
      </trkpt>
      <trkpt lat="46.098843" lon="7.269200">
        <ele>2413.0</ele>
        <time>2026-02-14T08:57:00Z</time>
      </trkpt>
      <trkpt lat="46.098936" lon="7.269500">
        <ele>2419.5</ele>
        <time>2026-02-14T08:57:45Z</time>
      </trkpt>
      <trkpt lat="46.099029" lon="7.269800">
        <ele>2426.0</ele>
        <time>2026-02-14T08:58:30Z</time>
      </trkpt>
      <trkpt lat="46.099121" lon="7.270100">
        <ele>2432.5</ele>
        <time>2026-02-14T08:59:15Z</time>
      </trkpt>
      <trkpt lat="46.099214" lon="7.270400">
        <ele>2439.0</ele>
        <time>2026-02-14T09:00:00Z</time>
      </trkpt>
      <trkpt lat="46.099307" lon="7.270700">
        <ele>2445.5</ele>
        <time>2026-02-14T09:00:45Z</time>
      </trkpt>
      <trkpt lat="46.099400" lon="7.271000">
        <ele>2452.0</ele>
        <time>2026-02-14T09:01:30Z</time>
      </trkpt>
      <trkpt lat="46.099486" lon="7.271250">
        <ele>2458.6</ele>
        <time>2026-02-14T09:02:15Z</time>
      </trkpt>
      <trkpt lat="46.099571" lon="7.271500">
        <ele>2465.3</ele>
        <time>2026-02-14T09:03:00Z</time>
      </trkpt>
      <trkpt lat="46.099657" lon="7.271750">
        <ele>2471.9</ele>
        <time>2026-02-14T09:03:45Z</time>
      </trkpt>
      <trkpt lat="46.099743" lon="7.272000">
        <ele>2478.6</ele>
        <time>2026-02-14T09:04:30Z</time>
      </trkpt>
      <trkpt lat="46.099829" lon="7.272250">
        <ele>2485.2</ele>
        <time>2026-02-14T09:05:15Z</time>
      </trkpt>
      <trkpt lat="46.099914" lon="7.272500">
        <ele>2491.9</ele>
        <time>2026-02-14T09:06:00Z</time>
      </trkpt>
      <trkpt lat="46.100000" lon="7.272750">
        <ele>2498.5</ele>
        <time>2026-02-14T09:06:45Z</time>
      </trkpt>
      <trkpt lat="46.100086" lon="7.273000">
        <ele>2505.1</ele>
        <time>2026-02-14T09:07:30Z</time>
      </trkpt>
      <trkpt lat="46.100171" lon="7.273250">
        <ele>2511.8</ele>
        <time>2026-02-14T09:08:15Z</time>
      </trkpt>
      <trkpt lat="46.100257" lon="7.273500">
        <ele>2518.4</ele>
        <time>2026-02-14T09:09:00Z</time>
      </trkpt>
      <trkpt lat="46.100343" lon="7.273750">
        <ele>2525.1</ele>
        <time>2026-02-14T09:09:45Z</time>
      </trkpt>
      <trkpt lat="46.100429" lon="7.274000">
        <ele>2531.7</ele>
        <time>2026-02-14T09:10:30Z</time>
      </trkpt>
      <trkpt lat="46.100514" lon="7.274250">
        <ele>2538.4</ele>
        <time>2026-02-14T09:11:15Z</time>
      </trkpt>
      <trkpt lat="46.100600" lon="7.274500">
        <ele>2545.0</ele>
        <time>2026-02-14T09:12:00Z</time>
      </trkpt>
      <trkpt lat="46.100686" lon="7.274821">
        <ele>2552.4</ele>
        <time>2026-02-14T09:12:45Z</time>
      </trkpt>
      <trkpt lat="46.100771" lon="7.275143">
        <ele>2559.7</ele>
        <time>2026-02-14T09:13:30Z</time>
      </trkpt>
      <trkpt lat="46.100857" lon="7.275464">
        <ele>2567.1</ele>
        <time>2026-02-14T09:14:15Z</time>
      </trkpt>
      <trkpt lat="46.100943" lon="7.275786">
        <ele>2574.4</ele>
        <time>2026-02-14T09:15:00Z</time>
      </trkpt>
      <trkpt lat="46.101029" lon="7.276107">
        <ele>2581.8</ele>
        <time>2026-02-14T09:15:45Z</time>
      </trkpt>
      <trkpt lat="46.101114" lon="7.276429">
        <ele>2589.1</ele>
        <time>2026-02-14T09:16:30Z</time>
      </trkpt>
      <trkpt lat="46.101200" lon="7.276750">
        <ele>2596.5</ele>
        <time>2026-02-14T09:17:15Z</time>
      </trkpt>
      <trkpt lat="46.101286" lon="7.277071">
        <ele>2603.9</ele>
        <time>2026-02-14T09:18:00Z</time>
      </trkpt>
      <trkpt lat="46.101371" lon="7.277393">
        <ele>2611.2</ele>
        <time>2026-02-14T09:18:45Z</time>
      </trkpt>
      <trkpt lat="46.101457" lon="7.277714">
        <ele>2618.6</ele>
        <time>2026-02-14T09:19:30Z</time>
      </trkpt>
      <trkpt lat="46.101543" lon="7.278036">
        <ele>2625.9</ele>
        <time>2026-02-14T09:20:15Z</time>
      </trkpt>
      <trkpt lat="46.101629" lon="7.278357">
        <ele>2633.3</ele>
        <time>2026-02-14T09:21:00Z</time>
      </trkpt>
      <trkpt lat="46.101714" lon="7.278679">
        <ele>2640.6</ele>
        <time>2026-02-14T09:21:45Z</time>
      </trkpt>
      <trkpt lat="46.101800" lon="7.279000">
        <ele>2648.0</ele>
        <time>2026-02-14T09:22:30Z</time>
      </trkpt>
      <trkpt lat="46.101879" lon="7.279364">
        <ele>2656.1</ele>
        <time>2026-02-14T09:23:15Z</time>
      </trkpt>
      <trkpt lat="46.101957" lon="7.279729">
        <ele>2664.3</ele>
        <time>2026-02-14T09:24:00Z</time>
      </trkpt>
      <trkpt lat="46.102036" lon="7.280093">
        <ele>2672.4</ele>
        <time>2026-02-14T09:24:45Z</time>
      </trkpt>
      <trkpt lat="46.102114" lon="7.280457">
        <ele>2680.6</ele>
        <time>2026-02-14T09:25:30Z</time>
      </trkpt>
      <trkpt lat="46.102193" lon="7.280821">
        <ele>2688.7</ele>
        <time>2026-02-14T09:26:15Z</time>
      </trkpt>
      <trkpt lat="46.102271" lon="7.281186">
        <ele>2696.9</ele>
        <time>2026-02-14T09:27:00Z</time>
      </trkpt>
      <trkpt lat="46.102350" lon="7.281550">
        <ele>2705.0</ele>
        <time>2026-02-14T09:27:45Z</time>
      </trkpt>
      <trkpt lat="46.102429" lon="7.281914">
        <ele>2713.1</ele>
        <time>2026-02-14T09:28:30Z</time>
      </trkpt>
      <trkpt lat="46.102507" lon="7.282279">
        <ele>2721.3</ele>
        <time>2026-02-14T09:29:15Z</time>
      </trkpt>
      <trkpt lat="46.102586" lon="7.282643">
        <ele>2729.4</ele>
        <time>2026-02-14T09:30:00Z</time>
      </trkpt>
      <trkpt lat="46.102664" lon="7.283007">
        <ele>2737.6</ele>
        <time>2026-02-14T09:30:45Z</time>
      </trkpt>
      <trkpt lat="46.102743" lon="7.283371">
        <ele>2745.7</ele>
        <time>2026-02-14T09:31:30Z</time>
      </trkpt>
      <trkpt lat="46.102821" lon="7.283736">
        <ele>2753.9</ele>
        <time>2026-02-14T09:32:15Z</time>
      </trkpt>
      <trkpt lat="46.102900" lon="7.284100">
        <ele>2762.0</ele>
        <time>2026-02-14T09:33:00Z</time>
      </trkpt>
      <trkpt lat="46.102979" lon="7.284521">
        <ele>2775.4</ele>
        <time>2026-02-14T09:33:45Z</time>
      </trkpt>
      <trkpt lat="46.103057" lon="7.284943">
        <ele>2788.9</ele>
        <time>2026-02-14T09:34:30Z</time>
      </trkpt>
      <trkpt lat="46.103136" lon="7.285364">
        <ele>2802.3</ele>
        <time>2026-02-14T09:35:15Z</time>
      </trkpt>
      <trkpt lat="46.103214" lon="7.285786">
        <ele>2815.7</ele>
        <time>2026-02-14T09:36:00Z</time>
      </trkpt>
      <trkpt lat="46.103293" lon="7.286207">
        <ele>2829.1</ele>
        <time>2026-02-14T09:36:45Z</time>
      </trkpt>
      <trkpt lat="46.103371" lon="7.286629">
        <ele>2842.6</ele>
        <time>2026-02-14T09:37:30Z</time>
      </trkpt>
      <trkpt lat="46.103450" lon="7.287050">
        <ele>2856.0</ele>
        <time>2026-02-14T09:38:15Z</time>
      </trkpt>
      <trkpt lat="46.103529" lon="7.287471">
        <ele>2869.4</ele>
        <time>2026-02-14T09:39:00Z</time>
      </trkpt>
      <trkpt lat="46.103607" lon="7.287893">
        <ele>2882.9</ele>
        <time>2026-02-14T09:39:45Z</time>
      </trkpt>
      <trkpt lat="46.103686" lon="7.288314">
        <ele>2896.3</ele>
        <time>2026-02-14T09:40:30Z</time>
      </trkpt>
      <trkpt lat="46.103764" lon="7.288736">
        <ele>2909.7</ele>
        <time>2026-02-14T09:41:15Z</time>
      </trkpt>
      <trkpt lat="46.103843" lon="7.289157">
        <ele>2923.1</ele>
        <time>2026-02-14T09:42:00Z</time>
      </trkpt>
      <trkpt lat="46.103921" lon="7.289579">
        <ele>2936.6</ele>
        <time>2026-02-14T09:42:45Z</time>
      </trkpt>
      <trkpt lat="46.104000" lon="7.290000">
        <ele>2950.0</ele>
        <time>2026-02-14T09:43:30Z</time>
      </trkpt>
      <trkpt lat="46.103936" lon="7.290329">
        <ele>2957.9</ele>
        <time>2026-02-14T09:44:15Z</time>
      </trkpt>
      <trkpt lat="46.103871" lon="7.290657">
        <ele>2965.9</ele>
        <time>2026-02-14T09:45:00Z</time>
      </trkpt>
      <trkpt lat="46.103807" lon="7.290986">
        <ele>2973.8</ele>
        <time>2026-02-14T09:45:45Z</time>
      </trkpt>
      <trkpt lat="46.103743" lon="7.291314">
        <ele>2981.7</ele>
        <time>2026-02-14T09:46:30Z</time>
      </trkpt>
      <trkpt lat="46.103679" lon="7.291643">
        <ele>2989.6</ele>
        <time>2026-02-14T09:47:15Z</time>
      </trkpt>
      <trkpt lat="46.103614" lon="7.291971">
        <ele>2997.6</ele>
        <time>2026-02-14T09:48:00Z</time>
      </trkpt>
      <trkpt lat="46.103550" lon="7.292300">
        <ele>3005.5</ele>
        <time>2026-02-14T09:48:45Z</time>
      </trkpt>
      <trkpt lat="46.103486" lon="7.292629">
        <ele>3013.4</ele>
        <time>2026-02-14T09:49:30Z</time>
      </trkpt>
      <trkpt lat="46.103421" lon="7.292957">
        <ele>3021.4</ele>
        <time>2026-02-14T09:50:15Z</time>
      </trkpt>
      <trkpt lat="46.103357" lon="7.293286">
        <ele>3029.3</ele>
        <time>2026-02-14T09:51:00Z</time>
      </trkpt>
      <trkpt lat="46.103293" lon="7.293614">
        <ele>3037.2</ele>
        <time>2026-02-14T09:51:45Z</time>
      </trkpt>
      <trkpt lat="46.103229" lon="7.293943">
        <ele>3045.1</ele>
        <time>2026-02-14T09:52:30Z</time>
      </trkpt>
      <trkpt lat="46.103164" lon="7.294271">
        <ele>3053.1</ele>
        <time>2026-02-14T09:53:15Z</time>
      </trkpt>
      <trkpt lat="46.103100" lon="7.294600">
        <ele>3061.0</ele>
        <time>2026-02-14T09:54:00Z</time>
      </trkpt>
      <trkpt lat="46.103007" lon="7.294850">
        <ele>3068.6</ele>
        <time>2026-02-14T09:54:45Z</time>
      </trkpt>
      <trkpt lat="46.102914" lon="7.295100">
        <ele>3076.3</ele>
        <time>2026-02-14T09:55:30Z</time>
      </trkpt>
      <trkpt lat="46.102821" lon="7.295350">
        <ele>3083.9</ele>
        <time>2026-02-14T09:56:15Z</time>
      </trkpt>
      <trkpt lat="46.102729" lon="7.295600">
        <ele>3091.6</ele>
        <time>2026-02-14T09:57:00Z</time>
      </trkpt>
      <trkpt lat="46.102636" lon="7.295850">
        <ele>3099.2</ele>
        <time>2026-02-14T09:57:45Z</time>
      </trkpt>
      <trkpt lat="46.102543" lon="7.296100">
        <ele>3106.9</ele>
        <time>2026-02-14T09:58:30Z</time>
      </trkpt>
      <trkpt lat="46.102450" lon="7.296350">
        <ele>3114.5</ele>
        <time>2026-02-14T09:59:15Z</time>
      </trkpt>
      <trkpt lat="46.102357" lon="7.296600">
        <ele>3122.1</ele>
        <time>2026-02-14T10:00:00Z</time>
      </trkpt>
      <trkpt lat="46.102264" lon="7.296850">
        <ele>3129.8</ele>
        <time>2026-02-14T10:00:45Z</time>
      </trkpt>
      <trkpt lat="46.102171" lon="7.297100">
        <ele>3137.4</ele>
        <time>2026-02-14T10:01:30Z</time>
      </trkpt>
      <trkpt lat="46.102079" lon="7.297350">
        <ele>3145.1</ele>
        <time>2026-02-14T10:02:15Z</time>
      </trkpt>
      <trkpt lat="46.101986" lon="7.297600">
        <ele>3152.7</ele>
        <time>2026-02-14T10:03:00Z</time>
      </trkpt>
      <trkpt lat="46.101893" lon="7.297850">
        <ele>3160.4</ele>
        <time>2026-02-14T10:03:45Z</time>
      </trkpt>
      <trkpt lat="46.101800" lon="7.298100">
        <ele>3168.0</ele>
        <time>2026-02-14T10:04:30Z</time>
      </trkpt>
      <trkpt lat="46.101700" lon="7.298279">
        <ele>3175.4</ele>
        <time>2026-02-14T10:05:15Z</time>
      </trkpt>
      <trkpt lat="46.101600" lon="7.298457">
        <ele>3182.7</ele>
        <time>2026-02-14T10:06:00Z</time>
      </trkpt>
      <trkpt lat="46.101500" lon="7.298636">
        <ele>3190.1</ele>
        <time>2026-02-14T10:06:45Z</time>
      </trkpt>
      <trkpt lat="46.101400" lon="7.298814">
        <ele>3197.4</ele>
        <time>2026-02-14T10:07:30Z</time>
      </trkpt>
      <trkpt lat="46.101300" lon="7.298993">
        <ele>3204.8</ele>
        <time>2026-02-14T10:08:15Z</time>
      </trkpt>
      <trkpt lat="46.101200" lon="7.299171">
        <ele>3212.1</ele>
        <time>2026-02-14T10:09:00Z</time>
      </trkpt>
      <trkpt lat="46.101100" lon="7.299350">
        <ele>3219.5</ele>
        <time>2026-02-14T10:09:45Z</time>
      </trkpt>
      <trkpt lat="46.101000" lon="7.299529">
        <ele>3226.9</ele>
        <time>2026-02-14T10:10:30Z</time>
      </trkpt>
      <trkpt lat="46.100900" lon="7.299707">
        <ele>3234.2</ele>
        <time>2026-02-14T10:11:15Z</time>
      </trkpt>
      <trkpt lat="46.100800" lon="7.299886">
        <ele>3241.6</ele>
        <time>2026-02-14T10:12:00Z</time>
      </trkpt>
      <trkpt lat="46.100700" lon="7.300064">
        <ele>3248.9</ele>
        <time>2026-02-14T10:12:45Z</time>
      </trkpt>
      <trkpt lat="46.100600" lon="7.300243">
        <ele>3256.3</ele>
        <time>2026-02-14T10:13:30Z</time>
      </trkpt>
      <trkpt lat="46.100500" lon="7.300421">
        <ele>3263.6</ele>
        <time>2026-02-14T10:14:15Z</time>
      </trkpt>
      <trkpt lat="46.100400" lon="7.300600">
        <ele>3271.0</ele>
        <time>2026-02-14T10:15:00Z</time>
      </trkpt>
      <trkpt lat="46.100350" lon="7.300700">
        <ele>3275.1</ele>
        <time>2026-02-14T10:15:45Z</time>
      </trkpt>
      <trkpt lat="46.100300" lon="7.300800">
        <ele>3279.1</ele>
        <time>2026-02-14T10:16:30Z</time>
      </trkpt>
      <trkpt lat="46.100250" lon="7.300900">
        <ele>3283.2</ele>
        <time>2026-02-14T10:17:15Z</time>
      </trkpt>
      <trkpt lat="46.100200" lon="7.301000">
        <ele>3287.3</ele>
        <time>2026-02-14T10:18:00Z</time>
      </trkpt>
      <trkpt lat="46.100150" lon="7.301100">
        <ele>3291.4</ele>
        <time>2026-02-14T10:18:45Z</time>
      </trkpt>
      <trkpt lat="46.100100" lon="7.301200">
        <ele>3295.4</ele>
        <time>2026-02-14T10:19:30Z</time>
      </trkpt>
      <trkpt lat="46.100050" lon="7.301300">
        <ele>3299.5</ele>
        <time>2026-02-14T10:20:15Z</time>
      </trkpt>
      <trkpt lat="46.100000" lon="7.301400">
        <ele>3303.6</ele>
        <time>2026-02-14T10:21:00Z</time>
      </trkpt>
      <trkpt lat="46.099950" lon="7.301500">
        <ele>3307.6</ele>
        <time>2026-02-14T10:21:45Z</time>
      </trkpt>
      <trkpt lat="46.099900" lon="7.301600">
        <ele>3311.7</ele>
        <time>2026-02-14T10:22:30Z</time>
      </trkpt>
      <trkpt lat="46.099850" lon="7.301700">
        <ele>3315.8</ele>
        <time>2026-02-14T10:23:15Z</time>
      </trkpt>
      <trkpt lat="46.099800" lon="7.301800">
        <ele>3319.9</ele>
        <time>2026-02-14T10:24:00Z</time>
      </trkpt>
      <trkpt lat="46.099750" lon="7.301900">
        <ele>3323.9</ele>
        <time>2026-02-14T10:24:45Z</time>
      </trkpt>
      <trkpt lat="46.099700" lon="7.302000">
        <ele>3328.0</ele>
        <time>2026-02-14T10:25:30Z</time>
      </trkpt>
    </trkseg>
  </trk>
</gpx>
